{"type":"Topology","arcs":[[[291676,534696],[2760,-19147],[7728,-2616]],[[302164,512933],[-8832,-18315],[22300,-8265]],[[315632,486353],[11040,-5233]],[[326672,481120],[-8721,-3568]],[[317951,477552],[-2760,-12487],[16780,-3806],[-9825,-3925],[-8611,10466],[-10599,-297]],[[302936,467503],[-20976,-21467],[4306,-10346],[7838,3508],[5741,-14212]],[[299845,424986],[-13248,-11833],[9605,-2260],[-11702,-26104]],[[284500,384789],[-7618,-4222],[-12254,6125],[1766,-10882],[-18768,15639]],[[247626,391449],[883,12487],[11703,23904],[-14131,9217],[7507,5293],[-5299,8562],[-11151,-8206],[-1104,13320],[-7728,8206]],[[228306,464232],[12255,27116],[-8612,-1487],[-3643,12785],[-6845,773],[-11481,19087]],[[209980,522506],[6072,8028],[21638,4757],[2650,-9038],[12033,2200],[8612,-7552],[2649,13201],[28042,594]],[[302936,467503],[22522,-13974],[-4306,-7612]],[[321152,445917],[-8280,-12071]],[[312872,433846],[-13027,-8860]],[[257010,573467],[0,-595]],[[257010,572872],[9384,-4162],[52881,8919]],[[319275,577629],[-9715,-25629],[883,-21882]],[[310443,530118],[-18767,4578]],[[209980,522506],[-7618,16829],[-4416,-12547]],[[197946,526788],[-10267,3806],[331,22477]],[[188010,553071],[69552,14925],[-552,4876]],[[257010,572872],[0,595]],[[234930,999999],[20424,-4876],[30360,-29197],[-2429,-27353],[-15677,-15877],[-35990,23191],[10930,-1665],[-18658,13558],[-2870,10049],[11040,-1962],[7176,10406],[-14573,20456],[10267,3270]],[[58070,451091],[9936,-8504]],[[68006,442587],[-2539,-20752],[19761,59]],[[85228,421894],[12476,-20753],[-19983,3628],[-8942,-14450],[-8390,6303],[-9936,-9811],[-6624,5292],[-35991,-238]],[[7838,391865],[884,32289],[-8722,-595],[14352,39424],[13689,17245],[43277,23785]],[[71318,504013],[11150,5411],[0,-19741],[-24729,-16710],[-11813,-20515],[12144,-1367]],[[814859,261045],[-25061,-22358],[-33340,2914]],[[756458,241601],[-552,22774],[-5520,297],[-7618,33776],[15566,1070],[1325,18374],[-10709,3925],[332,8503]],[[749282,330320],[5520,6779],[-2429,14688]],[[752373,351787],[4085,6897],[17001,1071],[8280,-23964],[-4526,-13320],[4968,-9395],[14241,-3746],[-6624,-14688],[6624,-17007],[15346,-1962],[3091,-14628]],[[240340,381697],[-2760,-5411],[-17112,5589],[221,-9098],[9052,-5530],[-110,-15223]],[[229631,352024],[-16670,1725]],[[212961,353749],[-9936,11833],[-17554,7314],[-17443,-238]],[[168028,372658],[-10046,1249],[4195,8384],[-27931,5114]],[[134246,387405],[8059,9693]],[[142305,397098],[17885,-1249],[11592,10406],[-1104,-12725],[6624,-1070],[662,16649],[7286,7077]],[[185250,416186],[8060,-8266],[21417,-11833],[12806,6422],[1656,-10822],[11151,-9990]],[[529366,383302],[4857,-9514]],[[534223,373788],[-8280,-12606],[19100,-595],[-994,-12249],[-15235,-29197],[-7066,7255],[-12033,-6006],[-1436,-10882],[-11150,-1249]],[[497129,308259],[-7507,3568],[-17774,-3925],[4416,11834],[-12365,-9039],[-17774,10287]],[[446125,320984],[-6956,6779]],[[439169,327763],[3644,8682],[-22080,23012],[12916,-8027]],[[433649,351430],[7949,-9158],[12696,5412],[14462,17779],[-662,11417]],[[468094,376880],[13800,6244],[14021,-5471],[19320,1725],[-2098,11357],[16229,-7433]],[[437293,552595],[-2760,-12012],[-9053,-6719],[-11703,7136],[-1104,-6958]],[[412673,534042],[-9273,19207],[9273,6422],[-9604,4222]],[[403069,563893],[-5962,7968],[12034,-1486],[1214,17185]],[[410355,587560],[23626,2259]],[[433981,589819],[-6404,-13676],[1767,-15758],[7949,-7790]],[[369066,440209],[-3754,-13677],[25502,-4935]],[[390814,421597],[-13137,-5174],[11923,-13082],[-2429,-7254]],[[387171,396087],[-3201,773]],[[383970,396860],[-24951,1368]],[[359019,398228],[-22411,15520],[7507,8324],[1546,17185],[-15346,6125]],[[330315,445382],[7618,5233]],[[337933,450615],[25392,-12606],[5741,2200]],[[279642,236070],[8942,-11595],[-14683,-15461],[-2981,-12308],[-11923,4519],[7066,9217],[-8059,4222],[-29587,-9336]],[[228417,205328],[-15787,-14034],[-2981,21407],[-14352,2498],[993,13617],[-12254,654],[1214,11298],[12034,-119],[-22411,25391]],[[174873,266040],[11040,-4162]],[[185913,261878],[28924,-4936],[4196,10347],[16339,-6541]],[[235372,260748],[19209,-892],[-2980,9098],[16449,-7671],[10046,2260],[-4084,-22656],[5630,-4817]],[[771582,671403],[1215,-40732],[-8170,-7790],[14794,-1130]],[[779421,621751],[-12255,-9871],[-3532,-12130],[-16008,1486],[-7066,11893],[-44049,5590],[-22080,-3509],[-1546,12904]],[[672885,628114],[20645,5470],[662,9515],[-12806,1248],[-7507,-8503],[-10709,5411],[0,9812]],[[663170,651067],[43497,8265],[20204,-5530],[25833,3925],[18878,13676]],[[431110,396919],[-8169,-4697]],[[422941,392222],[-14904,-5352],[4526,12725],[-13358,-59]],[[399205,399536],[14462,5054],[17443,-7671]],[[204681,447523],[-1767,-12606],[-20644,713],[2980,-19444]],[[142305,397098],[6403,17304],[-8390,8503],[2429,10703],[10377,-8384],[15346,4044],[4526,19563]],[[172996,448831],[5078,6779]],[[178074,455610],[7066,-595],[3422,-12844],[16119,5352]],[[299624,336921],[111,-1546]],[[299735,335375],[2208,-13201],[-17664,-10406],[21417,-6958]],[[305696,304810],[-5630,-8503],[-12586,892],[-1987,-9038],[-10157,-952]],[[275336,287209],[-8721,4281],[1766,38236],[-16891,-179],[-552,-11476],[-10377,3330],[3643,8860],[-18216,9930]],[[225988,340191],[331,5114]],[[226319,345305],[29918,-4698],[6403,-6719],[11703,714],[-13690,11000],[38971,-8681]],[[885515,660640],[-7066,-892],[111,0],[110,-119],[-994,0],[-4968,-59],[-7617,-3270],[-221,0],[-11261,1843],[111,-238],[-6293,714],[-331,-60],[-442,0],[-221,0],[-3201,833],[-663,59],[-5078,-11476],[-24619,951],[-7176,-18136],[5630,-5828],[111,-17244],[-8391,594]],[[803046,608312],[-5409,14747],[-9826,-10346],[3974,16293],[-11371,1011],[-993,-8266]],[[771582,671403],[19872,6720],[20424,-3568],[38530,-1368],[35107,-12547]],[[628284,433787],[12033,-6898],[-9163,-14985],[-10046,3925],[-8832,-15936],[-14573,-3449]],[[597703,396444],[8832,21109],[-5410,10585],[6293,17363]],[[607418,445501],[15567,-1070],[5299,-10644]],[[624089,211155],[-9826,-4281],[-1877,-20575],[-10046,1903],[-5410,-12130]],[[596930,176072],[-3422,-25926],[-28925,-773],[-17332,-42398],[-16450,-119],[-6955,-5471],[-3864,-19682],[-11813,-3033],[-3974,8147]],[[504195,86817],[-14021,1189],[4085,23845],[9273,-951],[-2208,-8920],[15898,1249],[3533,24499],[-12586,8919],[-18878,20813],[11150,11417],[-8832,18671]],[[491609,187548],[-1104,14807],[9605,-1071]],[[500110,201284],[21749,-1249],[2097,12488],[23736,-2498],[1877,12369],[11040,1011],[-883,10703]],[[559726,234108],[9273,14271],[4747,-7254],[31575,-12963],[-1104,-12488],[19872,-4519]],[[803046,608312],[-9163,-1546],[-2650,-26639],[-10267,-9515],[-16339,536],[-1877,-14331],[-15124,-5827],[5961,-7196],[-15014,-4043]],[[738573,539751],[-11371,8206],[4195,7849],[-11040,1725],[1325,13260],[-33672,773],[-14131,-16471]],[[673879,555093],[-4858,891],[2429,19802]],[[671450,575786],[1435,23785],[-3753,8147],[-14352,-4817],[-1767,9812]],[[653013,612713],[14683,4162],[5189,11239]],[[363546,252780],[-10930,-40792],[7286,-892]],[[359902,211096],[-17663,-12071],[18988,-8147],[663,-8146],[-20314,4757],[-441,-12666],[19319,-9276],[-552,-9277],[-46478,3092],[-6403,-4340],[-22301,-34251]],[[284720,120771],[-6182,5827],[2098,19504],[-52219,59226]],[[279642,236070],[21418,-2675],[-663,-4995],[21638,2438],[2429,10881],[-16449,7077],[-1546,10049],[19320,-13141],[14352,11179],[-4306,3567]],[[335835,260450],[3975,1903]],[[339810,262353],[6955,-7968],[16781,-1605]],[[225988,340191],[-2539,-18612],[-7618,59],[-2870,-20574],[-11261,-2616]],[[201700,298448],[-21307,1784],[-11151,16293],[-9935,892],[7286,11654],[-12586,4222],[1104,8682]],[[155111,341975],[9716,-595],[772,10050],[11482,-10347],[23405,535],[12475,12131]],[[229631,352024],[-3312,-6719]],[[400309,483796],[-8832,1486],[-15677,-9573]],[[375800,475709],[-9274,-2557],[-4416,19801]],[[362110,492953],[-3422,6482],[12034,11536]],[[370722,510971],[5630,-12607],[11482,-3865],[-1104,-6719],[15124,5589],[-1545,-9573]],[[275336,287209],[-4747,-9395],[-17443,4222],[-5961,-9217],[-8943,2557],[-2870,-14628]],[[185913,261878],[7065,10108],[8722,26462]],[[338816,503002],[-2318,-1605]],[[336498,501397],[-17664,3330],[-2539,9038]],[[316295,513765],[7838,4876]],[[324133,518641],[11040,21705]],[[335173,540346],[4195,-6720],[-552,-30624]],[[437624,328477],[1545,-714]],[[446125,320984],[-4968,2201],[-773,-22418],[-14463,-5292]],[[425921,295475],[-3974,-9098],[-18105,8027]],[[403842,294404],[4967,17601]],[[408809,312005],[15677,3330],[4858,14509],[8280,-1367]],[[85228,421894],[14021,-1486],[5410,-15402],[7507,-475],[1325,-13915],[20755,-3211]],[[168028,372658],[-1214,-8741],[-17885,-4460],[-15677,8385],[-1435,-6898],[17885,-7314],[5409,-11655]],[[174873,266040],[-35438,39900]],[[139435,305940],[2428,7730],[-12696,8325],[-1435,-11833],[-10598,5411],[4857,12488],[-19871,1546],[-2871,10703],[-25613,-535],[2540,11476],[-10378,-1129],[-3422,9157],[-34555,19682],[993,-27353],[-5409,-238],[331,39662],[-15898,0]],[[7838,391032],[0,833]],[[371715,292977],[7397,-9752]],[[379112,283225],[442,-20693],[-4085,-6363]],[[375469,256169],[-9384,-3449]],[[366085,252720],[-2539,60]],[[339810,262353],[-5520,20218],[21307,-5649],[994,15936]],[[356591,292858],[15124,119]],[[350850,333769],[6734,-16769],[13138,2974],[2980,-13618],[8060,-713]],[[381762,305643],[-10047,-12666]],[[356591,292858],[-11151,3092]],[[345440,295950],[1546,10287],[-8832,3211],[3422,9634],[-10377,9395]],[[331199,328477],[15566,-595],[4085,5887]],[[68006,442587],[41179,-3805],[331,6065],[23515,3033],[-2539,-12190],[18768,8027],[-6955,8444],[9053,5292],[21528,-4697],[110,-3925]],[[705011,366652],[-6072,-6481],[4416,-9752],[13690,-5114],[-23846,-11120],[-6514,-11119]],[[686685,323066],[-33120,-6006],[-6624,4995],[16119,832],[-1215,7255],[16450,2676],[3422,12725],[-16339,-1427],[-883,6006]],[[664495,350122],[4526,8206],[18989,2200]],[[688010,360528],[17001,6124]],[[468094,376880],[-4085,12606]],[[464009,389486],[10157,-1248],[-11482,27650]],[[462684,415888],[7839,119]],[[470523,416007],[27931,-5173],[-994,-14093],[8280,-892],[-441,19742]],[[505299,415591],[15897,-7671],[16339,-1189],[-10046,-4222],[1877,-19207]],[[555972,460664],[-12917,-4162],[-3312,-13498],[11261,-10466],[-7286,-9633]],[[543718,422905],[-3975,4876],[-16780,-11060],[4857,12368],[-23736,11417],[-16670,-5292],[-14573,2260],[-1325,-7850],[22522,-4162],[11261,-9871]],[[470523,416007],[1656,11774],[-25723,11476],[-22743,4876],[-2208,11953]],[[421505,456086],[9495,-3984],[7286,10881]],[[438286,462983],[33451,4341],[7066,4817]],[[478803,472141],[11813,-2914]],[[490616,469227],[5188,0]],[[495804,469227],[18547,6184],[18106,-1665],[5410,-7492],[18105,-5590]],[[344557,575191],[-6734,773],[-994,-25510]],[[336829,550454],[-1656,-10108]],[[324133,518641],[-13690,11477]],[[319275,577629],[11924,1487]],[[331199,579116],[13358,-3925]],[[197946,526788],[9274,-17126],[3974,-43527]],[[211194,466135],[-6513,-18612]],[[178074,455610],[5962,13439],[-20203,356],[1214,6125],[-23956,8028],[-10599,-833],[-2760,-9930],[-23404,4162],[-3312,-7789],[-21860,892],[-8831,-3866],[-12255,-15103]],[[71318,504013],[36542,20575],[37757,8087],[19982,11595],[22411,8801]],[[433649,351430],[-1435,12725],[-12475,8265],[-4195,9871],[7397,9931]],[[431110,396919],[6735,2676]],[[437845,399595],[24287,-4995],[1877,-5114]],[[462684,415888],[-4747,9158],[-8721,-3568],[-18437,3865],[-17333,-5352]],[[413446,419991],[-7507,7017]],[[405939,427008],[8501,14093],[-9936,10644]],[[404504,451745],[9936,-2319],[3864,8146]],[[418304,457572],[3201,-1486]],[[413446,419991],[5299,-13557],[17885,713],[1215,-7552]],[[399205,399536],[-12034,-3449]],[[390814,421597],[-883,5946],[16008,-535]],[[744645,520723],[12806,-6958],[-4085,-12665],[9164,-1784]],[[762530,499316],[-10820,-16531],[4748,-17899],[11592,-2795]],[[768050,462091],[3532,-9930],[-10156,-3806],[-6845,10763],[-8170,-10168],[-2208,-15520],[-10819,-8206],[7066,-2795]],[[740450,422429],[-15787,3687]],[[724663,426116],[-17664,22299],[-13800,-10823]],[[693199,437592],[-8501,14747],[-17112,-237]],[[667586,452102],[9384,8622],[-7176,11001],[3533,17839],[-8943,8622],[-4305,31753]],[[660079,529939],[10819,4936]],[[670898,534875],[8280,-11060],[20093,59],[24067,-9157],[16449,-1368],[4858,7374]],[[578714,497948],[-2428,-6422],[-18768,-1843],[-773,-5828],[-37978,595],[4637,9692],[14904,-5351],[1435,9930],[-12916,535]],[[526827,499256],[-10820,12131],[8060,9990],[12254,-1071],[19761,-13736],[15677,773],[6955,-9395]],[[693199,437592],[1324,-9633]],[[694523,427959],[-8942,-1843],[2760,-11714],[-17222,12665],[110,-8087],[-14352,-24201],[5079,-6006],[-24067,-3984],[-1325,6243],[-32127,-475]],[[604437,390557],[-8390,2140]],[[596047,392697],[1656,3747]],[[628284,433787],[6293,13260],[17443,-5114],[4416,11417],[11150,-1248]],[[671450,575786],[-48245,3746],[-7507,-6125],[-27268,-3865],[-30471,-654]],[[557959,568888],[-23846,1249],[-4526,-23548],[-7728,5828],[-17885,-7255]],[[503974,545162],[-7728,-535],[-1325,16115],[-10267,5054],[12475,3568],[111,12487],[10156,9217]],[[507396,591068],[-883,-5827],[19099,-417],[26717,4103],[34886,-3330],[552,4936],[-16670,297],[5299,13974],[23405,-654],[772,-14628],[10047,1368],[-994,15995],[12586,5411],[30801,417]],[[507396,591068],[-8280,7492]],[[499116,598560],[40407,4757],[20203,7612],[20865,3746],[14904,6541],[32347,24440],[35328,5411]],[[503974,545162],[-1104,-6957],[-13800,654]],[[489070,538859],[-12144,-1308],[-15787,7373]],[[461139,544924],[2760,24737],[-8943,6541],[10378,17720]],[[465334,593922],[33782,4638]],[[396445,563477],[-9053,-33538]],[[387392,529939],[-12254,-1308],[-5300,11477],[-15235,2319],[-1104,12666],[6403,3984],[-12475,5589],[-2870,10525]],[[331199,579116],[45484,5292]],[[376683,584408],[663,-19445],[19099,-1486]],[[335835,260450],[-9936,-3924],[-12475,11714],[3643,19564]],[[317067,287804],[25282,-357],[3091,8503]],[[403842,294404],[-24730,-11179]],[[381762,305643],[6844,14331],[22080,-3985],[-1877,-3984]],[[680834,278825],[-3533,-20218],[15787,-2141],[1767,-27293]],[[694855,229173],[-38530,-19564],[6072,-713],[-1766,-15283],[-24067,1606],[-15456,-5411],[-24178,-13736]],[[624089,211155],[3312,17007],[7507,238],[2981,19801],[-8612,1903]],[[629277,250104],[3423,31278],[20644,-2260]],[[653344,279122],[3644,3687],[23846,-3984]],[[316295,513765],[-14131,-832]],[[984322,449426],[-57849,-88898],[-67565,-59999]],[[858908,300529],[-2208,14450],[-23846,2378],[12365,2200],[-331,19921],[-19099,13319],[7176,12666],[-9164,21169],[19099,595],[-11702,4043],[7286,14807],[15788,6065],[-1988,11774]],[[852284,423916],[8060,-2319],[2649,10703],[11592,-1903],[6624,10704],[14352,951],[4526,15163],[-2208,10526]],[[897879,467741],[13690,-6958],[11592,5055],[30360,-5768],[1104,11655],[28041,-6006],[1656,-16293]],[[299735,335375],[31464,-6898]],[[317067,287804],[-1545,11655],[-9826,5351]],[[686685,323066],[3202,-2319]],[[689887,320747],[-32679,-20456],[-3864,-21169]],[[629277,250104],[-6955,-11893],[-13137,4222],[2428,19147],[-3312,32943],[16340,10168],[-663,23488],[-14793,23191]],[[609185,351370],[14131,-2735],[993,9276],[28263,-2497],[11923,-5292]],[[491609,187548],[-12806,1427],[-19872,9395]],[[458931,198370],[2981,-297],[14683,26164],[7838,1011],[3643,16709]],[[488076,241957],[7176,-654]],[[495252,241303],[-2318,-8087],[7176,-31932]],[[461139,544924],[-21749,-3746]],[[439390,541178],[-2097,11417]],[[433981,589819],[31353,4103]],[[349967,484866],[-18437,1011],[-4858,-4757]],[[315632,486353],[4527,14628],[5630,-5412],[10709,5828]],[[338816,503002],[15567,-7076],[-4416,-11060]],[[604437,390557],[-6513,-13915],[5851,-2973],[-442,-14628],[5852,-7671]],[[559726,234108],[-6404,6482],[-23625,4162],[-4637,7136],[-15787,1903]],[[509273,253791],[-5630,3389],[2539,27532],[-11592,3984],[7507,10406],[-4968,9157]],[[534223,373788],[9274,-8325],[-2098,12666],[7839,10763],[18216,178],[7728,6006]],[[575182,395076],[6955,3687],[13910,-6066]],[[858908,300529],[-8500,-7730],[-11261,238],[662,-7671],[-24950,-24321]],[[752373,351787],[-8832,-357]],[[743541,351430],[-11592,18136]],[[731949,369566],[-3202,12725],[8391,-1427],[1104,9514],[-11592,7969],[7728,17720],[-9715,10049]],[[740450,422429],[5520,-13439],[26827,-6719],[9825,2973],[18216,-3151],[1215,12547],[7838,6184],[7397,-6720],[12696,4282],[4416,16055],[12475,-60],[5409,-10465]],[[247626,391449],[-7286,-9752]],[[211194,466135],[17112,-1903]],[[731949,369566],[-5078,3984],[-18768,-1962],[-3092,-4936]],[[688010,360528],[-4526,475],[2649,20634],[14131,-5173],[4085,19147],[14904,1130],[8942,15579],[-19099,7017],[-7728,-15104],[-6845,23726]],[[504195,86817],[-23847,-13023],[-8169,-18077],[18657,1903],[-772,-7314],[-11703,1249],[-1766,-10049],[-13248,5292]],[[463347,46798],[-9053,20396],[-16008,8146],[8391,21526],[6182,29791],[-9494,9396],[6182,14806],[-9494,2498],[5409,20396],[-11813,9633],[6183,10168]],[[439832,193554],[12254,-1308],[6845,6124]],[[575182,395076],[220,6422],[-13689,535],[110,9812],[-23073,-3092],[4968,14152]],[[555972,460664],[11482,2676],[21638,23369]],[[589092,486709],[3422,-17066],[14904,-1427],[0,-22715]],[[999337,634001],[662,-160374],[-15677,-24201]],[[897879,467741],[-23515,10287],[-12696,-6303],[-27710,5232]],[[833958,476957],[9715,21110],[-11923,-10466],[-12365,-416],[1767,6541],[-47472,8444],[-11150,-2854]],[[744645,520723],[6845,13617],[-12917,5411]],[[885515,660640],[43056,-13557],[70766,-13082]],[[330315,445382],[-9163,535]],[[317951,477552],[23294,-4222],[-2318,-14509],[12475,-5292],[-13469,-2914]],[[439832,193554],[-2650,20039],[-5741,-6244],[-8169,4758],[20313,29018],[13359,-1903],[-1877,12368],[7617,11655]],[[462684,263245],[14573,-7373],[11261,475],[-442,-14390]],[[375800,475709],[18216,-8087],[-15456,-4817],[5078,-7790]],[[383638,455015],[-8942,6660],[442,-22299],[-6072,833]],[[349967,484866],[12143,8087]],[[756458,241601],[-11261,118],[-15346,-12071],[-34996,-475]],[[680834,278825],[16118,-9752],[7287,11238],[2428,23369],[14794,7255],[5189,9812],[-3975,10287],[26607,-714]],[[312872,433846],[5189,-6422],[-1877,-13201],[4968,-12130],[-6072,-1190]],[[315080,400903],[-15676,-6362],[-6845,6125],[-2429,-12963],[6514,-9158],[18547,-4400],[-6514,-5649],[-4305,-19980]],[[304372,348516],[-12807,7433],[2319,23131],[-9384,5709]],[[477147,509306],[-7397,-11715],[4195,-19385],[10488,238],[6183,-9217]],[[478803,472141],[-4637,-1189],[-21086,20693]],[[453080,491645],[-4085,11179],[8721,-1546],[-7617,14033]],[[450099,515311],[12254,-4995],[11813,4995],[2981,-6005]],[[502980,490515],[-10046,-7492],[2870,-13796]],[[477147,509306],[14241,10406]],[[491388,519712],[4748,-3568],[14131,-9752],[-14242,-6720],[6955,-9157]],[[768050,462091],[25171,-416],[9715,-12844],[12917,357],[6734,25094],[15014,-5531],[-3643,8206]],[[557959,568888],[-883,-13677],[-15345,119],[10267,-11000],[1104,-10228],[13689,-833],[-662,-6541],[-12255,654],[5631,-7968],[15125,1309],[-994,-7493],[20755,-2914],[-2870,-10168]],[[591521,500148],[-1435,-2973]],[[590086,497175],[-11372,773]],[[526827,499256],[-9826,-5411],[-13027,5709],[-994,-9039]],[[491388,519712],[-9715,6660],[7397,12487]],[[403069,563893],[-6624,-416]],[[376683,584408],[33672,3152]],[[412673,534042],[0,-7314],[-25281,3211]],[[689887,320747],[21307,4757],[11371,16531],[13800,237],[7176,9158]],[[350850,333769],[14904,13736]],[[365754,347505],[16780,1427],[4858,10644],[28483,-4162],[1214,-11655],[17112,1011],[3423,-16293]],[[463347,46798],[-17333,2973],[-3422,-29078],[8832,-654],[-221,-9811],[-14131,-357],[1545,18374],[-27158,-297],[1104,-9336],[-26717,-18612],[-40406,32110],[-12365,15996],[-7176,654],[-8059,13677],[5520,9514],[-17332,1427],[-21639,32348],[331,15045]],[[359902,211096],[24951,20634],[-7066,7076],[4747,7789],[-16449,6125]],[[375469,256169],[61603,-6541],[14573,29256]],[[451645,278884],[12475,-8681],[-1436,-6958]],[[438286,462983],[-1877,10823],[6624,8681],[-9273,8861]],[[433760,491348],[19320,297]],[[590086,497175],[-994,-10466]],[[355045,382945],[-3974,-10049],[20203,-9811]],[[371274,363085],[-5520,-15580]],[[299624,336921],[4748,11595]],[[315080,400903],[21418,-4816],[18547,-13142]],[[425921,295475],[5631,-16175],[20093,-416]],[[383638,455015],[1104,-5470],[19762,2200]],[[495252,241303],[2098,10287],[11923,2201]],[[443033,521615],[7066,-6304]],[[433760,491348],[-6735,1070]],[[427025,492418],[-993,13558],[-12696,2081],[11040,6422],[-1435,9811],[16449,3330],[3643,-6005]],[[670898,534875],[2981,20218]],[[591521,500148],[17332,1011],[13359,22715],[24619,9990],[13248,-3925]],[[443033,521615],[-6624,7135],[2981,12428]],[[416537,485282],[-662,-18552],[9826,-3152],[-7397,-6006]],[[400309,483796],[16228,1486]],[[416537,485282],[10488,7136]],[[336829,550454],[9936,-3032],[-110,-14390],[17553,-8028],[-3422,-8206],[9936,-5827]],[[359019,398228],[-3974,-15283]],[[139435,305940],[-15456,-8800],[-6624,-11418],[-21528,4995],[-19983,-1070],[332,7909],[-17002,2973],[3754,15996],[-3754,8562],[-35107,-1367],[-17995,4697],[1766,62615]],[[371274,363085],[9825,475],[2871,33300]]],"transform":{"scale":[0.000002871167969775845,0.0000030584666333253606],"translate":[-90.40443905888161,19.55109219410481]},"objects":{"municipalities":{"type":"GeometryCollection","geometries":[{"arcs":[[0,1,2,3,4,5,6,7,8,9,10]],"type":"Polygon","properties":{"cvegeo":"31050","nombre":"Mérida"}},{"arcs":[[11,12,13,-6]],"type":"Polygon","properties":{"cvegeo":"31041","nombre":"Kanasín"}},{"arcs":[[[14,15,16,17,-11,18,19,20,21]],[[22]]],"type":"MultiPolygon","properties":{"cvegeo":"31059","nombre":"Progreso"}},{"arcs":[[23,24,25,26,27]],"type":"Polygon","properties":{"cvegeo":"31011","nombre":"Celestún"}},{"arcs":[[28,29,30,31]],"type":"Polygon","properties":{"cvegeo":"31021","nombre":"Chichimilá"}},{"arcs":[[32,33,34,35,36,37,38]],"type":"Polygon","properties":{"cvegeo":"31023","nombre":"Chocholá"}},{"arcs":[[39,40,41,42,43,44,45]],"type":"Polygon","properties":{"cvegeo":"31069","nombre":"Sotuta"}},{"arcs":[[46,47,48,49,50]],"type":"Polygon","properties":{"cvegeo":"31068","nombre":"Sinanché"}},{"arcs":[[51,52,53,54,55,56,57]],"type":"Polygon","properties":{"cvegeo":"31067","nombre":"Seyé"}},{"arcs":[[58,59,60,61,62]],"type":"Polygon","properties":{"cvegeo":"31066","nombre":"Santa Elena"}},{"arcs":[[63,64,65,66]],"type":"Polygon","properties":{"cvegeo":"31065","nombre":"San Felipe"}},{"arcs":[[67,68,69]],"type":"Polygon","properties":{"cvegeo":"31064","nombre":"Sanahcat"}},{"arcs":[[70,-38,71,72,73]],"type":"Polygon","properties":{"cvegeo":"31063","nombre":"Samahil"}},{"arcs":[[74,75,76,77,78,79]],"type":"Polygon","properties":{"cvegeo":"31062","nombre":"Sacalum"}},{"arcs":[[80,81,-64,82]],"type":"Polygon","properties":{"cvegeo":"31061","nombre":"Río Lagartos"}},{"arcs":[[83,84,85]],"type":"Polygon","properties":{"cvegeo":"31060","nombre":"Quintana Roo"}},{"arcs":[[86,87,88,89,90,91]],"type":"Polygon","properties":{"cvegeo":"31058","nombre":"Peto"}},{"arcs":[[92,93,94,95,96,-65,-82]],"type":"Polygon","properties":{"cvegeo":"31057","nombre":"Panabá"}},{"arcs":[[97,98,99,-59,100,101,102]],"type":"Polygon","properties":{"cvegeo":"31056","nombre":"Oxkutzcab"}},{"arcs":[[-79,103,104,105,-34,106]],"type":"Polygon","properties":{"cvegeo":"31055","nombre":"Opichén"}},{"arcs":[[107,108,109,110]],"type":"Polygon","properties":{"cvegeo":"31054","nombre":"Muxupip"}},{"arcs":[[111,-62,112,-104,-78]],"type":"Polygon","properties":{"cvegeo":"31053","nombre":"Muna"}},{"arcs":[[113,114,115,116,117]],"type":"Polygon","properties":{"cvegeo":"31051","nombre":"Mocochá"}},{"arcs":[[118,-43,119,120,121,122]],"type":"Polygon","properties":{"cvegeo":"31049","nombre":"Mayapán"}},{"arcs":[[123,-36,124,-105,-113,-61,125,126,127,-26]],"type":"Polygon","properties":{"cvegeo":"31048","nombre":"Maxcanú"}},{"arcs":[[128,129,130,131,-103,132,133]],"type":"Polygon","properties":{"cvegeo":"31047","nombre":"Maní"}},{"arcs":[[134,135,-134,136,137,138]],"type":"Polygon","properties":{"cvegeo":"31046","nombre":"Mama"}},{"arcs":[[-106,-125,-35]],"type":"Polygon","properties":{"cvegeo":"31045","nombre":"Kopomá"}},{"arcs":[[-72,-37,-124,-25,139]],"type":"Polygon","properties":{"cvegeo":"31044","nombre":"Kinchil"}},{"arcs":[[140,141,142,143]],"type":"Polygon","properties":{"cvegeo":"31043","nombre":"Kaua"}},{"arcs":[[-46,144,145,146,147,148]],"type":"Polygon","properties":{"cvegeo":"31042","nombre":"Kantunil"}},{"arcs":[[149,150,-148,151,152,153,154,155,156]],"type":"Polygon","properties":{"cvegeo":"31040","nombre":"Izamal"}},{"arcs":[[157,158,-117,159,-17,160,161]],"type":"Polygon","properties":{"cvegeo":"31039","nombre":"Ixil"}},{"arcs":[[162,163,-74,164,-28,165,-20]],"type":"Polygon","properties":{"cvegeo":"31038","nombre":"Hunucmá"}},{"arcs":[[-145,-45,166,-68,167,168]],"type":"Polygon","properties":{"cvegeo":"31037","nombre":"Huhí"}},{"arcs":[[-152,-147,169,170,171,172,173]],"type":"Polygon","properties":{"cvegeo":"31035","nombre":"Hoctún"}},{"arcs":[[-171,174,-168,-70,175,-53,176]],"type":"Polygon","properties":{"cvegeo":"31034","nombre":"Hocabá"}},{"arcs":[[177,178,179,180,181,182,183,184,185]],"type":"Polygon","properties":{"cvegeo":"31032","nombre":"Espita"}},{"arcs":[[186,187]],"type":"Polygon","properties":{"cvegeo":"31031","nombre":"Dzoncauich"}},{"arcs":[[188,189,190,191,-84,192,-183]],"type":"Polygon","properties":{"cvegeo":"31030","nombre":"Dzitás"}},{"arcs":[[-96,193,194,195,196]],"type":"Polygon","properties":{"cvegeo":"31029","nombre":"Dzilam González"}},{"arcs":[[-66,-97,-197,197,198]],"type":"Polygon","properties":{"cvegeo":"31028","nombre":"Dzilam de Bravo"}},{"arcs":[[-196,199,200,201,202,-198]],"type":"Polygon","properties":{"cvegeo":"31027","nombre":"Dzidzantún"}},{"arcs":[[203,204,-162,205,206]],"type":"Polygon","properties":{"cvegeo":"31026","nombre":"Dzemul"}},{"arcs":[[-133,-102,207,208,-137]],"type":"Polygon","properties":{"cvegeo":"31025","nombre":"Dzan"}},{"arcs":[[-122,209,-129,-136,210]],"type":"Polygon","properties":{"cvegeo":"31024","nombre":"Chumayel"}},{"arcs":[[211,212,-87,213,214,215]],"type":"Polygon","properties":{"cvegeo":"31022","nombre":"Chikindzonot"}},{"arcs":[[-160,-116,216,-1,-18]],"type":"Polygon","properties":{"cvegeo":"31020","nombre":"Chicxulub Pueblo"}},{"arcs":[[217,218,219,220]],"type":"Polygon","properties":{"cvegeo":"31019","nombre":"Chemax"}},{"arcs":[[221,-138,-209,222,-76]],"type":"Polygon","properties":{"cvegeo":"31018","nombre":"Chapab"}},{"arcs":[[-142,223,224,-215,225,226]],"type":"Polygon","properties":{"cvegeo":"31017","nombre":"Chankom"}},{"arcs":[[-90,227,228,229,230]],"type":"Polygon","properties":{"cvegeo":"31016","nombre":"Chacsinkín"}},{"arcs":[[231,232,-51,233,-202]],"type":"Polygon","properties":{"cvegeo":"31106","nombre":"Yobaín"}},{"arcs":[[234,-3,235,-114,236]],"type":"Polygon","properties":{"cvegeo":"31105","nombre":"Yaxkukul"}},{"arcs":[[-191,237,-226,-214,-92,238,239,-41,240,241]],"type":"Polygon","properties":{"cvegeo":"31104","nombre":"Yaxcabá"}},{"arcs":[[-146,-169,-175,-170]],"type":"Polygon","properties":{"cvegeo":"31103","nombre":"Xocchel"}},{"arcs":[[-219,242,-32,243,244,245,-181,246]],"type":"Polygon","properties":{"cvegeo":"31102","nombre":"Valladolid"}},{"arcs":[[-9,247,-39,-71,-164,248]],"type":"Polygon","properties":{"cvegeo":"31101","nombre":"Umán"}},{"arcs":[[-10,-249,-163,-19]],"type":"Polygon","properties":{"cvegeo":"31100","nombre":"Ucú"}},{"arcs":[[-246,249,-144,250,-189,-182]],"type":"Polygon","properties":{"cvegeo":"31099","nombre":"Uayma"}},{"arcs":[[-89,251,252,253,-228]],"type":"Polygon","properties":{"cvegeo":"31098","nombre":"Tzucacab"}},{"arcs":[[-85,-192,-242,254,-150,255,256]],"type":"Polygon","properties":{"cvegeo":"31097","nombre":"Tunkás"}},{"arcs":[[257,-221,258,259,-178,260,-93,-81,261]],"type":"Polygon","properties":{"cvegeo":"31096","nombre":"Tizimín"}},{"arcs":[[-57,262,-12,-5,263]],"type":"Polygon","properties":{"cvegeo":"31095","nombre":"Tixpéual"}},{"arcs":[[-229,-254,264,265]],"type":"Polygon","properties":{"cvegeo":"31094","nombre":"Tixméhuac"}},{"arcs":[[266,267,-58,-264,-4,-235,268,-109]],"type":"Polygon","properties":{"cvegeo":"31093","nombre":"Tixkokob"}},{"arcs":[[-30,269,-212,270]],"type":"Polygon","properties":{"cvegeo":"31092","nombre":"Tixcacalcupul"}},{"arcs":[[-251,-143,-227,-238,-190]],"type":"Polygon","properties":{"cvegeo":"31091","nombre":"Tinum"}},{"arcs":[[271,272,273,-7,-14]],"type":"Polygon","properties":{"cvegeo":"31090","nombre":"Timucuy"}},{"arcs":[[-208,-101,-63,-112,-77,-223]],"type":"Polygon","properties":{"cvegeo":"31089","nombre":"Ticul"}},{"arcs":[[274,-155,275,276,277]],"type":"Polygon","properties":{"cvegeo":"31088","nombre":"Teya"}},{"arcs":[[-73,-140,-24,-165]],"type":"Polygon","properties":{"cvegeo":"31087","nombre":"Tetiz"}},{"arcs":[[278,-156,-275,279,280]],"type":"Polygon","properties":{"cvegeo":"31086","nombre":"Tepakán"}},{"arcs":[[-220,-247,-180,281,-259]],"type":"Polygon","properties":{"cvegeo":"31085","nombre":"Temozón"}},{"arcs":[[282,283,284,-188,285,-281,286,-200,-195]],"type":"Polygon","properties":{"cvegeo":"31084","nombre":"Temax"}},{"arcs":[[287,-207,288,-49]],"type":"Polygon","properties":{"cvegeo":"31083","nombre":"Telchac Puerto"}},{"arcs":[[289,-204,-288,-48]],"type":"Polygon","properties":{"cvegeo":"31082","nombre":"Telchac Pueblo"}},{"arcs":[[-31,-271,-216,-225,290,-244]],"type":"Polygon","properties":{"cvegeo":"31081","nombre":"Tekom"}},{"arcs":[[-123,-211,-135,291,292]],"type":"Polygon","properties":{"cvegeo":"31080","nombre":"Tekit"}},{"arcs":[[-253,293,-99,294,-131,295,296,-265]],"type":"Polygon","properties":{"cvegeo":"31079","nombre":"Tekax"}},{"arcs":[[-276,-154,297,298]],"type":"Polygon","properties":{"cvegeo":"31078","nombre":"Tekantó"}},{"arcs":[[299,-256,-157,-279,-286,-187,-285]],"type":"Polygon","properties":{"cvegeo":"31077","nombre":"Tekal de Venegas"}},{"arcs":[[300,301,-292,-139,-222,-75,302,-273,303]],"type":"Polygon","properties":{"cvegeo":"31076","nombre":"Tecoh"}},{"arcs":[[304,-296,-130,-210,-121]],"type":"Polygon","properties":{"cvegeo":"31075","nombre":"Teabo"}},{"arcs":[[305,-172,-177,-52,-268]],"type":"Polygon","properties":{"cvegeo":"31074","nombre":"Tahmek"}},{"arcs":[[-91,-231,306,-239]],"type":"Polygon","properties":{"cvegeo":"31073","nombre":"Tahdziú"}},{"arcs":[[307,-277,-299,308,309]],"type":"Polygon","properties":{"cvegeo":"31072","nombre":"Suma"}},{"arcs":[[-255,-241,-40,-149,-151]],"type":"Polygon","properties":{"cvegeo":"31071","nombre":"Sudzal"}},{"arcs":[[-261,-186,310,-94]],"type":"Polygon","properties":{"cvegeo":"31070","nombre":"Sucilá"}},{"arcs":[[-245,-291,-224,-141,-250]],"type":"Polygon","properties":{"cvegeo":"31014","nombre":"Cuncunul"}},{"arcs":[[-115,-236,-2,-217]],"type":"Polygon","properties":{"cvegeo":"31013","nombre":"Conkal"}},{"arcs":[[-184,-193,-86,-257,-300,-284,311]],"type":"Polygon","properties":{"cvegeo":"31012","nombre":"Cenotillo"}},{"arcs":[[-240,-307,-230,-266,-297,-305,-120,-42]],"type":"Polygon","properties":{"cvegeo":"31010","nombre":"Cantamayec"}},{"arcs":[[-201,-287,-280,-278,-308,312,-232]],"type":"Polygon","properties":{"cvegeo":"31009","nombre":"Cansahcab"}},{"arcs":[[-282,-179,-260]],"type":"Polygon","properties":{"cvegeo":"31008","nombre":"Calotmul"}},{"arcs":[[313,-173,-306,-267,-108,314]],"type":"Polygon","properties":{"cvegeo":"31007","nombre":"Cacalchén"}},{"arcs":[[-95,-311,-185,-312,-283,-194]],"type":"Polygon","properties":{"cvegeo":"31006","nombre":"Buctzotz"}},{"arcs":[[-298,-153,-174,-314,315,-309]],"type":"Polygon","properties":{"cvegeo":"31005","nombre":"Bokobá"}},{"arcs":[[-110,-269,-237,-118,-159,316]],"type":"Polygon","properties":{"cvegeo":"31004","nombre":"Baca"}},{"arcs":[[-295,-98,-132]],"type":"Polygon","properties":{"cvegeo":"31003","nombre":"Akil"}},{"arcs":[[-56,317,-304,-272,-13,-263]],"type":"Polygon","properties":{"cvegeo":"31002","nombre":"Acanceh"}},{"arcs":[[-107,-33,-248,-8,-274,-303,-80]],"type":"Polygon","properties":{"cvegeo":"31001","nombre":"Abalá"}},{"arcs":[[318,-127]],"type":"Polygon","properties":{"cvegeo":"31033","nombre":"Halachó"}},{"arcs":[[-167,-44,-119,-293,-302,319,-54,-176,-69]],"type":"Polygon","properties":{"cvegeo":"31036","nombre":"Homún"}},{"arcs":[[-320,-301,-318,-55]],"type":"Polygon","properties":{"cvegeo":"31015","nombre":"Cuzamá"}},{"arcs":[[-205,-290,-47,-233,-313,-310,-316,-315,-111,-317,-158]],"type":"Polygon","properties":{"cvegeo":"31052","nombre":"Motul"}}]}}}