{"type":"Topology","arcs":[[[816780,784931],[5093,-11519],[-3485,-22150],[-3418,-7598],[-5964,-11439],[-8712,-3597],[-6299,-14591],[-8176,-4366]],[[785819,709671],[-13269,13622],[-6635,-849],[-1340,9175],[-7573,1576],[-1809,8165],[-11058,11923]],[[744135,753283],[11058,3476],[7104,20533],[7371,10064]],[[769668,787356],[5562,-4931],[7975,41],[-402,-7397],[5294,5537],[9449,-6305],[-1340,9013],[8913,1173],[2145,-4083],[9516,4527]],[[117813,714198],[2211,-10468],[-10119,-14995],[3283,-9943]],[[113188,678792],[-14006,-2951],[-8913,5214],[-18295,-16329],[-7505,-3678],[804,-6225],[-11326,-2101],[2078,-5457],[11593,-7275],[9985,-9377],[-3618,-9135],[-6166,-1738],[5026,-9013],[23523,9255],[9181,-5294]],[[105549,614688],[6500,-3759],[-1608,-6589],[5964,324],[-335,-8650],[-4758,-3274],[4490,-11479],[10722,-2263]],[[126524,578998],[7037,-12207],[2614,-8488],[9248,-4122],[7706,-10428],[-6701,-17017],[20976,15036],[9114,-8003],[0,41],[14609,-687],[3954,6426],[14140,-6265]],[[209221,533284],[14810,-2465],[-16217,-11641],[5361,-8569],[268,-8528],[6769,-5174],[3417,-9902]],[[223629,487005],[-4557,-10630],[-6835,-2345],[7371,-6830],[4021,-24130]],[[223629,443070],[-24594,8003],[-12532,-3032],[-7439,-12691],[-22517,-5820],[-8176,2910],[-1876,-890],[-14542,20452],[-3284,7922],[6835,4972],[537,8367],[-13403,7073],[-11393,20452],[-4691,14833],[-32703,34033],[-5295,1778],[-9449,-1212],[-3350,8366],[4087,1819],[-19300,14874],[-10521,21503],[-13068,5052],[1005,29627],[-4959,8488],[5830,3961],[-5763,3678],[-12666,16127],[7774,-1172],[-8176,20169],[11527,6588],[1608,12975],[-6366,2263],[1675,9862],[8176,-2061],[33440,17623],[-4423,7235],[20105,-4083],[5361,-16046],[27275,2991],[13269,-1334],[6166,-4527]],[[113188,678792],[26404,-607],[19703,-7881],[4222,-6386],[14743,-7559],[15615,283],[2144,3072],[14609,485],[8846,-14551],[-6500,-10670],[-2279,3759],[-9315,0],[8042,-6265],[-11191,-4608],[3082,-9013]],[[201313,618851],[-3015,-4851],[-13068,16532],[-3418,-7882],[-10588,-4204],[-6769,4244],[5696,4164],[-9717,3961],[-5361,-2628],[-23455,-606],[-7573,-5335],[-6970,2627],[-11526,-10185]],[[712303,301402],[-33842,-8084],[402,-11963],[-9449,8366],[-7171,-9215],[-12867,-1253],[3820,4082]],[[653196,283335],[12867,14430],[7103,4122],[-5026,9822],[6367,-889],[402,6507],[14676,11722]],[[689585,329049],[21311,7841]],[[710896,336890],[6701,-11883],[-9851,-12207],[4557,-11398]],[[526068,555515],[-18228,-1819],[-25667,-9579],[-670,-7357],[-4758,-1212],[1408,-12207],[5160,-5335],[4959,1778],[-22182,-21947],[-2949,7478],[-3686,-2304],[3686,-8246],[-3217,-3072],[-16485,12611],[-11058,12894],[-20037,-11035]],[[412344,506163],[3015,11277],[5362,6305],[-12800,-121],[-8310,14591],[17424,7357],[-5763,16329],[11392,3840],[14810,1899],[-4356,6548],[-10856,-4850],[1005,6790],[10052,10428],[2681,15561],[7573,3153],[-469,7518],[7237,-2708],[8980,4769]],[[459321,614849],[6568,1132],[4892,-7760],[6567,-81],[-1541,-6144],[6434,-1334],[134,-9417],[9985,3476],[15480,-13985],[4021,-5982],[9918,2021],[-2345,-11924],[6634,-9336]],[[348143,725111],[11460,-8407],[-1742,-5295],[8644,-4446],[-2948,-18350],[11057,-11681]],[[374614,676932],[-4825,-3961],[-6232,2425],[-11058,13622],[-3015,-24818],[3954,-9498],[-12733,-7235],[8108,-15440],[-14743,-4446],[-11124,12085],[-27074,2304],[5696,-2061],[-1273,-11681],[2412,-17178],[-18228,-15319],[-5897,17825],[-18966,-1617],[-29821,-40]],[[229795,611899],[-10790,606],[1274,7194],[-6434,1819],[0,-6750],[-5696,-4567],[-6836,8650]],[[117813,714198],[10253,16855],[14475,9377],[15212,14430]],[[157753,754860],[25265,12004],[21378,-11560],[8377,17502],[3351,-8125],[10119,-6911],[5964,-41],[3686,-7235],[24930,4244],[8243,-4809],[5830,1293],[11526,-4123],[12465,-7396],[4557,4486],[5764,-5861],[402,-11438],[7907,-9377],[16084,-2830],[14542,10428]],[[704194,281476],[-2345,-7073],[-22383,-14470],[-14542,-11398],[-9450,-24090],[-938,-8407],[-3149,-29991],[-9114,-11964]],[[642273,174083],[-671,7801],[-11660,-2344],[-5630,5456],[-7974,-5739],[-6769,687],[-8310,10428],[5965,21664],[6701,1779],[4758,10024],[-268,12934],[-6969,-1051],[-4624,5093],[9114,242],[-3351,11398],[9047,7073],[-8176,6265],[-1340,12368],[-8243,5376],[14609,-5093],[1139,-12449],[8712,19644]],[[628333,285639],[11125,-3597],[13738,1293]],[[712303,301402],[-2144,-4810],[13939,-727],[-5562,-13945],[-7975,5861],[-6367,-6305]],[[972188,456772],[-10723,-4204],[-18898,-1253],[-7841,6710],[-9114,-4729],[-12532,16854]],[[913080,470150],[-13269,16855],[1274,5012],[-14945,12853],[-7974,15157],[15212,6507],[11460,-363],[9851,8528]],[[914689,534699],[5830,-2263],[670,6871],[38735,65478],[8645,-12894],[-3016,-6669],[-6299,41],[0,-7963],[22517,-9054],[11459,-42763],[3753,-21583],[3016,-27121],[-67,-13944],[-11326,-4447],[-15346,728],[-1072,-2344]],[[850421,461864],[-3149,-485],[-4356,-889],[-6501,6710],[-6098,-4123],[-21914,-1293],[-6970,1616],[-2948,-15965],[-6166,-8448],[-9315,-7194],[-13135,-364],[1206,-6507]],[[771075,424922],[-5361,-4163],[-10387,-647],[-1340,7235],[9047,8811],[8980,3921],[5629,8205],[402,11317],[6769,2910],[-13403,1334],[7237,6467],[469,10913],[-6366,-849],[1005,11600],[10454,7195],[-5696,11681],[7439,3799],[13470,-8286],[-1541,4608],[-10254,4527],[11929,17744]],[[799557,533244],[25064,-33022],[13872,-6225],[-1609,-5860],[6702,3031],[6768,-6831],[-4155,-10630],[6769,-5901],[-2547,-5942]],[[526068,555515],[-2881,-13622],[5026,-970],[1139,-7881]],[[529352,533042],[1608,-10428],[13202,-5133],[14677,-526],[-3418,-7962],[-201,-12813],[3418,-1455]],[[558638,494725],[6299,-7356],[4289,3718],[2279,-10307],[-3418,-1091],[1005,-11802],[15279,-2829],[-25063,-15885]],[[559308,449173],[-4155,-9135],[-8310,2668],[-10521,-7639],[-14677,1940],[-15346,-11196],[1206,-10307],[-8377,-40],[-3082,12651],[-8444,6346],[6366,6992],[-13336,2183],[-13470,-3638],[-19702,20816],[-10589,1333],[3954,-7760],[-8444,1738],[-6232,-8811],[7707,-3395],[7103,-9256],[-5361,242],[-3686,7761],[-12599,-1981],[-1005,-6507]],[[418308,434178],[-23455,9336],[-2681,-1940],[-8243,9984],[-14944,-122],[8310,7316],[1943,10469],[-6299,3799],[-1139,6710],[-7439,4850],[21713,1414],[-4624,9378],[4758,485],[10052,16288]],[[396260,512145],[2078,-7800],[14006,1818]],[[229795,611899],[-268,-6831],[-10187,485],[-670,-17138],[-20037,-323],[-14073,9054],[4758,4971],[-2212,5861],[-7305,-7477],[-5830,-1253],[2547,13217],[-19234,-29506],[-6098,3718],[-2547,-7679],[-10990,1657],[-4825,7962],[-7305,-4203],[1005,-5416]],[[553612,580534],[6098,-5336],[-10454,-5941],[-6032,-11277],[1609,-14066],[-6836,-40],[-1675,-9741],[-6970,-1091]],[[459321,614849],[2413,4972],[-10052,1374],[-4825,7154]],[[446857,628349],[7639,2708],[4155,-4244],[9851,5093],[-134,6629],[6769,485],[3686,-8003],[7706,-122],[7037,-4890],[201,10387],[14609,13056]],[[508376,649448],[-4155,-11196],[11326,-8205],[-603,-11762],[7103,4810],[12800,-7801],[6233,3355],[5428,-8488],[-469,-21058],[7573,-8569]],[[725639,650054],[5093,-17299],[7975,-4002],[22316,4689],[16955,5901]],[[777978,639343],[-2345,-6629],[9851,-4163],[-19971,-24413],[11795,-6588],[16620,17138],[2814,-6185],[10924,-1414],[-8846,-10186],[28548,-3112],[1609,-14349],[-15883,-727],[1139,-10428],[-9382,-27081],[-5294,-7962]],[[771075,424922],[805,-13055],[-16285,-19604],[-5160,8690],[-17960,-13378],[-13671,-10913]],[[718804,376662],[-1877,10428],[-13805,9094],[-4423,-5376],[9315,-3880],[-1474,-10590],[-9516,2021],[-871,-4850],[-7506,6346],[-2547,8528],[4088,5538]],[[690188,393921],[5026,3435],[-737,6912],[-5897,7194],[11527,13541],[-4356,10468],[4959,1172],[-1207,8529],[-8309,363],[-16888,13743],[23455,-6710],[-737,18633],[-6367,9862],[-5629,-2506]],[[685028,478557],[6166,3840],[-3954,8084],[25666,21583],[-4155,7276],[3016,7801],[9315,3718],[536,7720],[-7572,485],[-4557,15683],[-9852,-8731],[-9181,1940],[-11258,24009],[603,9822]],[[679801,581787],[-134,4890],[11057,809],[-2948,15036],[12465,8164],[-4557,9135],[12330,14106],[6099,12206],[6500,6023],[5026,-2102]],[[559308,449173],[14140,-3719],[13470,7155],[11125,-5255],[4490,1415],[11191,-17340],[1809,5012],[7841,-2304]],[[623374,434137],[3016,4850],[18228,-1414],[1541,-22352]],[[646159,415221],[4155,-5577],[-4155,-4689],[10991,-10469],[-20507,-9498],[-10588,-9498]],[[626055,375490],[-8712,6790],[-1139,-12287],[-7841,-81],[1809,-10590],[-9382,-2587],[-5227,2143],[-1474,-10994],[1273,-18108],[-3686,-14106]],[[591676,315670],[-14743,-4527],[-12197,5255],[-1273,-6670],[5495,-2829],[-4758,-4405],[8779,0],[6433,-5821],[6300,2749],[6165,-6225],[-10119,-2465],[-6367,1131],[-469,-8851],[5563,-3072],[-13001,283],[737,6548],[-10119,-18027],[-5563,4284],[-15346,-9175],[4021,-3920],[-4892,-8044],[-11527,6993],[-268,-5336],[-17625,-606],[603,-19037]],[[507505,233903],[-4758,1657],[1877,16612],[-8109,3800],[2479,11196],[-10856,-1900],[-20909,-8286],[-29755,15076],[-4356,-8245],[-7706,5052],[-1274,5416],[-14609,-4567],[2279,10105],[-2882,18794],[8444,15400],[-5026,9862],[2144,5295],[-8578,10832],[-19166,-3436],[-10722,10509],[-29822,13541]],[[346200,360616],[0,13419],[11258,9619],[5764,1375],[3283,12166],[10991,5820],[-2681,4648],[13403,8367],[14007,-809],[13067,3840],[3016,15117]],[[690188,393921],[-13872,8932],[-3686,-768],[-5093,10145],[-12733,10994],[-1608,-5780],[-7037,-2223]],[[623374,434137],[1609,11075],[18295,4769],[-8444,4002],[7841,14429],[-10187,15925],[-7572,-161],[6031,7558],[-8712,6184]],[[622235,497918],[10856,1293],[-10186,8933],[17290,10751],[11326,809],[13403,-12126],[3685,11600],[4557,-6831],[-2211,-8488],[5495,-22109],[3217,-6305],[5361,3112]],[[497051,924416],[10454,849],[13068,-3557],[27007,-27485],[5562,2547],[4088,-8852]],[[557230,887918],[2681,-9943],[14877,-15521],[-1273,-22351],[-17960,-7559],[2614,-19401],[-8846,-11640],[14810,-10226],[5763,1980],[5160,-5982],[9785,485],[871,-3759]],[[585712,784001],[-670,-11963],[-32101,-12409],[13604,-14510],[-7974,-5982],[-7908,1455],[-8846,-5861],[1809,-6629],[-5562,-4122]],[[538064,723980],[-10454,-5012],[-12934,8488],[-3351,7194],[-24058,23322],[-8779,16612],[-17692,26393],[4490,12692],[-15816,4405],[-3552,9539],[-11325,10226],[-6568,-6831],[-7103,10873]],[[420922,841881],[-12197,15117],[46575,46845],[-67,1617]],[[455233,905460],[12532,8043],[6568,-1657],[14341,13783],[8377,-1213]],[[538064,723980],[12264,-19280],[2412,-16329],[-3551,-3193]],[[549189,685178],[-6702,-14915],[-6366,-4607],[-7506,4769],[-1139,-4123]],[[527476,666302],[-15548,9256],[-4825,7599],[-25198,11681],[-5696,5133],[-6634,-10832],[-11661,13095],[335,8973],[-5495,7559],[-5093,22392],[5361,4082],[-9315,10064],[-8109,-11479],[-8444,3395],[-4892,-3031],[-2681,11358],[-4356,4607],[3485,5376],[-1541,8690],[-7640,1334],[-10454,12853],[3150,10792],[-3217,7720],[4222,1819],[-11058,19320]],[[392172,828058],[19100,8488],[9650,5335]],[[692869,979830],[-23455,-24696],[6031,-2869],[-201,-15521],[14542,-526],[-1876,-14510],[-4021,-3355],[4423,-8245],[-11862,-10024],[36456,-41146],[29152,-28495],[15346,-40136],[7305,5375],[4959,-8326]],[[744135,753283],[-3216,2991],[-43694,4083],[-5763,-3072],[2747,-5416],[-8377,-2911],[14342,-19441],[-3351,-14429],[10253,-405],[-4490,-4526],[4959,-13500],[-6366,-1213],[-1072,5295],[-8042,-1496],[-8712,12934]],[[683353,712177],[-8109,-1212],[-268,7801],[-11259,-6508],[-2345,7074],[-5093,-3881],[-9382,1738]],[[646897,717189],[-7305,11035],[3552,5254],[2881,19280],[-938,6548],[-9315,-1779],[-3954,3800],[-8243,-11681],[-7304,8447],[1273,12166],[-6836,13096],[-22249,3718],[-2747,-3072]],[[557230,887918],[15548,16491],[1072,11600],[12934,30597],[21981,11560],[9382,15318],[-6567,7801],[469,8488],[8913,9660],[9516,-14470],[9315,-768],[29219,-6790],[2680,6952],[8042,728],[201,-5336],[12934,81]],[[591676,315670],[4758,-3274],[12264,283],[10186,-7760],[0,-41],[2480,-566],[-1810,-18633],[8779,-40]],[[642273,174083],[-336,-32456],[2279,-1697],[-938,-4244],[3350,-7397],[9383,-8933],[-872,-15844],[6568,-9094],[-22584,-2102],[-7238,4204],[-8846,-13743],[-5495,-15197],[6098,-11843],[-12867,-13419],[5295,-13944],[-11192,-14025],[-4825,2667],[-25801,-10104],[-2680,-6912],[-9517,9741],[-8779,5093],[-2077,10791],[-11057,364],[-336,17178],[-2814,5740],[-9516,-2062],[-9852,3153],[-3685,16208],[-16821,1132],[-804,-9135],[-20775,-22594],[-5696,-1455],[-4155,19320],[-13805,15723],[3216,6992],[34848,10994],[-4892,2425],[2078,11479],[-5630,6063],[-5562,-3031],[-6031,6992],[-335,10145],[-4356,6790],[1340,12369]],[[466559,140415],[-1809,2263],[9315,10105],[29017,13702],[7707,8568],[536,16127],[-5294,4002],[469,15076],[3083,13015],[5361,3638],[2144,12489],[-9181,-11479],[-402,5982]],[[683353,712177],[5964,-20330],[9449,3112],[603,-4365],[11393,1940],[11661,-15238],[-6233,-9458],[9449,-17784]],[[679801,581787],[-12867,-1657],[-8980,21745],[-1273,-9135],[-5160,-4446],[-11527,1374],[2614,11156],[-10187,849],[1073,-6952],[-15950,-5861],[-469,5416]],[[617075,594276],[-13805,606]],[[603270,594882],[-3887,10954],[1742,13055],[-201,28091],[-1273,2061]],[[599651,649043],[4758,2991],[8846,-2061],[22986,8811],[17089,2870],[-3887,9418],[2078,7437],[-7573,5820],[-536,8569],[6366,-768],[1542,5780],[-2614,5739],[-6769,-4769]],[[641937,698880],[-3953,14025],[8913,4284]],[[626055,375490],[7103,-8246],[-5294,-5173],[1475,-8003],[20640,6588],[1140,-4325],[-14074,-8488],[15213,-970],[17357,-5295],[-469,-10145],[20439,-2384]],[[527476,666302],[2479,-5901],[-7706,-6629],[-1609,5659],[-13336,-7639],[1072,-2344]],[[446857,628349],[-7640,-2546],[-3150,4769],[2882,6831],[-2346,14995],[-10521,15198],[-13336,5699],[-4021,646],[-11125,-3678],[-804,-7962],[-7103,2587],[134,6790],[-8176,10266],[-7037,-5012]],[[348143,725111],[-2010,12773],[6165,444],[-3082,15562],[11258,6103],[-3217,1495],[5161,10307],[-11259,7275],[11661,11075],[-2011,4608]],[[360809,794753],[11058,3638],[2881,10508],[12465,15440],[-8042,8488],[6903,4568]],[[386074,837395],[6098,-9337]],[[322208,501111],[-4624,-1940],[403,-8286],[-6367,404],[-670,7437],[-22115,-2101],[-1608,-4406],[-9248,-3719],[-19502,4083],[1072,-9135],[-3886,-4891],[-7975,9014],[-5764,-2668],[-18295,2102]],[[209221,533284],[3619,13136],[14542,-2506],[8779,4446],[7640,-1778],[938,4284],[9918,566],[804,364],[4490,3153],[-402,11196],[14007,6669],[6232,-8973],[33306,-11560],[4289,1374],[134,-9619],[12666,323],[3016,-9256],[-10387,-22715],[-7171,-2587],[6567,-8690]],[[558638,494725],[23723,-2627],[-804,12044],[5294,7963],[6836,-1091],[-3418,13217],[15949,-1415],[4289,5982]],[[610507,528798],[15146,-2062],[-536,-5416],[-13269,1294],[10387,-24696]],[[610507,528798],[738,7801],[12933,3597],[-3819,19805],[4691,8286],[-3619,1940],[-8578,-5457],[1139,18714],[-1876,4568],[4959,6224]],[[718804,376662],[-13202,-7316],[7371,-9539],[4088,122],[-6165,-23039]],[[466559,140415],[-15413,-3881],[-18430,-1253],[-28414,81],[-5428,-2870],[-6501,17542],[-871,11924],[-7171,2263],[-5026,7316],[-18228,2425],[-11124,-6426],[-8913,2263],[-10120,7477],[3150,13217],[-2747,16249],[-8913,2304],[-6970,18390],[-2681,1415],[6367,10145],[-8042,5375],[3217,6791],[-7774,6103],[-1742,11641],[-5563,5537]],[[299222,274443],[-469,14712],[12532,7154],[1608,16774],[8176,4204],[4557,11398],[-6768,1132],[1742,18390],[25600,12409]],[[603270,594882],[-18764,-323],[-11460,-8165],[-19434,-5860]],[[549189,685178],[13738,-7316]],[[562927,677862],[28012,-18956],[2681,1010],[6031,-10873]],[[348478,894425],[6836,-9862],[4423,-849],[-3552,-9013],[1877,-9418],[8242,-1131],[19770,-26757]],[[360809,794753],[-3887,525],[-2077,-283],[-6903,-40],[-4356,-5335],[7037,-4770],[-7908,-8043],[-13537,13379],[5294,-16774],[-12264,9660],[-3216,-1213],[-4557,17825],[268,9903],[8578,161],[2613,5335],[-4758,9337],[-7639,-10549],[-5362,-1334],[-4557,5376],[67,10832],[-19769,16774],[-10454,2344],[-1140,7558],[-6701,1940],[10856,8327],[-11392,7558],[5830,15238],[-4825,5295],[9248,-2062],[5964,9135],[603,11802]],[[281865,912654],[-603,5335],[14476,7720],[5227,7235],[11392,-8205],[9382,-10104],[5362,-24332],[7036,4446],[4825,-4891],[9516,4567]],[[299222,274443],[-3551,6912],[-15347,-4608],[-1809,-8407],[-3485,8366],[-3753,20856],[4423,12288],[-4423,4931],[-5227,12934],[-2011,4688],[1542,15036],[18295,-7396],[2010,5496],[-8846,9782],[-9650,889],[7774,7882],[-1340,3597],[-17960,10307],[2144,12449],[-2815,9983],[-8645,16450],[-5495,-161],[-1005,10913],[-16419,15440]],[[322208,501111],[9115,7882],[1675,-4285],[8578,3719],[21311,-2991],[4222,6386],[13470,-6225],[-671,3234],[13202,9498],[3150,-6184]],[[562927,677862],[11258,3880],[9985,-2950],[4893,9296],[-3485,4406],[14341,5860],[871,-10468],[16017,1374],[2747,-5376],[12197,8610],[2949,-4366],[7237,10752]],[[892440,544723],[13939,-3517],[8310,-6507]],[[913080,470150],[-2077,-7113],[-14006,6467],[-3418,-5457],[-12666,7397],[-11660,-14389],[-14208,7437],[-4624,-2628]],[[777978,639343],[4624,4123],[603,8043]],[[783205,651509],[15146,-17057],[7438,-5254],[8578,-14995],[20306,-11156],[-2547,-8407],[5898,-5659],[-2681,-6871],[34245,-30637],[22852,-6750]],[[785819,709671],[3753,-4526],[22450,-22554],[5897,-1415],[938,-8609],[-14810,6063],[-11795,-5214],[-6567,-14147],[-2480,-7760]],[[239244,989692],[6634,10307],[22852,-18148],[1542,566],[7975,-5457],[6031,1415],[18965,-19239],[-3887,8447],[10120,3355],[15078,-21422],[15615,-606],[-3887,15278],[14877,-30435],[11192,-849],[67,-3516],[5227,-4083],[3216,4648],[14074,-1212],[8712,-2587],[-1877,-5942],[8377,-5173],[6232,5861],[4893,-5982],[34445,13217],[9516,-22675]],[[281865,912654],[-4758,-6992],[-8645,1010],[-1608,5942],[-9382,-5618],[-3753,-12490],[-4959,-1697],[-8779,8083],[-6433,405],[-10120,15318],[-10655,2264],[-670,7315],[-7372,-4324],[-5964,7518]],[[198767,929388],[6031,3961],[4557,24776],[6300,8488],[12330,4285],[-9516,3112],[-268,9902],[11125,1577],[5160,-4487],[4758,8690]],[[157753,754860],[-19434,-11156],[-871,49149],[2681,8852],[19300,4486],[2412,7195],[-5696,12287],[2681,11519],[9181,6023],[-3686,14389],[1876,2344],[23590,29789],[5361,-2991],[2479,7194],[-5696,-848],[1005,7275],[6970,2102],[4758,13540],[-5897,13379]],[[742259,973444],[8645,-1293],[4557,-5982],[46709,-16815],[8846,-3233],[12130,-53434],[11728,-17178],[-18898,-31607],[804,-58971]],[[692869,979830],[15145,0],[34245,-6386]]],"transform":{"scale":[0.000004729914820600029,0.000004499585120717292],"translate":[-107.21016906143082,22.345120611810383]},"objects":{"municipalities":{"type":"GeometryCollection","geometries":[{"arcs":[[0,1,2,3]],"type":"Polygon","properties":{"cvegeo":"10007","nombre":"Gómez Palacio"}},{"arcs":[[4,5,6,7,8,9,10]],"type":"Polygon","properties":{"cvegeo":"10034","nombre":"Tamazula"}},{"arcs":[[11,12,-6]],"type":"Polygon","properties":{"cvegeo":"10037","nombre":"Topia"}},{"arcs":[[13,14,15,16]],"type":"Polygon","properties":{"cvegeo":"10038","nombre":"Vicente Guerrero"}},{"arcs":[[17,18,19]],"type":"Polygon","properties":{"cvegeo":"10039","nombre":"Nuevo Ideal"}},{"arcs":[[20,21,22,-12,-5,23,24]],"type":"Polygon","properties":{"cvegeo":"10035","nombre":"Tepehuanes"}},{"arcs":[[25,26,27,-14,28]],"type":"Polygon","properties":{"cvegeo":"10033","nombre":"Súchil"}},{"arcs":[[29,30,31]],"type":"Polygon","properties":{"cvegeo":"10027","nombre":"San Juan de Guadalupe"}},{"arcs":[[32,33,34]],"type":"Polygon","properties":{"cvegeo":"10031","nombre":"Santa Clara"}},{"arcs":[[35,36,37,38,39,40,-18]],"type":"Polygon","properties":{"cvegeo":"10001","nombre":"Canatlán"}},{"arcs":[[-23,41,-7,-13]],"type":"Polygon","properties":{"cvegeo":"10002","nombre":"Canelas"}},{"arcs":[[42,-36,-20,43,44,45]],"type":"Polygon","properties":{"cvegeo":"10003","nombre":"Coneto de Comonfort"}},{"arcs":[[46,47,-34,48,49,50,51,52]],"type":"Polygon","properties":{"cvegeo":"10004","nombre":"Cuencamé"}},{"arcs":[[53,54,55,56,57,58,59,-39]],"type":"Polygon","properties":{"cvegeo":"10005","nombre":"Durango"}},{"arcs":[[-51,60,-55,61,62]],"type":"Polygon","properties":{"cvegeo":"10008","nombre":"Guadalupe Victoria"}},{"arcs":[[63,64,65,66,67,68]],"type":"Polygon","properties":{"cvegeo":"10010","nombre":"Hidalgo"}},{"arcs":[[69,70,71,72,-67]],"type":"Polygon","properties":{"cvegeo":"10011","nombre":"Indé"}},{"arcs":[[73,-3,74,75,76,-65,77]],"type":"Polygon","properties":{"cvegeo":"10013","nombre":"Mapimí"}},{"arcs":[[78,-27,79,80,-58]],"type":"Polygon","properties":{"cvegeo":"10014","nombre":"Mezquital"}},{"arcs":[[81,-53,82,83,84,85,86,-76]],"type":"Polygon","properties":{"cvegeo":"10015","nombre":"Nazas"}},{"arcs":[[87,-15,-28,-79,-57]],"type":"Polygon","properties":{"cvegeo":"10016","nombre":"Nombre de Dios"}},{"arcs":[[88,-45,89,-21,90,91,92,-72]],"type":"Polygon","properties":{"cvegeo":"10018","nombre":"El Oro"}},{"arcs":[[93,-9,94]],"type":"Polygon","properties":{"cvegeo":"10019","nombre":"Otáez"}},{"arcs":[[-62,-54,-38,95,96]],"type":"Polygon","properties":{"cvegeo":"10020","nombre":"Pánuco de Coronado"}},{"arcs":[[-52,-63,-97,97,-83]],"type":"Polygon","properties":{"cvegeo":"10021","nombre":"Peñón Blanco"}},{"arcs":[[-50,98,-16,-88,-56,-61]],"type":"Polygon","properties":{"cvegeo":"10022","nombre":"Poanas"}},{"arcs":[[-81,99,100,-59]],"type":"Polygon","properties":{"cvegeo":"10023","nombre":"Pueblo Nuevo"}},{"arcs":[[-85,101,-46,-89,-71,102,103]],"type":"Polygon","properties":{"cvegeo":"10024","nombre":"Rodeo"}},{"arcs":[[104,-92,105,106]],"type":"Polygon","properties":{"cvegeo":"10025","nombre":"San Bernardo"}},{"arcs":[[-60,-101,107,-10,-94,108,-40]],"type":"Polygon","properties":{"cvegeo":"10026","nombre":"San Dimas"}},{"arcs":[[-102,-84,-98,-96,-37,-43]],"type":"Polygon","properties":{"cvegeo":"10028","nombre":"San Juan del Río"}},{"arcs":[[-86,-104,109]],"type":"Polygon","properties":{"cvegeo":"10029","nombre":"San Luis del Cordero"}},{"arcs":[[-87,-110,-103,-70,-66,-77]],"type":"Polygon","properties":{"cvegeo":"10030","nombre":"San Pedro del Gallo"}},{"arcs":[[-90,-44,-19,-41,-109,-95,-8,-42,-22]],"type":"Polygon","properties":{"cvegeo":"10032","nombre":"Santiago Papasquiaro"}},{"arcs":[[110,-31,111,-35,-48,112,113]],"type":"Polygon","properties":{"cvegeo":"10006","nombre":"General Simón Bolívar"}},{"arcs":[[-2,114,-113,-47,-82,-75]],"type":"Polygon","properties":{"cvegeo":"10012","nombre":"Lerdo"}},{"arcs":[[115,-68,-73,-93,-105,-107,116,117]],"type":"Polygon","properties":{"cvegeo":"10017","nombre":"Ocampo"}},{"arcs":[[-117,-106,-91,-25,118]],"type":"Polygon","properties":{"cvegeo":"10009","nombre":"Guanaceví"}},{"arcs":[[119,-4,-74,120]],"type":"Polygon","properties":{"cvegeo":"10036","nombre":"Tlahualilo"}}]}}}