{"type":"Topology","arcs":[[[524393,510966],[15649,-15201]],[[540042,495765],[43879,-33442],[-12888,-60803]],[[571033,401520],[-28843,-28448],[-33752,5429],[-2762,-31922],[-49095,-7600],[-24240,-25190],[-33753,-80347],[-81620,-13247]],[[316968,220195],[-46640,652],[-9205,69055],[18103,40608],[-12887,51900],[16570,30402]],[[282909,412812],[81313,2171],[-9205,40174],[32525,-26276],[34673,17373],[15342,53420]],[[437557,499674],[33753,21932],[53083,-10640]],[[704203,541368],[-11967,-63193],[-53084,18459],[-20558,-46472],[25161,-32790],[-61062,-34310],[-11660,18458]],[[540042,495765],[23627,29750],[-9819,26493],[67506,2172],[34059,-24105]],[[655415,530075],[27309,41043],[21479,-29750]],[[745934,479044],[920,-32790],[26389,-31922],[-60142,9120],[-5830,-40173],[-25467,-6949],[6750,-81433],[-18410,-29968],[21785,-66015],[46947,17155],[39583,-8034]],[[778459,208035],[-39276,-53203],[-35900,-55375],[-34981,-20413],[-35286,7818],[-12274,-45385],[-65971,-4343],[-29457,-37134],[-56766,35613],[-34059,20847],[-131022,88600],[-27309,434]],[[276158,145494],[51856,48643],[-11046,26058]],[[704203,541368],[36207,-21499],[5524,-40825]],[[498005,595439],[-25775,7601],[-5523,-44083],[-31298,-11509],[2148,-47774]],[[282909,412812],[-15956,95114],[-49402,54940],[-48481,13463]],[[169070,576329],[50936,147666],[-27923,20630],[921,54940],[55231,-217],[83462,-652],[61675,38220]],[[393372,836916],[10126,-72313],[23013,-38871],[64437,1520],[-14729,-43648],[-3375,-66667],[25161,-21498]],[[657870,884038],[-1841,-51683],[-57380,-35830],[-3682,-73182],[-22706,-2823],[17183,-50597]],[[589444,669923],[-34980,-16069],[-7364,-34745],[-45720,7166],[-3375,-30836]],[[393372,836916],[-8592,15852],[2455,18458],[87143,11075]],[[474378,882301],[37742,434],[-22093,-38870],[56152,3691],[-11967,-22801],[35901,-37351],[31912,20196],[7671,64278],[-14115,26710]],[[595581,898588],[62289,-14550]],[[683951,867317],[8285,-69272],[28230,-4126]],[[720466,793919],[-3682,-159392],[-46334,-28447],[-27615,37350]],[[642835,643430],[-53391,26493]],[[657870,884038],[26081,-16721]],[[474378,882301],[18718,28447],[36514,4561],[9205,81650],[13194,3040],[7978,-47340],[35594,-54071]],[[841055,713354],[-1228,-61455],[-24240,-45602],[56152,-22150],[100337,-83170],[2455,-15201],[-614,-44734],[-34059,-39522]],[[939858,401520],[-49095,60369],[-42037,-1086],[4296,37351],[-53084,22801],[-5830,-13464],[-16263,-35396],[-31911,6949]],[[655415,530075],[-920,42346],[-23934,5646],[12274,65363]],[[720466,793919],[47253,22801],[36821,-8686],[14422,-68404],[22093,-26276]],[[276158,145494],[-48788,28013],[-55538,-17807],[-4910,-28447],[-47867,-10206],[-104633,94028],[5830,41042],[-20252,32790],[24241,78393],[36514,83605],[58300,100543],[50015,28881]],[[939858,401520],[11353,-30619],[48788,10640],[-2455,-41042],[-41117,3475],[-59220,-24756],[-93894,-43214],[-13808,-47557],[-11046,-20412]]],"transform":{"scale":[0.0000010330245543717723,8.375000800656045e-7],"translate":[-102.86855409613693,21.622015945482364]},"objects":{"municipalities":{"type":"GeometryCollection","geometries":[{"arcs":[[0,1,2,3,4,5]],"type":"Polygon","properties":{"cvegeo":"01005","nombre":"Jesús María"}},{"arcs":[[6,-2,7,8]],"type":"Polygon","properties":{"cvegeo":"01011","nombre":"San Francisco de los Romo"}},{"arcs":[[9,10,11,-3,-7,12]],"type":"Polygon","properties":{"cvegeo":"01001","nombre":"Aguascalientes"}},{"arcs":[[13,-5,14,15,16]],"type":"Polygon","properties":{"cvegeo":"01008","nombre":"San José de Gracia"}},{"arcs":[[17,18,-17,19,20,21]],"type":"Polygon","properties":{"cvegeo":"01007","nombre":"Rincón de Romos"}},{"arcs":[[22,23,24,-18,25]],"type":"Polygon","properties":{"cvegeo":"01009","nombre":"Tepezalá"}},{"arcs":[[-21,26]],"type":"Polygon","properties":{"cvegeo":"01004","nombre":"Cosío"}},{"arcs":[[27,28,-13,-9,29,-24,30]],"type":"Polygon","properties":{"cvegeo":"01002","nombre":"Asientos"}},{"arcs":[[-4,-12,31,-15]],"type":"Polygon","properties":{"cvegeo":"01003","nombre":"Calvillo"}},{"arcs":[[32,-10,-29]],"type":"Polygon","properties":{"cvegeo":"01010","nombre":"El Llano"}},{"arcs":[[-30,-8,-1,-6,-14,-19,-25]],"type":"Polygon","properties":{"cvegeo":"01006","nombre":"Pabellón de Arteaga"}}]}}}