{"type":"FeatureCollection", "features": [
{"type":"Feature","geometry":{"type":"MultiPolygon","coordinates":[[[[-98.5048,19.4942],[-98.5418,19.4607],[-98.5082,19.4269],[-98.4933,19.4309],[-98.5048,19.4942]]],[[[-98.4097,19.6166],[-98.4918,19.6073],[-98.4731,19.5753],[-98.4363,19.5673],[-98.4483,19.5393],[-98.4772,19.5136],[-98.4797,19.5131],[-98.5032,19.4996],[-98.4461,19.4836],[-98.4303,19.4993],[-98.3957,19.4894],[-98.4201,19.5295],[-98.3935,19.5418],[-98.3856,19.576],[-98.4591,19.5966],[-98.4097,19.6166]]]]},"properties":{"cvegeo":"29020","nombre":"Sanctórum de Lázaro Cárdenas"}},
{"type":"Feature","geometry":{"type":"Polygon","coordinates":[[[-98.2068,19.249],[-98.1887,19.2579],[-98.2157,19.2783],[-98.2226,19.2772],[-98.2166,19.2603],[-98.2068,19.249]]]},"properties":{"cvegeo":"29060","nombre":"Santa Isabel Xiloxoxtla"}},
{"type":"Feature","geometry":{"type":"Polygon","coordinates":[[[-98.1754,19.2034],[-98.2131,19.2165],[-98.2318,19.221],[-98.2309,19.2072],[-98.1957,19.2045],[-98.1754,19.2034]]]},"properties":{"cvegeo":"29059","nombre":"Santa Cruz Quilehtla"}},
{"type":"Feature","geometry":{"type":"Polygon","coordinates":[[[-98.2261,19.1744],[-98.1957,19.2045],[-98.2309,19.2072],[-98.2309,19.1866],[-98.2261,19.1744]]]},"properties":{"cvegeo":"29058","nombre":"Santa Catarina Ayometla"}},
{"type":"Feature","geometry":{"type":"Polygon","coordinates":[[[-98.299,19.2206],[-98.3025,19.263],[-98.3326,19.2446],[-98.299,19.2206]]]},"properties":{"cvegeo":"29057","nombre":"Santa Apolonia Teacalco"}},
{"type":"Feature","geometry":{"type":"Polygon","coordinates":[[[-98.3209,19.3167],[-98.3444,19.3116],[-98.3491,19.2707],[-98.3485,19.2701],[-98.3212,19.2925],[-98.3209,19.3003],[-98.3209,19.3167]]]},"properties":{"cvegeo":"29056","nombre":"Santa Ana Nopalucan"}},
{"type":"Feature","geometry":{"type":"Polygon","coordinates":[[[-98.2867,19.5124],[-98.287,19.4831],[-98.2867,19.4831],[-98.2458,19.4512],[-98.2182,19.4836],[-98.2477,19.5142],[-98.2867,19.5124]]]},"properties":{"cvegeo":"29055","nombre":"San Lucas Tecopilco"}},
{"type":"Feature","geometry":{"type":"Polygon","coordinates":[[[-98.2711,19.2241],[-98.2581,19.2261],[-98.2423,19.2312],[-98.2483,19.2523],[-98.2702,19.2266],[-98.2711,19.2241]]]},"properties":{"cvegeo":"29053","nombre":"San Juan Huactzinco"}},
{"type":"Feature","geometry":{"type":"Polygon","coordinates":[[[-98.0337,19.3554],[-98.0619,19.3594],[-98.0908,19.3228],[-98.0794,19.3127],[-98.0442,19.2905],[-98.0397,19.2861],[-98.0163,19.2892],[-98.0337,19.3554]]]},"properties":{"cvegeo":"29052","nombre":"San José Teacalco"}},
{"type":"Feature","geometry":{"type":"Polygon","coordinates":[[[-98.0397,19.2861],[-98.0442,19.2905],[-98.0936,19.2497],[-98.1618,19.2732],[-98.184,19.2577],[-98.1681,19.2546],[-98.1501,19.2536],[-98.0337,19.2317],[-98.0397,19.2861]]]},"properties":{"cvegeo":"29050","nombre":"San Francisco Tetlanohcan"}},
{"type":"Feature","geometry":{"type":"Polygon","coordinates":[[[-98.3212,19.2925],[-98.3025,19.263],[-98.274,19.279],[-98.2949,19.2896],[-98.3003,19.3192],[-98.3209,19.3003],[-98.3212,19.2925]]]},"properties":{"cvegeo":"29049","nombre":"San Damián Texóloc"}},
{"type":"Feature","geometry":{"type":"Polygon","coordinates":[[[-98.1618,19.2732],[-98.1957,19.3023],[-98.21,19.2892],[-98.2157,19.2783],[-98.1887,19.2579],[-98.184,19.2577],[-98.1618,19.2732]]]},"properties":{"cvegeo":"29048","nombre":"La Magdalena Tlaltelulco"}},
{"type":"Feature","geometry":{"type":"Polygon","coordinates":[[[-97.9833,19.5718],[-98.0055,19.5398],[-98.0226,19.5144],[-97.9811,19.5067],[-97.9729,19.5416],[-97.9485,19.5424],[-97.9833,19.5718]]]},"properties":{"cvegeo":"29047","nombre":"Lázaro Cárdenas"}},
{"type":"Feature","geometry":{"type":"Polygon","coordinates":[[[-97.9538,19.6042],[-97.9833,19.5718],[-97.9485,19.5424],[-97.9155,19.538],[-97.8698,19.5424],[-97.8828,19.5722],[-97.9538,19.6042]]]},"properties":{"cvegeo":"29046","nombre":"Emiliano Zapata"}},
{"type":"Feature","geometry":{"type":"Polygon","coordinates":[[[-98.4097,19.6166],[-98.4591,19.5966],[-98.3856,19.576],[-98.3723,19.58],[-98.3821,19.6093],[-98.4097,19.6166]]]},"properties":{"cvegeo":"29045","nombre":"Benito Juárez"}},
{"type":"Feature","geometry":{"type":"Polygon","coordinates":[[[-98.2626,19.1608],[-98.2309,19.1866],[-98.2309,19.2072],[-98.2318,19.221],[-98.2423,19.2312],[-98.2737,19.2117],[-98.3063,19.1888],[-98.2879,19.1739],[-98.2626,19.1608]]]},"properties":{"cvegeo":"29044","nombre":"Zacatelco"}},
{"type":"Feature","geometry":{"type":"Polygon","coordinates":[[[-98.164,19.3703],[-98.1472,19.4345],[-98.1783,19.4354],[-98.202,19.3765],[-98.184,19.3663],[-98.164,19.3703]]]},"properties":{"cvegeo":"29043","nombre":"Yauhquemehcan"}},
{"type":"Feature","geometry":{"type":"Polygon","coordinates":[[[-98.2423,19.1573],[-98.2261,19.1744],[-98.2309,19.1866],[-98.2626,19.1608],[-98.2423,19.1573]]]},"properties":{"cvegeo":"29042","nombre":"Xicohtzinco"}},
{"type":"Feature","geometry":{"type":"Polygon","coordinates":[[[-98.2245,19.1381],[-98.2011,19.1648],[-98.1551,19.1681],[-98.1431,19.1875],[-98.1703,19.1788],[-98.1716,19.1775],[-98.176,19.2017],[-98.1754,19.2034],[-98.1957,19.2045],[-98.2261,19.1744],[-98.2423,19.1573],[-98.2245,19.1381]]]},"properties":{"cvegeo":"29041","nombre":"Papalotla de Xicohténcatl"}},
{"type":"Feature","geometry":{"type":"Polygon","coordinates":[[[-98.202,19.3765],[-98.1783,19.4354],[-98.1783,19.4638],[-98.2182,19.4836],[-98.2458,19.4512],[-98.2867,19.4831],[-98.287,19.4831],[-98.2867,19.4831],[-98.2959,19.4034],[-98.2803,19.4132],[-98.2486,19.3798],[-98.2528,19.3567],[-98.2372,19.3569],[-98.2303,19.3709],[-98.202,19.3765]]]},"properties":{"cvegeo":"29040","nombre":"Xaltocan"}},
{"type":"Feature","geometry":{"type":"Polygon","coordinates":[[[-98.0838,19.404],[-98.0359,19.377],[-98.0416,19.3865],[-98.0163,19.4085],[-97.9944,19.3983],[-97.9713,19.4149],[-98.0074,19.4378],[-98.0591,19.4385],[-98.0838,19.404]]]},"properties":{"cvegeo":"29039","nombre":"Xaloztoc"}},
{"type":"Feature","geometry":{"type":"Polygon","coordinates":[[[-98.0838,19.404],[-98.1272,19.4091],[-98.1247,19.4045],[-98.1228,19.363],[-98.0619,19.3594],[-98.0337,19.3554],[-98.0283,19.3714],[-98.0359,19.377],[-98.0838,19.404]]]},"properties":{"cvegeo":"29038","nombre":"Tzompantepec"}},
{"type":"Feature","geometry":{"type":"Polygon","coordinates":[[[-97.8651,19.2539],[-97.9136,19.2279],[-97.9605,19.2381],[-97.9852,19.2428],[-97.9982,19.2321],[-97.9792,19.1926],[-97.9285,19.1643],[-97.9152,19.1732],[-97.8511,19.2228],[-97.8651,19.2539]]]},"properties":{"cvegeo":"29037","nombre":"Ziltlaltépec de Trinidad Sánchez Santos"}},
{"type":"Feature","geometry":{"type":"Polygon","coordinates":[[[-98.2578,19.3167],[-98.2245,19.3303],[-98.2372,19.3569],[-98.2528,19.3567],[-98.2667,19.3267],[-98.2578,19.3167]]]},"properties":{"cvegeo":"29036","nombre":"Totolac"}},
{"type":"Feature","geometry":{"type":"Polygon","coordinates":[[[-98.0359,19.377],[-98.0283,19.3714],[-97.9944,19.3983],[-98.0163,19.4085],[-98.0416,19.3865],[-98.0359,19.377]]]},"properties":{"cvegeo":"29035","nombre":"Tocatlán"}},
{"type":"Feature","geometry":{"type":"Polygon","coordinates":[[[-98.2553,19.7186],[-98.2654,19.717],[-98.2673,19.7202],[-98.3317,19.7222],[-98.3238,19.6853],[-98.3669,19.628],[-98.3821,19.6093],[-98.3723,19.58],[-98.3222,19.5666],[-98.299,19.5378],[-98.2417,19.5384],[-98.2464,19.5898],[-98.158,19.5869],[-98.1643,19.5724],[-98.1012,19.52],[-98.0721,19.5114],[-98.0578,19.5653],[-98.0055,19.5398],[-97.9833,19.5718],[-97.9538,19.6042],[-97.9887,19.6291],[-97.9938,19.6297],[-98.0426,19.64],[-98.0401,19.6995],[-98.0607,19.7288],[-98.1003,19.6711],[-98.1149,19.6879],[-98.1596,19.6693],[-98.2385,19.6757],[-98.2553,19.7186]]]},"properties":{"cvegeo":"29034","nombre":"Tlaxco"}},
{"type":"Feature","geometry":{"type":"Polygon","coordinates":[[[-98.274,19.279],[-98.2575,19.2637],[-98.2578,19.2637],[-98.2575,19.2636],[-98.2534,19.2612],[-98.2226,19.2772],[-98.2157,19.2783],[-98.21,19.2892],[-98.1957,19.3256],[-98.1941,19.3256],[-98.2188,19.3703],[-98.2303,19.3709],[-98.2372,19.3569],[-98.2245,19.3303],[-98.2578,19.3167],[-98.2949,19.2896],[-98.274,19.279]]]},"properties":{"cvegeo":"29033","nombre":"Tlaxcala"}},
{"type":"Feature","geometry":{"type":"Polygon","coordinates":[[[-98.3063,19.1888],[-98.2737,19.2117],[-98.2711,19.2241],[-98.2702,19.2266],[-98.2578,19.2637],[-98.2575,19.2637],[-98.274,19.279],[-98.3025,19.263],[-98.299,19.2206],[-98.312,19.1904],[-98.3063,19.1888]]]},"properties":{"cvegeo":"29032","nombre":"Tetlatlahuca"}},
{"type":"Feature","geometry":{"type":"Polygon","coordinates":[[[-98.0055,19.5398],[-98.0578,19.5653],[-98.0721,19.5114],[-98.1012,19.52],[-98.1814,19.4894],[-98.1795,19.4742],[-98.1605,19.48],[-98.1453,19.4276],[-98.0591,19.4385],[-98.0074,19.4378],[-97.9827,19.4803],[-98.0353,19.4991],[-98.0226,19.5144],[-98.0055,19.5398]]]},"properties":{"cvegeo":"29031","nombre":"Tetla de la Solidaridad"}},
{"type":"Feature","geometry":{"type":"Polygon","coordinates":[[[-97.8698,19.5424],[-97.9155,19.538],[-97.9485,19.5424],[-97.9729,19.5416],[-97.9811,19.5067],[-98.0226,19.5144],[-98.0353,19.4991],[-97.9827,19.4803],[-98.0074,19.4378],[-97.9713,19.4149],[-97.9196,19.4225],[-97.8892,19.4492],[-97.8622,19.4562],[-97.8486,19.4825],[-97.8898,19.5042],[-97.8698,19.5424]]]},"properties":{"cvegeo":"29030","nombre":"Terrenate"}},
{"type":"Feature","geometry":{"type":"Polygon","coordinates":[[[-98.2131,19.2165],[-98.2112,19.2257],[-98.2068,19.249],[-98.2166,19.2603],[-98.2226,19.2772],[-98.2534,19.2612],[-98.2483,19.2523],[-98.2423,19.2312],[-98.2318,19.221],[-98.2131,19.2165]]]},"properties":{"cvegeo":"29029","nombre":"Tepeyanco"}},
{"type":"Feature","geometry":{"type":"Polygon","coordinates":[[[-98.0337,19.2317],[-98.1501,19.2536],[-98.1681,19.2546],[-98.184,19.2577],[-98.1887,19.2579],[-98.2068,19.249],[-98.2112,19.2257],[-98.1913,19.2288],[-98.1269,19.2146],[-98.1104,19.2165],[-98.1006,19.1634],[-98.0423,19.2101],[-98.0318,19.231],[-98.0337,19.2317]]]},"properties":{"cvegeo":"29028","nombre":"Teolocholco"}},
{"type":"Feature","geometry":{"type":"Polygon","coordinates":[[[-98.1894,19.137],[-98.1551,19.1681],[-98.2011,19.1648],[-98.2245,19.1381],[-98.2245,19.1379],[-98.1894,19.137]]]},"properties":{"cvegeo":"29027","nombre":"Tenancingo"}},
{"type":"Feature","geometry":{"type":"Polygon","coordinates":[[[-98.1247,19.4045],[-98.1494,19.3727],[-98.1535,19.3383],[-98.1057,19.3216],[-98.1047,19.3216],[-98.1003,19.3205],[-98.1003,19.321],[-98.0924,19.3236],[-98.1228,19.363],[-98.1247,19.4045]]]},"properties":{"cvegeo":"29026","nombre":"Santa Cruz Tlaxcala"}},
{"type":"Feature","geometry":{"type":"Polygon","coordinates":[[[-98.1006,19.1634],[-98.1104,19.2165],[-98.1269,19.2146],[-98.1291,19.2117],[-98.1431,19.1875],[-98.1551,19.1681],[-98.1894,19.137],[-98.1662,19.105],[-98.1196,19.1353],[-98.1006,19.1634]]]},"properties":{"cvegeo":"29025","nombre":"San Pablo del Monte"}},
{"type":"Feature","geometry":{"type":"Polygon","coordinates":[[[-98.3209,19.3003],[-98.3003,19.3192],[-98.2949,19.2896],[-98.2578,19.3167],[-98.2667,19.3267],[-98.2528,19.3567],[-98.2486,19.3798],[-98.2803,19.4132],[-98.2959,19.4034],[-98.3095,19.3874],[-98.3209,19.3167],[-98.3209,19.3003]]]},"properties":{"cvegeo":"29024","nombre":"Panotla"}},
{"type":"Feature","geometry":{"type":"Polygon","coordinates":[[[-98.312,19.1904],[-98.299,19.2206],[-98.3326,19.2446],[-98.3025,19.263],[-98.3212,19.2925],[-98.3485,19.2701],[-98.3491,19.2707],[-98.3501,19.2701],[-98.378,19.2546],[-98.3691,19.2261],[-98.331,19.1999],[-98.3402,19.1859],[-98.3238,19.1686],[-98.312,19.1904]]]},"properties":{"cvegeo":"29023","nombre":"Natívitas"}},
{"type":"Feature","geometry":{"type":"Polygon","coordinates":[[[-98.2131,19.2165],[-98.1754,19.2034],[-98.176,19.2017],[-98.1564,19.2045],[-98.1472,19.2063],[-98.1453,19.207],[-98.1329,19.2117],[-98.1291,19.2117],[-98.1269,19.2146],[-98.1913,19.2288],[-98.2112,19.2257],[-98.2131,19.2165]]]},"properties":{"cvegeo":"29022","nombre":"Acuamanala de Miguel Hidalgo"}},
{"type":"Feature","geometry":{"type":"Polygon","coordinates":[[[-98.5418,19.4607],[-98.5048,19.4942],[-98.5032,19.4996],[-98.4797,19.5131],[-98.4772,19.5136],[-98.4483,19.5393],[-98.4835,19.5355],[-98.507,19.5633],[-98.6033,19.5014],[-98.6376,19.4869],[-98.6341,19.4678],[-98.5913,19.4492],[-98.5418,19.4607]]]},"properties":{"cvegeo":"29021","nombre":"Nanacamilpa de Mariano Arista"}},
{"type":"Feature","geometry":{"type":"Polygon","coordinates":[[[-98.378,19.2546],[-98.3501,19.2701],[-98.352,19.2854],[-98.4081,19.3159],[-98.4106,19.2917],[-98.378,19.2546]]]},"properties":{"cvegeo":"29019","nombre":"Tepetitla de Lardizábal"}},
{"type":"Feature","geometry":{"type":"Polygon","coordinates":[[[-98.1783,19.3432],[-98.1916,19.335],[-98.1865,19.3292],[-98.1865,19.329],[-98.1066,19.2974],[-98.0794,19.3127],[-98.0908,19.3228],[-98.0924,19.3236],[-98.1003,19.321],[-98.1003,19.3205],[-98.1047,19.3216],[-98.1057,19.3216],[-98.1535,19.3383],[-98.1783,19.3432]]]},"properties":{"cvegeo":"29018","nombre":"Contla de Juan Cuamatzi"}},
{"type":"Feature","geometry":{"type":"Polygon","coordinates":[[[-98.1291,19.2117],[-98.1329,19.2117],[-98.1453,19.207],[-98.1472,19.2063],[-98.1564,19.2045],[-98.176,19.2017],[-98.1716,19.1775],[-98.1703,19.1788],[-98.1431,19.1875],[-98.1291,19.2117]]]},"properties":{"cvegeo":"29017","nombre":"Mazatecochco de José María Morelos"}},
{"type":"Feature","geometry":{"type":"Polygon","coordinates":[[[-97.8705,19.2707],[-97.8965,19.2917],[-97.9852,19.2428],[-97.9605,19.2381],[-97.9136,19.2279],[-97.8651,19.2539],[-97.8705,19.2707]]]},"properties":{"cvegeo":"29016","nombre":"Ixtenco"}},
{"type":"Feature","geometry":{"type":"Polygon","coordinates":[[[-98.4081,19.3159],[-98.352,19.2854],[-98.3501,19.2701],[-98.3491,19.2707],[-98.3444,19.3116],[-98.3209,19.3167],[-98.3095,19.3874],[-98.344,19.3763],[-98.3653,19.4234],[-98.415,19.418],[-98.423,19.3932],[-98.4876,19.3923],[-98.4876,19.39],[-98.487,19.3894],[-98.4553,19.3454],[-98.442,19.3274],[-98.4081,19.3159]]]},"properties":{"cvegeo":"29015","nombre":"Ixtacuixtla de Mariano Matamoros"}},
{"type":"Feature","geometry":{"type":"Polygon","coordinates":[[[-98.299,19.5378],[-98.3222,19.5666],[-98.3723,19.58],[-98.3856,19.576],[-98.3935,19.5418],[-98.4201,19.5295],[-98.3957,19.4894],[-98.3545,19.4512],[-98.3653,19.4234],[-98.344,19.3763],[-98.3095,19.3874],[-98.2959,19.4034],[-98.2867,19.4831],[-98.287,19.4831],[-98.2867,19.5124],[-98.299,19.5378]]]},"properties":{"cvegeo":"29014","nombre":"Hueyotlipan"}},
{"type":"Feature","geometry":{"type":"Polygon","coordinates":[[[-97.9792,19.1926],[-97.9982,19.2321],[-97.9852,19.2428],[-97.8965,19.2917],[-97.8705,19.2707],[-97.8616,19.2854],[-97.8385,19.2872],[-97.8207,19.3045],[-97.8017,19.3441],[-97.8667,19.3778],[-97.8746,19.392],[-97.8892,19.4492],[-97.9196,19.4225],[-97.9713,19.4149],[-97.9944,19.3983],[-98.0283,19.3714],[-98.0337,19.3554],[-98.0163,19.2892],[-98.0397,19.2861],[-98.0337,19.2317],[-98.0318,19.231],[-97.9919,19.1959],[-97.9792,19.1926]]]},"properties":{"cvegeo":"29013","nombre":"Huamantla"}},
{"type":"Feature","geometry":{"type":"Polygon","coordinates":[[[-98.4876,19.3923],[-98.423,19.3932],[-98.415,19.418],[-98.3653,19.4234],[-98.3545,19.4512],[-98.3957,19.4894],[-98.4303,19.4993],[-98.4461,19.4836],[-98.5032,19.4996],[-98.5048,19.4942],[-98.4933,19.4309],[-98.5082,19.4269],[-98.4876,19.3923]]]},"properties":{"cvegeo":"29012","nombre":"Españita"}},
{"type":"Feature","geometry":{"type":"Polygon","coordinates":[[[-98.2182,19.4836],[-98.1783,19.4638],[-98.1795,19.4742],[-98.1814,19.4894],[-98.2417,19.5384],[-98.299,19.5378],[-98.2867,19.5124],[-98.2477,19.5142],[-98.2182,19.4836]]]},"properties":{"cvegeo":"29011","nombre":"Muñoz de Domingo Arenas"}},
{"type":"Feature","geometry":{"type":"Polygon","coordinates":[[[-98.21,19.2892],[-98.1957,19.3023],[-98.1618,19.2732],[-98.0936,19.2497],[-98.0442,19.2905],[-98.0794,19.3127],[-98.1066,19.2974],[-98.1865,19.329],[-98.1941,19.3256],[-98.1957,19.3256],[-98.21,19.2892]]]},"properties":{"cvegeo":"29010","nombre":"Chiautempan"}},
{"type":"Feature","geometry":{"type":"Polygon","coordinates":[[[-98.0619,19.3594],[-98.1228,19.363],[-98.0924,19.3236],[-98.0908,19.3228],[-98.0619,19.3594]]]},"properties":{"cvegeo":"29009","nombre":"Cuaxomulco"}},
{"type":"Feature","geometry":{"type":"Polygon","coordinates":[[[-97.7199,19.3048],[-97.6908,19.3721],[-97.7101,19.3683],[-97.7294,19.3261],[-97.7564,19.3347],[-97.7503,19.3599],[-97.8071,19.3605],[-97.8115,19.3625],[-97.8553,19.3932],[-97.8667,19.3778],[-97.8017,19.3441],[-97.8207,19.3045],[-97.7713,19.2836],[-97.7199,19.3048]]]},"properties":{"cvegeo":"29008","nombre":"Cuapiaxtla"}},
{"type":"Feature","geometry":{"type":"Polygon","coordinates":[[[-97.7041,19.393],[-97.7101,19.3683],[-97.6908,19.3721],[-97.7199,19.3048],[-97.6911,19.2859],[-97.6464,19.3065],[-97.6315,19.3554],[-97.6644,19.365],[-97.7041,19.393]]]},"properties":{"cvegeo":"29007","nombre":"El Carmen Tequexquitla"}},
{"type":"Feature","geometry":{"type":"Polygon","coordinates":[[[-98.5358,19.6342],[-98.5504,19.6186],[-98.5792,19.6378],[-98.6135,19.6011],[-98.6655,19.6062],[-98.6705,19.5986],[-98.6813,19.5982],[-98.7086,19.5545],[-98.6531,19.4658],[-98.6341,19.4678],[-98.6376,19.4869],[-98.6033,19.5014],[-98.507,19.5633],[-98.4835,19.5355],[-98.4483,19.5393],[-98.4363,19.5673],[-98.4731,19.5753],[-98.4918,19.6073],[-98.5193,19.6024],[-98.5358,19.6342]]]},"properties":{"cvegeo":"29006","nombre":"Calpulalpan"}},
{"type":"Feature","geometry":{"type":"Polygon","coordinates":[[[-98.0838,19.404],[-98.0591,19.4385],[-98.1453,19.4276],[-98.1605,19.48],[-98.1795,19.4742],[-98.1783,19.4638],[-98.1783,19.4354],[-98.1472,19.4345],[-98.164,19.3703],[-98.1494,19.3727],[-98.1247,19.4045],[-98.1272,19.4091],[-98.0838,19.404]]]},"properties":{"cvegeo":"29005","nombre":"Apizaco"}},
{"type":"Feature","geometry":{"type":"Polygon","coordinates":[[[-97.8622,19.4562],[-97.8892,19.4492],[-97.8746,19.392],[-97.8667,19.3778],[-97.8553,19.3932],[-97.8115,19.3625],[-97.8071,19.3605],[-97.7503,19.3599],[-97.7564,19.3347],[-97.7294,19.3261],[-97.7101,19.3683],[-97.7041,19.393],[-97.7358,19.4325],[-97.7389,19.4327],[-97.7551,19.4576],[-97.7969,19.4723],[-97.7944,19.4984],[-97.8622,19.4562]]]},"properties":{"cvegeo":"29004","nombre":"Atltzayanca"}},
{"type":"Feature","geometry":{"type":"Polygon","coordinates":[[[-98.1012,19.52],[-98.1643,19.5724],[-98.158,19.5869],[-98.2464,19.5898],[-98.2417,19.5384],[-98.1814,19.4894],[-98.1012,19.52]]]},"properties":{"cvegeo":"29003","nombre":"Atlangatepec"}},
{"type":"Feature","geometry":{"type":"Polygon","coordinates":[[[-98.184,19.3663],[-98.202,19.3765],[-98.2188,19.3703],[-98.1941,19.3256],[-98.1865,19.329],[-98.1865,19.3292],[-98.1916,19.335],[-98.1783,19.3432],[-98.184,19.3663]]]},"properties":{"cvegeo":"29002","nombre":"Apetatitlán de Antonio Carvajal"}},
{"type":"Feature","geometry":{"type":"Polygon","coordinates":[[[-98.184,19.3663],[-98.1783,19.3432],[-98.1535,19.3383],[-98.1494,19.3727],[-98.164,19.3703],[-98.184,19.3663]]]},"properties":{"cvegeo":"29001","nombre":"Amaxac de Guerrero"}}
]}