{"type":"Topology","arcs":[[[630385,461718],[-95994,-32765],[-27211,-113674],[55934,-31762],[-2268,-92611]],[[560846,190906],[-46863,13039],[-33258,-77566],[65004,-51822]],[[545729,74557],[-216175,12370],[-123961,65530],[-66515,145436],[-15873,15046],[-5291,15379]],[[117914,328318],[92214,-23404],[69539,58844],[11338,82915],[55178,37446]],[[346183,484119],[34013,-11702],[756,0]],[[380952,472417],[249433,-10699]],[[630385,461718],[3779,37780]],[[634164,499498],[72562,-65530]],[[706726,433968],[147393,-61183],[-55178,-51488]],[[798941,321297],[-154195,-22401],[-23431,-23737],[-60469,-84253]],[[117914,328318],[-15117,9361]],[[102797,337679],[86167,70211],[74830,103310],[110355,16717],[-27966,-43798]],[[495842,834837],[33258,-69542]],[[529100,765295],[-48375,-16048]],[[480725,749247],[-102796,27081]],[[377929,776328],[-16629,47810],[21920,32765],[112622,-22066]],[[461829,571046],[-42328,66533]],[[419501,637579],[45351,7355]],[[464852,644934],[80877,5684]],[[545729,650618],[2267,-46807]],[[547996,603811],[-10582,-37446]],[[537414,566365],[-75585,4681]],[[529100,765295],[50642,-10030]],[[579742,755265],[-8314,-101638]],[[571428,653627],[-25699,-3009]],[[464852,644934],[-33258,15045],[49131,89268]],[[461829,571046],[-80877,-98629]],[[102797,337679],[-5291,0]],[[97506,337679],[31746,136409],[18896,7690],[103552,68205],[-1511,0],[30234,69876]],[[280423,619859],[139078,17720]],[[589569,995987],[12849,-32096],[-43084,-68205],[95994,-49147],[62736,-19392],[30990,-89602]],[[749054,737545],[-169312,17720]],[[495842,834837],[-45351,53494],[77853,74222],[47619,37446],[13606,-4012]],[[260771,651955],[19652,-32096]],[[97506,337679],[-35526,64527],[-61980,18723],[21164,46807],[65004,89936],[174603,94283]],[[260771,651955],[38548,16048],[74074,105985],[4536,2340]],[[738472,686392],[-6046,-39452]],[[732426,646940],[-6803,-33768],[-177627,-9361]],[[571428,653627],[167044,32765]],[[537414,566365],[96750,-66867]],[[749054,737545],[-10582,-51153]],[[965230,508525],[-38549,-133066],[73318,-51822],[-53666,-26078]],[[946333,297559],[-147392,23738]],[[706726,433968],[34770,49148],[126228,28418],[97506,-3009]],[[732426,646940],[157974,-60849],[41572,-56168],[33258,-21398]],[[946333,297559],[31746,-67536],[-6047,-94617],[-50642,-88599],[-120181,20060],[-77854,-66867],[-151171,24407],[-24188,50150],[-2267,0]]],"transform":{"scale":[4.1935915478178856e-7,5.439658500491261e-7],"translate":[-99.36533962607575,19.0487745159363]},"objects":{"municipalities":{"type":"GeometryCollection","geometries":[{"arcs":[[0,1,2,3,4,5]],"type":"Polygon","properties":{"cvegeo":"09012","nombre":"Tlalpan"}},{"arcs":[[6,7,8,9,-1]],"type":"Polygon","properties":{"cvegeo":"09013","nombre":"Xochimilco"}},{"arcs":[[-4,10,11]],"type":"Polygon","properties":{"cvegeo":"09008","nombre":"La Magdalena Contreras"}},{"arcs":[[12,13,14,15]],"type":"Polygon","properties":{"cvegeo":"09002","nombre":"Azcapotzalco"}},{"arcs":[[16,17,18,19,20,21]],"type":"Polygon","properties":{"cvegeo":"09014","nombre":"Benito Juárez"}},{"arcs":[[-14,22,23,24,-19,25]],"type":"Polygon","properties":{"cvegeo":"09015","nombre":"Cuauhtémoc"}},{"arcs":[[-17,26,-5,-12,27,28,29]],"type":"Polygon","properties":{"cvegeo":"09010","nombre":"Álvaro Obregón"}},{"arcs":[[30,31,-23,-13,32]],"type":"Polygon","properties":{"cvegeo":"09005","nombre":"Gustavo A. Madero"}},{"arcs":[[33,-29,34]],"type":"Polygon","properties":{"cvegeo":"09004","nombre":"Cuajimalpa de Morelos"}},{"arcs":[[-26,-18,-30,-34,35,-15]],"type":"Polygon","properties":{"cvegeo":"09016","nombre":"Miguel Hidalgo"}},{"arcs":[[36,37,-20,-25,38]],"type":"Polygon","properties":{"cvegeo":"09006","nombre":"Iztacalco"}},{"arcs":[[-22,39,-7,-6,-27]],"type":"Polygon","properties":{"cvegeo":"09003","nombre":"Coyoacán"}},{"arcs":[[40,-39,-24,-32]],"type":"Polygon","properties":{"cvegeo":"09017","nombre":"Venustiano Carranza"}},{"arcs":[[41,42,-9,43]],"type":"Polygon","properties":{"cvegeo":"09011","nombre":"Tláhuac"}},{"arcs":[[44,-44,-8,-40,-21,-38]],"type":"Polygon","properties":{"cvegeo":"09007","nombre":"Iztapalapa"}},{"arcs":[[45,-2,-10,-43]],"type":"Polygon","properties":{"cvegeo":"09009","nombre":"Milpa Alta"}}]}}}