{"type":"Topology","arcs":[[[341613,360300],[-6342,-6913],[-2431,-9905]],[[332840,343482],[-10147,1662],[-6659,-8443],[5179,-6847],[-29912,1529],[-23993,-2725],[-19977,-7313],[-5708,200],[-3171,-7845],[-18919,6681]],[[219533,320381],[-18075,6714],[-211,6615],[-9724,1097],[-28644,14325],[2431,16287],[18391,22635],[1480,11966]],[[185181,400020],[57922,-4089],[2748,5784],[24205,-931],[30018,1662]],[[300074,402446],[8455,-931],[9830,-8376],[16700,-9107],[19660,-7545],[-1797,-2227],[14164,-7578],[-27587,365],[2114,-6747]],[[216362,925479],[-38580,1263],[2431,1995],[-42278,964],[-5814,-998]],[[132121,928703],[-3699,27056],[-53060,9972],[-2325,10503],[66060,23765],[5814,-3922],[15960,-200],[8456,-5484],[12577,2726],[14798,-4919],[14692,-8842],[-5708,-12431],[16489,-3490],[-5708,-7246],[2854,-4819],[-5496,-13462],[-11415,-4287],[14586,-2227],[-634,-5917]],[[604904,164661],[211,-4155],[-12366,-4287],[13317,-7146],[-8244,-30812],[5391,-10271],[11943,-199],[3700,-4853]],[[618856,102938],[-3911,-3556],[-2642,-18215],[-7611,432],[-3910,-16851],[7187,-366],[-2325,-8575],[6976,-499],[5390,-7744]],[[618010,47564],[-9090,-466],[2220,-9306],[-13846,-4554],[-18497,1928],[-11099,5949],[-6024,-3689],[-9936,2792]],[[551738,40218],[-18285,12763],[4545,13229],[-10253,3590],[-20505,1063],[-19871,5485],[-952,-4787],[-29700,2094],[-20083,-4753],[-12683,4853],[5919,19145],[6447,7612],[-3488,5451],[-14269,-1130],[-4968,4287]],[[413592,109120],[10359,1662],[-4757,13362],[13001,1529],[1480,4387],[18602,-1562],[8562,23234],[-5285,864],[5179,9473]],[[460733,162069],[2854,-6482],[21773,931],[-1374,-4687],[22408,-3290],[1374,4952],[22619,200],[2220,8542],[30335,-1529],[14163,15289],[-845,3291]],[[576260,179286],[15960,-4786],[-6659,-11800],[7610,-1329],[2960,5417],[8773,-2127]],[[401648,270425],[-739,-6947],[-32872,-15456],[1797,-4055]],[[369834,243967],[-19554,-4487],[-20611,-21970]],[[329669,217510],[-9936,5185],[-20822,997],[-10041,18912],[-2854,15024],[8879,-665],[739,5850],[-9618,-1961],[5602,6913],[-12050,1862],[106,8010],[-6553,7213],[14058,3988],[-7188,6183],[-15643,797]],[[264348,295818],[-5390,12365],[17651,798],[15326,10735],[17123,4820],[8139,-931],[5602,-7246],[26741,-16419],[52108,-29515]],[[165416,195506],[12261,-10769],[-11521,366],[4862,-9407],[11098,299],[1057,-10603],[18180,432],[13952,-5351]],[[215305,160473],[4016,-9373],[9196,-1695],[-8879,-4321],[4122,-5684],[-22619,-8077],[9830,-6248],[-1480,-9839],[5814,-3224],[-13318,-2659],[1691,-6880],[-9935,-3656],[8350,-3457]],[[202093,95360],[14903,-19810],[-6342,-1064],[-15643,4787],[-40693,7312],[-13847,-3955],[-19659,1628],[-7505,-1961],[-14163,3723],[1797,9573],[-13635,3257],[-24522,598],[-21774,-4686],[-26530,6747],[24205,11201],[-4968,17118],[-21985,-200],[-317,10769],[7293,-1296],[-3382,7180],[8456,-2061],[2431,6381],[14797,5219],[-15748,6714]],[[25262,162534],[17757,2160],[9301,10703],[-10781,7412],[18603,731],[5813,5418],[13106,-10935],[3805,-7279],[13318,4620],[-2854,9140],[21668,1596],[-317,-8410],[17335,-1695],[7398,4953],[3700,-6681],[7821,21206],[14481,33]],[[401648,270425],[9725,-1762],[20716,3457],[23465,9140],[14163,3490]],[[469717,284750],[13318,2892],[-11521,3988],[-1057,6681],[10676,-2592],[-1163,9472],[3382,7180],[2748,7844],[3277,-631],[1268,132],[18709,4155]],[[509354,323871],[10041,-5916],[15009,-997],[7504,2526]],[[541908,319484],[11099,-8974],[-17758,-5285],[4334,-15356],[15115,4287]],[[554698,294156],[8350,-8010],[-2009,-9539],[-10886,698],[-3066,-14259],[5497,-2028],[-8350,-5019],[32026,-18680],[634,-5085],[-10675,-11833],[26847,-598],[3805,-5185],[-3065,-8476],[21773,-9971],[5708,2792],[13846,-2327],[9301,1762]],[[644434,198398],[952,-7313],[-7399,-4919],[-9619,1596],[-14374,-16254],[-8139,3690],[-3805,-3856],[9196,-3689],[-6342,-2992]],[[576260,179286],[3065,3224],[-18814,5517],[-1585,9041],[-15538,2360],[3699,6282],[-19236,-1263],[-4228,-4554],[-27164,-3755],[-4968,-13262],[-17863,-4421],[-317,11633],[-6659,-199],[-528,7013],[6659,166],[-1269,18447],[-6764,1629],[-31604,-532],[5602,20508],[-13846,266],[-3382,8841],[-9090,-1562],[-8350,5252],[-14058,-133],[-20188,-5817]],[[460733,162069],[-211,2393],[-50312,4387],[-20188,4188],[-4862,3656],[-3911,-6381],[-22513,-2028],[-26108,-133]],[[332628,168151],[-12578,-100],[-211,4355],[-26953,-1396]],[[292886,171010],[19131,4221],[-2325,6581],[11732,3158],[-634,9040],[12895,-531],[-14057,8475],[-1903,15888],[11944,-332]],[[664728,591903],[30969,66],[0,-3756]],[[695697,588213],[0,-14890],[-6553,0],[0,-7512],[-9935,964],[0,-9905],[-21985,964],[-1269,-7180],[-10041,466],[-14163,-12132],[-21668,232],[-2643,-9838],[-19765,-5551],[-1585,-6215],[-9619,-4022],[12578,-5285],[-8456,-1728],[-8138,-7612]],[[572455,498969],[-29701,-3324],[-10887,6980],[-18814,266],[5391,13295],[-30230,2726],[-12261,-5916],[-14374,2326],[7504,9540],[-41539,3689],[-211,5052]],[[427333,533603],[146813,58532],[-3382,7678]],[[570764,599813],[18602,67],[1163,-5717],[25579,1462],[11732,6881],[8033,-5252],[-317,-5385],[29172,34]],[[653841,412151],[0,-7312],[24416,-798],[106,-2925],[30652,366],[2431,-7246],[-19025,-7345],[5073,-4355],[11310,3956]],[[708804,386492],[0,-10836],[5919,-5351],[-11310,-33],[-422,-6548],[-12578,-5053],[24521,-8675],[-43864,-1362],[-2325,-10637],[-20188,-99],[2008,-9639],[-5496,731],[-9090,-10204],[-8668,-4886],[-72613,-19744]],[[541908,319484],[5708,20541],[13106,5318],[-1796,3756],[12472,5817],[27270,2226],[10464,12697],[11203,18647],[2326,15422]],[[622661,403908],[13635,1031],[17545,7212]],[[792304,194575],[2749,-49358],[-1586,-19644],[-7504,-18580],[-17652,-22103],[-6236,-22502]],[[762075,62388],[-4545,4653],[-12049,864],[-3805,13395],[-13318,-1030],[-7399,4121],[-8879,-6647],[-8244,1628],[-7504,20109],[2536,8775],[-20293,-432],[-2009,-7113],[-15220,-2825],[-15432,997],[-3065,-12697],[-6342,-598],[-8139,897],[1586,6914],[-7716,2061],[-3382,7478]],[[644434,198398],[635,9905],[9301,1894],[17757,-1462],[3065,3756],[23888,-6714],[14163,1595],[6342,-7246],[13846,-2559],[19448,5118],[8245,-3456],[2325,5550],[12684,1895],[3911,-8442],[12260,-3657]],[[411795,29981],[-2853,0],[-4440,3889],[-42913,4121],[-17968,-1562]],[[343621,36429],[1585,6581],[-12578,18181],[-13635,14425],[-6870,532]],[[312123,76148],[4122,15822],[9936,631],[9407,9639],[4545,-133]],[[340133,102107],[12895,-3523],[7504,-21605],[9302,1363],[3065,-6681],[19448,-17682],[3277,-8443],[6659,-166],[4545,-15157],[4967,-232]],[[572455,498969],[528,-7213]],[[572983,491756],[-18285,-4055],[-317,-6049],[-16701,3590],[-20716,-4221],[-35937,-17517]],[[481027,463504],[-1480,-3490],[-26635,4188],[-18603,-1263],[1374,5019],[-28644,2260],[0,-1994]],[[407039,468224],[-10147,1363],[-106,13993],[-15009,4786],[423,-6049],[-25790,2293],[-12261,-3423],[-30652,4354]],[[313497,485541],[15432,9573],[-6976,16220],[4334,7545],[28221,4952],[2959,6315],[12472,2161],[5919,-6049],[-1479,-2460],[24944,100],[4545,-233],[23465,9938]],[[622661,403908],[-46190,4122],[1163,3058],[-33612,2725],[-1057,-2858],[-23676,2094],[-19554,-565]],[[499735,412484],[-3488,6947],[3065,11832],[-14586,2194],[0,10038],[10147,7911],[-2959,8110],[-10887,3988]],[[572983,491756],[12684,-3755],[12155,-12199],[6553,798],[13847,-24962],[-10253,-8376],[12684,-7944],[21033,6316],[13847,-7845],[13529,-1329],[12895,-12730],[-14903,-5817],[-13213,-1762]],[[509354,323871],[-5391,11268],[-9090,4786],[20083,8276],[-18497,-2625],[-11099,11068]],[[485360,356644],[-12155,35000],[2431,11733],[13530,-998],[10569,10105]],[[343621,36429],[-39108,1030],[-10358,10470],[-3066,7944],[-10992,13761]],[[280097,69634],[32026,6514]],[[262234,155853],[212,-8010],[9407,-6914],[41539,-6614],[14057,1196],[15009,-20109]],[[342458,115402],[7822,-11566],[-10147,-1729]],[[280097,69634],[-8139,8475],[-14586,-1063],[-4016,7512],[-18920,-1197],[-11732,14093],[-22408,598],[1797,-2692]],[[215305,160473],[8984,-1363]],[[224289,159110],[4228,3723],[12683,-1197],[3700,-5683],[17334,-100]],[[821794,415076],[-7610,-24862],[-7082,-39453],[-4228,-31643],[529,-28651],[-2114,-23433],[-8879,-53114],[-106,-19345]],[[708804,386492],[58556,20408],[4756,-3291],[18497,1629],[10464,9805],[20717,33]],[[759010,602472],[-23465,632],[0,19776],[-6659,0],[-951,18780],[9301,7146],[4968,8775],[211,10171],[-6236,0],[8350,23732],[1374,12165]],[[745903,703649],[2009,598]],[[747912,704247],[-1374,-17716],[-3277,-5517],[37311,-7645],[22936,-14492],[-317,-56405],[-44181,0]],[[246908,461909],[-13212,-21671],[-5919,-3723],[2220,-11102],[-14692,3391],[-36254,-7213],[-3066,-9174]],[[175985,412417],[-6341,7778],[-27799,-4221],[-4439,12863],[9513,4022],[31709,8509],[12366,-432],[24311,3855],[-106,6880],[16383,9540],[15326,698]],[[540851,733430],[-4967,-2061],[-4651,-16851],[-3805,-2992],[528,-11301],[-7716,-3822]],[[520240,696403],[-50523,3457]],[[469717,699860],[-8878,10536],[12683,2659],[-5496,11334],[15749,5352],[-6553,5152],[11415,3623]],[[488637,738516],[4862,-2394],[26636,4089],[6870,-5584],[13846,-1197]],[[292886,171010],[-26424,166],[-4228,-15323]],[[224289,159110],[-6659,7346],[-2642,23865],[-11521,-33],[-212,4487],[14904,-366],[-8456,14359],[5390,1263],[-422,10836],[-17123,7279],[422,-5883],[-10041,33]],[[187929,222296],[-20188,31842],[-12684,14060],[11733,4520],[-7082,9107],[2220,3856]],[[161928,285681],[13423,-1995],[14269,2892],[27693,18846],[8667,-1662]],[[225980,303762],[5813,-9705],[24628,-200],[7927,1961]],[[187929,222296],[-12472,631],[-4228,-5318]],[[171229,217609],[-3699,-66],[-6025,14890],[-17229,10603],[-18285,-4819],[-423,-5185],[-8879,565],[-7187,7312],[-10041,-5384],[-11415,2326],[3382,7711],[-12578,-3822],[-5391,-6980],[-7610,964]],[[65849,235724],[-4439,10902],[15115,19743],[10886,10703],[7399,9307],[18497,1795],[48621,-2493]],[[469717,699860],[-28961,1928],[-7504,-4222],[-18286,-10237],[-41010,24829]],[[373956,712158],[27270,35465],[-1903,13228]],[[399323,760851],[6765,4355],[9935,-7479],[31392,2493],[9090,-7645],[32132,-14059]],[[407039,468224],[7293,-67],[-3699,-9506],[12895,-9173],[14797,-17749],[4228,-13296],[30969,4355],[1586,-8676],[24627,-1628]],[[485360,356644],[-74304,6747],[634,-3457],[-17229,964],[6342,-4021],[-2325,-8077],[-56865,11500]],[[300074,402446],[16171,10736],[-211,12231],[6025,8975],[10675,2792],[-16700,266],[4968,24928],[-10042,6249]],[[310960,468623],[10147,764],[-7610,16154]],[[185181,400020],[-9196,12397]],[[246908,461909],[13001,6514],[23676,6116],[27375,-5916]],[[171229,217609],[-6447,-7644],[634,-14459]],[[25262,162534],[211,4454],[-15537,897],[-846,13595],[4651,5683],[8772,13595],[-22513,6149],[21774,10237],[32449,-598],[20399,-2427],[-8773,21605]],[[695697,588213],[10042,3291],[16594,0],[9830,-3291],[2854,-8143]],[[735017,580070],[20928,2692],[69443,-31377],[50840,-33337]],[[876228,518048],[-15643,-23699],[-29807,-56770],[-8984,-22503]],[[216362,925479],[18180,-3756],[5284,-13328],[-4650,-4886],[3699,-10869],[-7927,-5351],[2642,-7878],[9724,-365],[13107,-7379],[-634,-7877],[19025,-4986],[-2642,-4919],[20399,-6748],[8456,-10137],[951,-7711],[10359,-3756],[2959,-12564],[7082,-6382],[3699,-11168]],[[326075,795419],[-23465,-764],[-3488,3955],[-50734,-4986]],[[248388,793624],[1163,8542],[-47141,12431],[-40377,1031],[740,4553],[13001,5784],[-1480,7977],[13952,10703],[-2959,5849],[-12472,1729],[-17335,4587],[-22725,2659],[-6447,-3723],[-1268,7046],[12049,-1429],[28010,26557],[-9619,6648],[-23359,34135]],[[326075,795419],[-106,-4155],[13318,-2127],[12155,-9007],[-7398,-7546],[5707,-4154]],[[349751,768430],[-7187,-6482],[528,-20773],[-27058,-798]],[[316034,740377],[-20822,-1064],[-24522,9772],[-10041,4188],[-15432,-2227],[-7082,6249],[5074,15921],[5179,20408]],[[763555,20873],[-634,-13760],[7081,-2991]],[[770002,4122],[-5073,-4122],[-14586,2692],[-13424,6249],[-7081,6814],[-14692,698],[10147,6481]],[[725293,22934],[6658,-1795],[31604,-266]],[[787231,10038],[-17229,-5916]],[[763555,20873],[11944,732]],[[775499,21605],[11732,-11567]],[[762075,62388],[634,-13229],[12790,-27554]],[[725293,22934],[-19343,4654],[-10041,-2061],[-16066,3590],[-3277,5517],[-23147,4687],[-2326,7777],[-33083,466]],[[376493,114472],[7504,27122],[-38579,10703],[-12790,15854]],[[413592,109120],[-14692,133],[-2536,3191],[-19871,2028]],[[376493,114472],[-17018,33],[-9195,4155],[-7822,-3258]],[[551738,40218],[-18391,-5019],[-14692,-1030],[-7927,2659],[-19026,-599],[-25050,-4520],[-1902,-2194],[-23254,-2360],[-29701,2826]],[[332840,343482],[20188,-2792],[-634,-8376],[35514,-9240],[-1163,-3324],[18920,-732],[44498,-31675],[4123,1828],[15431,-4421]],[[225980,303762],[3488,-631],[-9935,17250]],[[735017,580070],[26952,14724],[-2959,7678]],[[747912,704247],[13952,-1529],[19659,1396],[7928,-5650],[23464,1562],[23465,-3191],[1480,-5916],[16594,-9108],[12050,-631],[8561,-8908],[21245,-299],[1586,-5617],[26741,-2460],[4862,8974],[-5496,3025],[8773,4653],[23782,798],[-4228,3457],[14374,-1197],[12367,2892],[20928,-1629],[-1691,-23765],[-7822,-22070],[-9090,-13561],[-42278,-38922],[-39108,-38855],[-23782,-29648]],[[663460,703383],[4651,-4919],[-5602,-9573],[0,-49026],[2431,-3623],[-952,-17915],[-6341,33],[8032,-8775],[-951,-17682]],[[570764,599813],[-49361,0],[106,39587],[-1269,57003]],[[540851,733430],[6765,-2194],[13529,3158],[26107,-12597],[16489,1529],[-106,-5086],[28433,-11932],[19237,-3457],[4228,3822],[7927,-3290]],[[663460,703383],[26530,2094],[1691,-5584],[12684,4653],[17862,731],[4440,-2758],[19236,1130]],[[373956,712158],[-23042,-6216],[-846,1895],[-21668,-3523],[-2113,2592],[-10253,33471]],[[349751,768430],[4968,-2826],[13952,3025],[8879,-3689],[11732,1396],[10041,-5485]]],"transform":{"scale":[0.0000029989092693805645,0.000005471667189761954],"translate":[-100.1454166085966,22.2074470121096]},"objects":{"municipalities":{"type":"GeometryCollection","geometries":[{"arcs":[[0,1,2,3,4]],"type":"Polygon","properties":{"cvegeo":"28016","nombre":"Hidalgo"}},{"arcs":[[5,6]],"type":"Polygon","properties":{"cvegeo":"28027","nombre":"Nuevo Laredo"}},{"arcs":[[7,8,9,10,11,12,13]],"type":"Polygon","properties":{"cvegeo":"28012","nombre":"González"}},{"arcs":[[14,15,16,17]],"type":"Polygon","properties":{"cvegeo":"28041","nombre":"Victoria"}},{"arcs":[[18,19,20,21]],"type":"Polygon","properties":{"cvegeo":"28039","nombre":"Tula"}},{"arcs":[[-15,22,23,24,25,26,27,-14,28]],"type":"Polygon","properties":{"cvegeo":"28008","nombre":"Casas"}},{"arcs":[[-13,29,30,31,-16,-29]],"type":"Polygon","properties":{"cvegeo":"28019","nombre":"Llera"}},{"arcs":[[32,33,34,35,36]],"type":"Polygon","properties":{"cvegeo":"28023","nombre":"Méndez"}},{"arcs":[[37,38,-26,39,40]],"type":"Polygon","properties":{"cvegeo":"28001","nombre":"Abasolo"}},{"arcs":[[41,42,-8,-28,43]],"type":"Polygon","properties":{"cvegeo":"28002","nombre":"Aldama"}},{"arcs":[[44,45,46,47]],"type":"Polygon","properties":{"cvegeo":"28004","nombre":"Antiguo Morelos"}},{"arcs":[[48,49,50,51,52,-35]],"type":"Polygon","properties":{"cvegeo":"28005","nombre":"Burgos"}},{"arcs":[[-41,53,54,-50,55]],"type":"Polygon","properties":{"cvegeo":"28010","nombre":"Cruillas"}},{"arcs":[[-25,56,57,-54,-40]],"type":"Polygon","properties":{"cvegeo":"28018","nombre":"Jiménez"}},{"arcs":[[58,59,-46]],"type":"Polygon","properties":{"cvegeo":"28028","nombre":"Nuevo Morelos"}},{"arcs":[[60,61,-47,-60,62,-20,63,64]],"type":"Polygon","properties":{"cvegeo":"28029","nombre":"Ocampo"}},{"arcs":[[65,-44,-27,-39,66]],"type":"Polygon","properties":{"cvegeo":"28037","nombre":"Soto la Marina"}},{"arcs":[[67,68,69]],"type":"Polygon","properties":{"cvegeo":"28040","nombre":"Valle Hermoso"}},{"arcs":[[70,71]],"type":"Polygon","properties":{"cvegeo":"28020","nombre":"Mainero"}},{"arcs":[[72,73,74,75]],"type":"Polygon","properties":{"cvegeo":"28015","nombre":"Gustavo Díaz Ordaz"}},{"arcs":[[-17,-32,76,-65,77,78,79,80]],"type":"Polygon","properties":{"cvegeo":"28017","nombre":"Jaumave"}},{"arcs":[[81,82,83,-79]],"type":"Polygon","properties":{"cvegeo":"28026","nombre":"Miquihuana"}},{"arcs":[[-75,84,85,86]],"type":"Polygon","properties":{"cvegeo":"28007","nombre":"Camargo"}},{"arcs":[[87,-58,88,-5,89,90,-52]],"type":"Polygon","properties":{"cvegeo":"28034","nombre":"San Carlos"}},{"arcs":[[-51,-55,-88]],"type":"Polygon","properties":{"cvegeo":"28036","nombre":"San Nicolás"}},{"arcs":[[-90,-4,91,-71,92]],"type":"Polygon","properties":{"cvegeo":"28042","nombre":"Villagrán"}},{"arcs":[[93,-22,94,-83]],"type":"Polygon","properties":{"cvegeo":"28006","nombre":"Bustamante"}},{"arcs":[[-64,-19,-94,-82,-78]],"type":"Polygon","properties":{"cvegeo":"28031","nombre":"Palmillas"}},{"arcs":[[95,96,97,-67,-38,-56,-49,-34]],"type":"Polygon","properties":{"cvegeo":"28035","nombre":"San Fernando"}},{"arcs":[[98,99,100,-6]],"type":"Polygon","properties":{"cvegeo":"28014","nombre":"Guerrero"}},{"arcs":[[101,102,103,-100]],"type":"Polygon","properties":{"cvegeo":"28024","nombre":"Mier"}},{"arcs":[[104,105,106]],"type":"Polygon","properties":{"cvegeo":"28038","nombre":"Tampico"}},{"arcs":[[107,-105,108,109]],"type":"Polygon","properties":{"cvegeo":"28009","nombre":"Ciudad Madero"}},{"arcs":[[110,-109,-107,111,-9,-43]],"type":"Polygon","properties":{"cvegeo":"28003","nombre":"Altamira"}},{"arcs":[[112,-30,-12,113]],"type":"Polygon","properties":{"cvegeo":"28043","nombre":"Xicoténcatl"}},{"arcs":[[-61,-77,-31,-113,114]],"type":"Polygon","properties":{"cvegeo":"28011","nombre":"Gómez Farías"}},{"arcs":[[-114,-11,115,-48,-62,-115]],"type":"Polygon","properties":{"cvegeo":"28021","nombre":"El Mante"}},{"arcs":[[-2,116,-23,-18,-81,117]],"type":"Polygon","properties":{"cvegeo":"28013","nombre":"Güémez"}},{"arcs":[[-1,-89,-57,-24,-117]],"type":"Polygon","properties":{"cvegeo":"28030","nombre":"Padilla"}},{"arcs":[[-97,118,-70,119]],"type":"Polygon","properties":{"cvegeo":"28022","nombre":"Matamoros"}},{"arcs":[[120,-37,121,-73,122]],"type":"Polygon","properties":{"cvegeo":"28032","nombre":"Reynosa"}},{"arcs":[[-68,-119,-96,-33,-121,123]],"type":"Polygon","properties":{"cvegeo":"28033","nombre":"Río Bravo"}},{"arcs":[[-86,124,-103,125]],"type":"Polygon","properties":{"cvegeo":"28025","nombre":"Miguel Alemán"}}]}}}