{"type":"Topology","arcs":[[[302797,968703],[-1741,-12410],[5673,-21429],[9604,-9559],[4550,-14491],[11345,-3315],[-1628,-6822]],[[330600,900677],[-25107,-13759]],[[305493,886918],[-26006,23973],[-22410,0],[0,4008],[7470,3585],[-7470,1927],[-6516,12410],[-6122,2505],[-13311,-38]],[[231128,935288],[-5055,15455],[112,10175],[76612,7785]],[[446641,982501],[-450,-11254],[1348,-41702]],[[447539,929545],[-48416,-31874],[-68523,3006]],[[302797,968703],[143844,13798]],[[305493,886918],[-36902,-20273]],[[268591,866645],[-449,7208],[-6459,22122],[-3483,3855],[-14491,4817],[-12581,30641]],[[635531,952323],[-6291,-4317],[-6740,3893],[-9324,-3700],[1292,-7593],[-6459,-10059],[1123,-8286],[-11121,-13143],[-4943,-9481],[13705,-14261],[-2471,-6667],[5785,-22855],[-1854,-8788],[281,-16688],[9717,-10753],[12469,-1619],[6010,-9212],[-1797,-18615],[4886,-11987],[-168,-11716],[-7526,-8094],[-4382,-16033],[-393,-15610],[-3594,-7746],[-450,-29562],[-1460,-21275],[4156,-13258],[9773,-9790],[-4044,-8363],[3988,-5357],[16064,-8981],[3145,-15108]],[[654908,607299],[-122388,22470],[-12357,107569],[-17187,16766],[-50719,91459],[-4718,83982]],[[446641,982501],[205515,17498],[-14603,-27943],[-2022,-19733]],[[975959,143760],[6460,-1580],[17580,-16457],[-3033,-3122],[-6347,8556],[-9998,6398],[-4662,6205]],[[865816,328759],[16120,-12371],[6571,-6938],[7302,-16380],[-4437,-6205],[1348,-9905],[3314,-2274],[16513,-2852],[13592,1233],[730,-13027],[-954,-21044],[4661,-13027],[8538,-2274],[-2696,-14337],[-13031,8556],[-10672,9481],[-9155,15301],[-18367,13605],[-7863,14993],[-8313,694],[-13255,25052],[-3202,1541],[-505,9520],[4830,12141],[-1516,5627],[10447,2890]],[[647382,805711],[5785,-11293],[8032,-6320],[3314,-7786],[-11964,-231],[-13255,10560],[-1348,17305],[9436,-2235]],[[654908,607299],[1405,-10252],[-1573,-21352],[1011,-17074],[8313,-16688],[3257,-11871],[506,-17267],[-4437,-29869],[2752,-4433],[-4999,-12603],[15277,-27557],[3146,-12372],[5392,-8864],[7695,-3585],[3089,-7400],[10615,-5318],[-280,-7208],[4830,-16611],[8987,-7400],[7133,-463],[4493,6475],[10897,-5781],[8986,-11408],[15390,-11832],[4494,-8094],[9211,-4047],[9661,-11717],[19265,-18461],[9998,-5126],[14266,-18423],[10223,-8749],[2190,-6475],[-5617,-7670],[2472,-6821],[13424,-16111],[5223,-15224],[-4100,-2698],[2752,-12795],[-2078,-3855],[7807,-11870],[5280,809],[506,11524],[9773,540],[1460,-5473],[8650,-4394],[-562,-13721],[4269,-8248],[3988,77],[11514,8518],[4606,-1118],[6627,-9096],[281,-9982],[6965,-18962],[4830,-5627],[-112,-7554],[4325,-18462],[15558,-10252],[5785,-617],[14098,4201],[5898,-9018],[4325,1888],[-506,-12487],[-3482,-9597],[-787,-11601],[15446,-18192],[-4549,-12795],[4100,-14531],[-2865,-8517],[7134,-5743],[-77118,0],[-116659,0],[-61390,0],[11458,17190],[10222,18268],[3819,9944],[-3650,7092],[-7471,2158],[11234,29214],[2752,13374],[-4381,11948],[-8369,9250],[-8032,2428],[-337,14877],[-3538,3508],[-15334,655],[112,6244],[-8032,7785],[-5504,886],[674,5242],[-6178,12603],[-3932,1465],[-1629,9982],[-14154,13605],[-8032,-1696],[-2134,5589],[-9773,7400],[-1236,15455],[-4999,8248],[-14154,2621],[-5167,15416],[-11795,6321],[-9212,13297],[-15390,18192],[-23084,12025],[-19546,2582],[-7976,14915],[-11234,8557],[-14041,3623],[-11908,12795],[-10615,-347],[-14885,16535],[-5111,38],[-14322,12680],[2696,15109],[-3090,15532],[-7470,10291],[-12020,1117],[5280,29600],[-3651,12449],[1348,9057],[-1348,18076],[-5560,12565],[-13368,12410],[-7414,1272],[-9829,-7978],[-1685,13335],[-5505,8749],[3707,37540],[-3651,15070],[-786,13142],[-3426,7169],[-6628,2081],[-6010,6552],[-6178,1696],[-16008,21583],[-9211,-1927],[-3539,4702],[5055,27519],[337,9019],[-15052,28366],[-10616,9443],[-5954,8710],[-2303,8557],[-12469,11562],[-5729,-231],[-955,7014],[-6683,3816],[-7752,11909],[7021,3122],[-3145,6706],[3145,9906],[-14659,18114],[12413,-6590],[3594,3430],[5898,17151],[-3145,9481],[-7414,193],[-5056,6822],[-8705,1850],[-3146,13528],[-15446,4625],[-5279,6899],[-506,14568]],[[564592,79511],[8200,-22431],[-1404,-12410],[2864,-3816],[506,-10984],[-5280,-7477],[225,-15571],[-12357,1349],[-1179,6282],[-7695,5897],[-8706,-3931],[618,8209],[6403,4895],[12862,17575],[-3707,14838],[3033,12526],[5617,5049]],[[863850,232174],[3988,-1310],[-843,-10098],[-3145,11408]],[[13031,248747],[-1741,-4779],[3033,-9481],[10334,-8094],[2303,-11447],[56,-19463],[-3257,-7323],[-8762,-3199],[1741,5126],[-2247,12333],[-6347,18462],[-8032,5588],[-112,18038],[13031,4239]]],"transform":{"scale":[0.000005643439449535121,0.000004718735521689947],"translate":[-118.40004213617748,27.99992277230764]},"objects":{"municipalities":{"type":"GeometryCollection","geometries":[{"arcs":[[0,1,2,3]],"type":"Polygon","properties":{"cvegeo":"02004","nombre":"Tijuana"}},{"arcs":[[4,5,-1,6]],"type":"Polygon","properties":{"cvegeo":"02003","nombre":"Tecate"}},{"arcs":[[7,8,-3]],"type":"Polygon","properties":{"cvegeo":"02005","nombre":"Playas de Rosarito"}},{"arcs":[[[9,10,-5,11]],[[12]],[[13]],[[14]]],"type":"MultiPolygon","properties":{"cvegeo":"02002","nombre":"Mexicali"}},{"arcs":[[[15,-8,-2,-6,-11]],[[16]],[[17]],[[18]]],"type":"MultiPolygon","properties":{"cvegeo":"02001","nombre":"Ensenada"}}]}}}