{"type":"FeatureCollection", "features": [
{"type":"Feature","geometry":{"type":"Polygon","coordinates":[[[-105.2265,20.4732],[-105.1631,20.5315],[-105.1191,20.5264],[-105.1134,20.5737],[-105.1406,20.6003],[-105.1299,20.6237],[-105.1704,20.6865],[-105.1695,20.6872],[-105.1695,20.687],[-105.1692,20.6867],[-105.1631,20.6959],[-105.1609,20.6959],[-105.1558,20.6949],[-105.1546,20.6941],[-105.1454,20.6885],[-105.14,20.6859],[-105.1375,20.6901],[-105.139,20.693],[-105.0833,20.6896],[-105.0674,20.7089],[-105.0449,20.7292],[-105.0043,20.7443],[-104.9913,20.7449],[-104.9749,20.7529],[-104.9834,20.7994],[-105.0468,20.8313],[-105.0512,20.8605],[-105.0883,20.9231],[-105.139,20.8818],[-105.1714,20.8211],[-105.1733,20.7678],[-105.1974,20.7771],[-105.2351,20.7474],[-105.2443,20.7032],[-105.2814,20.6719],[-105.2452,20.6534],[-105.2326,20.6183],[-105.2579,20.5577],[-105.3257,20.5123],[-105.2747,20.5124],[-105.2744,20.4903],[-105.2265,20.4732]]]},"properties":{"cvegeo":"14067","nombre":"Puerto Vallarta"}},
{"type":"Feature","geometry":{"type":"Polygon","coordinates":[[[-104.6259,19.353],[-104.6344,19.398],[-104.6176,19.4141],[-104.5739,19.4107],[-104.5777,19.4518],[-104.5292,19.4634],[-104.5517,19.5009],[-104.5282,19.5251],[-104.5834,19.5564],[-104.6049,19.5545],[-104.6126,19.6011],[-104.6671,19.6255],[-104.7213,19.6366],[-104.7412,19.6118],[-104.7653,19.638],[-104.8303,19.638],[-104.8725,19.7075],[-104.92,19.6831],[-104.9692,19.7066],[-104.9828,19.6877],[-105.0249,19.7142],[-105.01,19.7553],[-105.0256,19.7637],[-105.1146,19.7186],[-105.1311,19.7275],[-105.1625,19.6913],[-105.1568,19.664],[-105.2205,19.6457],[-105.1349,19.576],[-105.1108,19.5836],[-105.0893,19.5602],[-105.0734,19.4709],[-105.0256,19.4372],[-105.0322,19.3892],[-104.9368,19.3108],[-104.8813,19.2867],[-104.8271,19.3078],[-104.7888,19.2836],[-104.8107,19.2348],[-104.7755,19.239],[-104.7571,19.2848],[-104.7793,19.2921],[-104.7726,19.3365],[-104.7191,19.3403],[-104.674,19.376],[-104.6259,19.353]]]},"properties":{"cvegeo":"14043","nombre":"La Huerta"}},
{"type":"Feature","geometry":{"type":"Polygon","coordinates":[[[-103.2822,22.254],[-103.2714,22.2209],[-103.2838,22.1538],[-103.2305,22.1629],[-103.2309,22.1252],[-103.1912,22.1427],[-103.1269,22.104],[-103.0771,22.1276],[-103.1025,22.1534],[-103.106,22.1914],[-103.0527,22.2207],[-103.0575,22.2376],[-103.079,22.258],[-103.0838,22.2424],[-103.1592,22.2054],[-103.1963,22.2662],[-103.2267,22.272],[-103.2502,22.28],[-103.2822,22.254]]]},"properties":{"cvegeo":"14081","nombre":"Santa María de los Ángeles"}},
{"type":"Feature","geometry":{"type":"Polygon","coordinates":[[[-103.079,22.258],[-103.099,22.2924],[-103.1909,22.2986],[-103.2226,22.2835],[-103.2103,22.328],[-103.1687,22.3546],[-103.1687,22.3848],[-103.1988,22.3804],[-103.2194,22.4106],[-103.2324,22.3931],[-103.2857,22.4135],[-103.3057,22.3904],[-103.3646,22.3695],[-103.3431,22.3351],[-103.3545,22.2795],[-103.3282,22.3073],[-103.2977,22.2984],[-103.2993,22.2489],[-103.2822,22.254],[-103.2502,22.28],[-103.2267,22.272],[-103.1963,22.2662],[-103.1592,22.2054],[-103.0838,22.2424],[-103.079,22.258]]]},"properties":{"cvegeo":"14041","nombre":"Huejúcar"}},
{"type":"Feature","geometry":{"type":"Polygon","coordinates":[[[-103.926,22.3317],[-103.8664,22.415],[-103.8857,22.4735],[-103.8626,22.5017],[-103.8756,22.5215],[-103.8556,22.5743],[-103.7738,22.6112],[-103.7548,22.7196],[-103.7802,22.73],[-103.854,22.7298],[-103.9092,22.7501],[-104.0262,22.7432],[-104.0731,22.693],[-104.0154,22.6687],[-104.0252,22.6521],[-104.0154,22.5959],[-103.9723,22.545],[-104.0055,22.5366],[-103.9333,22.4892],[-103.9605,22.4331],[-104.0043,22.4099],[-104.0236,22.3644],[-103.9748,22.3062],[-103.926,22.3317]]]},"properties":{"cvegeo":"14042","nombre":"Huejuquilla el Alto"}},
{"type":"Feature","geometry":{"type":"Polygon","coordinates":[[[-103.6908,22.1283],[-103.731,22.1705],[-103.7336,22.1558],[-103.7875,22.168],[-103.8071,22.1431],[-103.8407,22.1403],[-103.8312,22.1198],[-103.8445,22.0714],[-103.8008,22.0309],[-103.8401,22.0105],[-103.8382,21.9996],[-103.8375,21.9981],[-103.8391,21.9787],[-103.8404,21.9416],[-103.8217,21.9325],[-103.8017,21.935],[-103.7979,21.935],[-103.7916,21.9548],[-103.7399,21.9754],[-103.7396,21.9754],[-103.7361,21.9747],[-103.7085,21.9688],[-103.681,21.931],[-103.6835,21.9274],[-103.6772,21.9185],[-103.6496,21.9183],[-103.6496,21.9179],[-103.6512,21.9145],[-103.6547,21.8974],[-103.6537,21.8975],[-103.6566,21.8899],[-103.6226,21.8694],[-103.596,21.8681],[-103.5824,21.9001],[-103.5481,21.9021],[-103.5786,21.9232],[-103.5497,21.9596],[-103.5643,21.9805],[-103.5361,22.0025],[-103.552,22.0701],[-103.5383,22.1214],[-103.5805,22.1258],[-103.6046,22.0978],[-103.6841,22.1092],[-103.6908,22.1283]]]},"properties":{"cvegeo":"14115","nombre":"Villa Guerrero"}},
{"type":"Feature","geometry":{"type":"Polygon","coordinates":[[[-103.3386,21.9423],[-103.3434,21.9978],[-103.3703,22.0016],[-103.4065,22.0901],[-103.4499,22.1143],[-103.5158,22.11],[-103.5383,22.1214],[-103.552,22.0701],[-103.5361,22.0025],[-103.5643,21.9805],[-103.5497,21.9596],[-103.5786,21.9232],[-103.5481,21.9021],[-103.5824,21.9001],[-103.596,21.8681],[-103.6226,21.8694],[-103.6261,21.837],[-103.5726,21.8035],[-103.5263,21.805],[-103.5028,21.8332],[-103.4705,21.8133],[-103.4699,21.8393],[-103.4191,21.8961],[-103.3893,21.8986],[-103.3453,21.9141],[-103.3386,21.9423]]]},"properties":{"cvegeo":"14104","nombre":"Totatiche"}},
{"type":"Feature","geometry":{"type":"Polygon","coordinates":[[[-103.4499,22.1143],[-103.4065,22.0901],[-103.3703,22.0016],[-103.3434,21.9978],[-103.3386,21.9423],[-103.279,21.9888],[-103.266,21.9723],[-103.1925,21.9697],[-103.202,21.9983],[-103.1725,21.9965],[-103.1114,22.0143],[-103.1063,22.047],[-103.1079,22.0634],[-103.1542,22.0723],[-103.1269,22.104],[-103.1912,22.1427],[-103.2309,22.1252],[-103.2305,22.1629],[-103.2838,22.1538],[-103.2714,22.2209],[-103.2822,22.254],[-103.2993,22.2489],[-103.338,22.2451],[-103.409,22.2154],[-103.4264,22.1391],[-103.4499,22.1143]]]},"properties":{"cvegeo":"14025","nombre":"Colotlán"}},
{"type":"Feature","geometry":{"type":"Polygon","coordinates":[[[-103.8401,22.0105],[-103.8008,22.0309],[-103.8445,22.0714],[-103.8312,22.1198],[-103.8407,22.1403],[-103.8071,22.1431],[-103.7875,22.168],[-103.7336,22.1558],[-103.731,22.1705],[-103.6908,22.1283],[-103.6613,22.1667],[-103.6309,22.2387],[-103.5995,22.2776],[-103.6382,22.2953],[-103.6353,22.3433],[-103.6071,22.3382],[-103.5944,22.4071],[-103.5726,22.4375],[-103.5852,22.5254],[-103.6106,22.5595],[-103.6619,22.5474],[-103.7272,22.5741],[-103.7691,22.5557],[-103.7868,22.4777],[-103.8103,22.4273],[-103.8116,22.3766],[-103.8455,22.3428],[-103.8284,22.2878],[-103.8632,22.1667],[-103.9019,22.2371],[-103.926,22.3317],[-103.9748,22.3062],[-104.0236,22.3644],[-104.049,22.3764],[-104.0946,22.3549],[-104.0518,22.4664],[-104.0794,22.5332],[-104.1209,22.5155],[-104.1136,22.4964],[-104.1653,22.5135],[-104.1948,22.5039],[-104.1999,22.4562],[-104.1723,22.4402],[-104.1647,22.3915],[-104.2087,22.4224],[-104.2544,22.3928],[-104.2563,22.3491],[-104.2924,22.3444],[-104.2956,22.2769],[-104.3285,22.2456],[-104.365,22.1125],[-104.3637,21.9739],[-104.3276,21.9754],[-104.294,22.0028],[-104.2452,21.9668],[-104.1932,21.9854],[-104.1739,21.9708],[-104.1999,21.8943],[-104.1605,21.8988],[-104.1488,21.9245],[-104.1209,21.895],[-104.0883,21.8899],[-104.0487,21.9528],[-104.0147,21.929],[-103.978,21.9507],[-103.9203,21.9348],[-103.9187,22.0105],[-103.8879,22.0247],[-103.8826,22.0038],[-103.8401,22.0105]]]},"properties":{"cvegeo":"14061","nombre":"Mezquitic"}},
{"type":"Feature","geometry":{"type":"Polygon","coordinates":[[[-102.5833,21.7439],[-102.6337,21.7673],[-102.691,21.7524],[-102.6961,21.7286],[-102.7456,21.72],[-102.7481,21.7159],[-102.7421,21.6533],[-102.7082,21.6533],[-102.6917,21.6277],[-102.6517,21.6126],[-102.6086,21.5685],[-102.5722,21.5793],[-102.5639,21.5749],[-102.5253,21.5793],[-102.4381,21.6349],[-102.4197,21.6693],[-102.5551,21.7435],[-102.5833,21.7439]]]},"properties":{"cvegeo":"14116","nombre":"Villa Hidalgo"}},
{"type":"Feature","geometry":{"type":"Polygon","coordinates":[[[-101.9417,21.8894],[-101.9328,21.8574],[-101.8862,21.8484],[-101.8561,21.7993],[-101.8267,21.7841],[-101.801,21.7284],[-101.8222,21.7304],[-101.7408,21.6482],[-101.6821,21.6137],[-101.6859,21.5791],[-101.639,21.5418],[-101.6228,21.5447],[-101.5864,21.6078],[-101.5937,21.6317],[-101.5579,21.735],[-101.58,21.7362],[-101.5858,21.7788],[-101.5388,21.7777],[-101.5106,21.7988],[-101.5373,21.8106],[-101.5626,21.8554],[-101.5702,21.917],[-101.6511,21.9077],[-101.6596,21.9416],[-101.711,21.9739],[-101.7509,22.0147],[-101.7778,22.0072],[-101.8019,22.0278],[-101.8618,22.0289],[-101.8625,21.9914],[-101.8977,21.9583],[-101.8859,21.9326],[-101.8355,21.9416],[-101.8381,21.9072],[-101.8805,21.9101],[-101.9417,21.8894]]]},"properties":{"cvegeo":"14064","nombre":"Ojuelos de Jalisco"}},
{"type":"Feature","geometry":{"type":"Polygon","coordinates":[[[-103.8838,21.781],[-103.8379,21.7335],[-103.7475,21.7257],[-103.6968,21.6968],[-103.6467,21.7222],[-103.6648,21.6802],[-103.7022,21.6417],[-103.6844,21.6193],[-103.7035,21.6004],[-103.7085,21.5978],[-103.6867,21.5564],[-103.6474,21.5749],[-103.5932,21.5591],[-103.5916,21.5889],[-103.5551,21.5765],[-103.5491,21.6497],[-103.5269,21.6755],[-103.5085,21.7397],[-103.5291,21.7731],[-103.5726,21.8035],[-103.6261,21.837],[-103.6226,21.8694],[-103.6566,21.8899],[-103.6537,21.8975],[-103.6547,21.8974],[-103.6512,21.9145],[-103.6496,21.9179],[-103.6496,21.9183],[-103.6772,21.9185],[-103.6835,21.9274],[-103.6987,21.9145],[-103.7066,21.8535],[-103.7012,21.8508],[-103.6879,21.8073],[-103.719,21.7972],[-103.783,21.7988],[-103.7833,21.8232],[-103.8414,21.8115],[-103.8838,21.781]]]},"properties":{"cvegeo":"14031","nombre":"Chimaltitán"}},
{"type":"Feature","geometry":{"type":"Polygon","coordinates":[[[-104.1967,21.8506],[-104.1304,21.7904],[-104.0525,21.7946],[-103.9849,21.7726],[-103.9225,21.7708],[-103.8838,21.781],[-103.8414,21.8115],[-103.7833,21.8232],[-103.783,21.7988],[-103.719,21.7972],[-103.6879,21.8073],[-103.7012,21.8508],[-103.7066,21.8535],[-103.6987,21.9145],[-103.6835,21.9274],[-103.681,21.931],[-103.7085,21.9688],[-103.7361,21.9747],[-103.7396,21.9754],[-103.7399,21.9754],[-103.7916,21.9548],[-103.7979,21.935],[-103.8017,21.935],[-103.8217,21.9325],[-103.8404,21.9416],[-103.8391,21.9787],[-103.8375,21.9981],[-103.8382,21.9996],[-103.8401,22.0105],[-103.8826,22.0038],[-103.8879,22.0247],[-103.9187,22.0105],[-103.9203,21.9348],[-103.978,21.9507],[-104.0147,21.929],[-104.0487,21.9528],[-104.0883,21.8899],[-104.1209,21.895],[-104.1488,21.9245],[-104.1605,21.8988],[-104.1999,21.8943],[-104.1967,21.8506]]]},"properties":{"cvegeo":"14019","nombre":"Bolaños"}},
{"type":"Feature","geometry":{"type":"Polygon","coordinates":[[[-103.8017,21.4894],[-103.7802,21.5],[-103.7501,21.4754],[-103.7212,21.426],[-103.7643,21.4103],[-103.7456,21.363],[-103.7114,21.3805],[-103.6242,21.4185],[-103.661,21.4416],[-103.6588,21.4634],[-103.7016,21.4663],[-103.6727,21.5054],[-103.6946,21.5289],[-103.6867,21.5564],[-103.7085,21.5978],[-103.7035,21.6004],[-103.6844,21.6193],[-103.7022,21.6417],[-103.6648,21.6802],[-103.6467,21.7222],[-103.6968,21.6968],[-103.7475,21.7257],[-103.8379,21.7335],[-103.8838,21.781],[-103.9225,21.7708],[-103.9339,21.7479],[-103.8905,21.6993],[-103.9304,21.6417],[-103.9079,21.6187],[-103.9234,21.5896],[-103.8914,21.5684],[-103.8566,21.5524],[-103.8515,21.5154],[-103.8017,21.4894]]]},"properties":{"cvegeo":"14076","nombre":"San Martín de Bolaños"}},
{"type":"Feature","geometry":{"type":"Polygon","coordinates":[[[-102.6533,21.2514],[-102.6543,21.277],[-102.7053,21.3192],[-102.6822,21.3392],[-102.7294,21.3874],[-102.7278,21.357],[-102.7706,21.3157],[-102.7915,21.3279],[-102.8159,21.2943],[-102.8372,21.3032],[-102.8638,21.2528],[-102.8457,21.2241],[-102.8058,21.1695],[-102.6657,21.2177],[-102.6445,21.2152],[-102.6533,21.2514]]]},"properties":{"cvegeo":"14060","nombre":"Mexticacán"}},
{"type":"Feature","geometry":{"type":"Polygon","coordinates":[[[-101.8869,21.0611],[-101.923,21.0449],[-101.9747,21.0571],[-101.9959,21.0424],[-102.0783,21.0386],[-102.091,21.0633],[-102.117,21.0328],[-102.1189,20.9584],[-102.1031,20.9275],[-102.1195,20.8765],[-102.0603,20.8842],[-102.0549,20.8464],[-101.9373,20.9557],[-101.9088,20.9984],[-101.8869,21.0611]]]},"properties":{"cvegeo":"14072","nombre":"San Diego de Alejandría"}},
{"type":"Feature","geometry":{"type":"Polygon","coordinates":[[[-102.091,21.0633],[-102.131,21.1088],[-102.189,21.1155],[-102.2238,21.0995],[-102.2042,21.0029],[-102.2226,20.9353],[-102.2232,20.9346],[-102.2295,20.9251],[-102.2352,20.898],[-102.1646,20.9111],[-102.1598,20.8762],[-102.1195,20.8765],[-102.1031,20.9275],[-102.1189,20.9584],[-102.117,21.0328],[-102.091,21.0633]]]},"properties":{"cvegeo":"14074","nombre":"San Julián"}},
{"type":"Feature","geometry":{"type":"Polygon","coordinates":[[[-103.3472,21.0442],[-103.3694,21.052],[-103.4185,21.1152],[-103.4166,21.1377],[-103.4692,21.1433],[-103.5044,21.1277],[-103.5114,21.1463],[-103.5535,21.1168],[-103.5957,21.1328],[-103.6147,21.1583],[-103.6448,21.1212],[-103.6711,21.0417],[-103.6068,21.0399],[-103.6233,21.0046],[-103.616,20.9618],[-103.5615,20.9635],[-103.5231,20.9982],[-103.4049,20.9566],[-103.3703,20.9353],[-103.3383,20.9557],[-103.3589,20.9669],[-103.3358,21.0042],[-103.3472,21.0442]]]},"properties":{"cvegeo":"14071","nombre":"San Cristóbal de la Barranca"}},
{"type":"Feature","geometry":{"type":"Polygon","coordinates":[[[-102.5925,21.1168],[-102.5471,21.1124],[-102.55,21.0761],[-102.5208,21.0893],[-102.4933,21.0662],[-102.4552,21.0697],[-102.3766,21.1135],[-102.3161,21.1061],[-102.3148,21.1053],[-102.3135,21.1361],[-102.3658,21.163],[-102.4083,21.1615],[-102.3966,21.1999],[-102.4324,21.233],[-102.4232,21.2816],[-102.4549,21.291],[-102.4318,21.3274],[-102.4818,21.3268],[-102.5316,21.295],[-102.5551,21.3087],[-102.6067,21.3052],[-102.62,21.2654],[-102.5785,21.2568],[-102.5833,21.2201],[-102.6245,21.2012],[-102.5779,21.1386],[-102.5925,21.1168]]]},"properties":{"cvegeo":"14046","nombre":"Jalostotitlán"}},
{"type":"Feature","geometry":{"type":"Polygon","coordinates":[[[-102.8166,21.0693],[-102.8229,21.1015],[-102.8001,21.1368],[-102.8058,21.1695],[-102.8457,21.2241],[-102.8638,21.2528],[-102.899,21.2375],[-102.9107,21.205],[-102.9481,21.2146],[-102.9969,21.2597],[-103.0267,21.2421],[-103.0499,21.2632],[-103.0847,21.1941],[-103.0717,21.1533],[-103.0987,21.131],[-103.0584,21.0984],[-103.0578,21.0991],[-103.0099,21.1071],[-102.9627,21.0839],[-102.964,21.0573],[-102.9088,21.0071],[-102.8755,21.0099],[-102.8448,20.9831],[-102.7906,21.0315],[-102.8197,21.0371],[-102.8166,21.0693]]]},"properties":{"cvegeo":"14118","nombre":"Yahualica de González Gallo"}},
{"type":"Feature","geometry":{"type":"Polygon","coordinates":[[[-102.8058,21.1695],[-102.8001,21.1368],[-102.8229,21.1015],[-102.8166,21.0693],[-102.7941,21.0722],[-102.7551,21.1041],[-102.7269,21.0813],[-102.698,21.0919],[-102.6942,21.0933],[-102.6679,21.1157],[-102.647,21.1335],[-102.641,21.1266],[-102.6156,21.1424],[-102.5779,21.1386],[-102.6245,21.2012],[-102.5833,21.2201],[-102.5785,21.2568],[-102.62,21.2654],[-102.6533,21.2514],[-102.6445,21.2152],[-102.6657,21.2177],[-102.8058,21.1695]]]},"properties":{"cvegeo":"14117","nombre":"Cañadas de Obregón"}},
{"type":"Feature","geometry":{"type":"Polygon","coordinates":[[[-103.9656,20.9384],[-103.8822,20.9893],[-103.8566,21.0726],[-103.9349,21.0801],[-103.9973,21.1381],[-104.0344,21.1381],[-104.0724,21.1672],[-104.0718,21.1884],[-104.1003,21.2006],[-104.1609,21.1846],[-104.204,21.1923],[-104.2195,21.1764],[-104.2106,21.1304],[-104.2277,21.0508],[-104.2411,21.0217],[-104.2335,20.9686],[-104.2052,20.9597],[-104.1482,20.9473],[-104.0914,20.9442],[-104.061,20.9604],[-104.0116,21.0079],[-103.9656,20.9384]]]},"properties":{"cvegeo":"14040","nombre":"Hostotipaquillo"}},
{"type":"Feature","geometry":{"type":"Polygon","coordinates":[[[-104.2924,20.8485],[-104.3625,20.8407],[-104.3504,20.8116],[-104.3758,20.7842],[-104.3282,20.7982],[-104.2975,20.7707],[-104.2829,20.7834],[-104.2477,20.7265],[-104.1945,20.7343],[-104.2059,20.7725],[-104.2062,20.7725],[-104.1983,20.7843],[-104.1307,20.7707],[-104.1273,20.8451],[-104.1529,20.8584],[-104.1422,20.8844],[-104.172,20.9116],[-104.2157,20.9229],[-104.2598,20.8938],[-104.2902,20.888],[-104.2924,20.8485]]]},"properties":{"cvegeo":"14075","nombre":"San Marcos"}},
{"type":"Feature","geometry":{"type":"Polygon","coordinates":[[[-103.0248,20.7923],[-102.9827,20.8052],[-102.9202,20.8533],[-102.943,20.8727],[-102.944,20.9047],[-102.8755,21.0099],[-102.9088,21.0071],[-102.964,21.0573],[-102.9627,21.0839],[-103.0099,21.1071],[-103.0578,21.0991],[-103.0749,21.0742],[-103.1263,21.0548],[-103.1494,21.0319],[-103.1542,20.9938],[-103.119,20.9949],[-103.1199,20.9618],[-103.1199,20.9617],[-103.1827,20.9422],[-103.1557,20.9282],[-103.1497,20.8855],[-103.1025,20.8771],[-103.0746,20.8287],[-103.0774,20.7911],[-103.0248,20.7923]]]},"properties":{"cvegeo":"14029","nombre":"Cuquío"}},
{"type":"Feature","geometry":{"type":"Polygon","coordinates":[[[-103.9095,20.8133],[-103.9339,20.8425],[-103.9656,20.8211],[-103.9853,20.8458],[-104.0211,20.8509],[-104.0204,20.892],[-104.0588,20.9116],[-104.0921,20.8856],[-104.0702,20.8829],[-104.0683,20.7852],[-104.017,20.7552],[-104.0306,20.7318],[-103.9773,20.7198],[-103.9146,20.8091],[-103.9095,20.8133]]]},"properties":{"cvegeo":"14007","nombre":"San Juanito de Escobedo"}},
{"type":"Feature","geometry":{"type":"Polygon","coordinates":[[[-103.9095,20.8133],[-103.8781,20.8727],[-103.886,20.8905],[-103.9434,20.9065],[-103.9656,20.9384],[-104.0116,21.0079],[-104.061,20.9604],[-104.0914,20.9442],[-104.1482,20.9473],[-104.2052,20.9597],[-104.2598,20.8938],[-104.2157,20.9229],[-104.172,20.9116],[-104.1422,20.8844],[-104.0921,20.8856],[-104.0588,20.9116],[-104.0204,20.892],[-104.0211,20.8509],[-103.9853,20.8458],[-103.9656,20.8211],[-103.9339,20.8425],[-103.9095,20.8133]]]},"properties":{"cvegeo":"14055","nombre":"Magdalena"}},
{"type":"Feature","geometry":{"type":"Polygon","coordinates":[[[-103.9095,20.8133],[-103.9146,20.8091],[-103.8689,20.7867],[-103.8185,20.8018],[-103.7881,20.7949],[-103.7545,20.9255],[-103.6978,20.9127],[-103.6553,20.904],[-103.616,20.9618],[-103.6233,21.0046],[-103.6068,21.0399],[-103.6711,21.0417],[-103.6448,21.1212],[-103.6147,21.1583],[-103.6245,21.193],[-103.6353,21.1972],[-103.641,21.2845],[-103.6657,21.2905],[-103.7165,21.2681],[-103.7212,21.3078],[-103.6635,21.3381],[-103.5104,21.3549],[-103.5149,21.3963],[-103.539,21.4447],[-103.5716,21.4398],[-103.5868,21.3923],[-103.6242,21.4185],[-103.7114,21.3805],[-103.7456,21.363],[-103.7494,21.3367],[-103.8036,21.3001],[-103.8185,21.249],[-103.862,21.2488],[-103.9177,21.2308],[-103.9754,21.2512],[-104.0176,21.2261],[-104.0357,21.1959],[-104.0718,21.1884],[-104.0724,21.1672],[-104.0344,21.1381],[-103.9973,21.1381],[-103.9349,21.0801],[-103.8566,21.0726],[-103.8822,20.9893],[-103.9656,20.9384],[-103.9434,20.9065],[-103.886,20.8905],[-103.8781,20.8727],[-103.9095,20.8133]]]},"properties":{"cvegeo":"14094","nombre":"Tequila"}},
{"type":"Feature","geometry":{"type":"Polygon","coordinates":[[[-104.2477,20.6899],[-104.2094,20.6585],[-104.1444,20.6492],[-104.1434,20.6488],[-104.1301,20.6476],[-104.0975,20.6354],[-104.0563,20.6623],[-104.0306,20.7318],[-104.017,20.7552],[-104.0683,20.7852],[-104.0702,20.8829],[-104.0921,20.8856],[-104.1422,20.8844],[-104.1529,20.8584],[-104.1273,20.8451],[-104.1307,20.7707],[-104.1983,20.7843],[-104.2062,20.7725],[-104.2059,20.7725],[-104.1945,20.7343],[-104.2477,20.7265],[-104.2477,20.6899]]]},"properties":{"cvegeo":"14036","nombre":"Etzatlán"}},
{"type":"Feature","geometry":{"type":"Polygon","coordinates":[[[-103.9108,20.6387],[-103.9162,20.6903],[-103.8829,20.7274],[-103.8635,20.6914],[-103.7865,20.786],[-103.7881,20.7949],[-103.8185,20.8018],[-103.8689,20.7867],[-103.9146,20.8091],[-103.9773,20.7198],[-104.0306,20.7318],[-104.0563,20.6623],[-103.9878,20.6114],[-103.9485,20.6336],[-103.9108,20.6387]]]},"properties":{"cvegeo":"14003","nombre":"Ahualulco de Mercado"}},
{"type":"Feature","geometry":{"type":"Polygon","coordinates":[[[-103.7865,20.786],[-103.8635,20.6914],[-103.8829,20.7274],[-103.9162,20.6903],[-103.9108,20.6387],[-103.8578,20.5763],[-103.848,20.5845],[-103.8112,20.6252],[-103.7577,20.6776],[-103.7738,20.7094],[-103.7615,20.7369],[-103.745,20.7649],[-103.7865,20.786]]]},"properties":{"cvegeo":"14095","nombre":"Teuchitlán"}},
{"type":"Feature","geometry":{"type":"Polygon","coordinates":[[[-104.8753,20.6878],[-104.8218,20.7241],[-104.7397,20.7007],[-104.7371,20.733],[-104.7143,20.7312],[-104.6519,20.7909],[-104.6509,20.8345],[-104.59,20.8405],[-104.6189,20.9238],[-104.629,20.9242],[-104.681,20.9438],[-104.6791,20.9571],[-104.7295,20.9831],[-104.7317,21.0122],[-104.7996,21.0157],[-104.8357,21.0193],[-104.9688,20.9091],[-104.9891,20.9213],[-105.0392,20.9129],[-105.0478,20.9344],[-105.0883,20.9231],[-105.0512,20.8605],[-105.0468,20.8313],[-104.9834,20.7994],[-104.9749,20.7529],[-104.9913,20.7449],[-104.9622,20.6974],[-104.9178,20.7165],[-104.8753,20.6878]]]},"properties":{"cvegeo":"14080","nombre":"San Sebastián del Oeste"}},
{"type":"Feature","geometry":{"type":"Polygon","coordinates":[[[-104.5336,20.7105],[-104.5171,20.6648],[-104.4791,20.6483],[-104.5029,20.6285],[-104.4347,20.5163],[-104.3793,20.5201],[-104.3162,20.4935],[-104.2797,20.4588],[-104.2797,20.4979],[-104.2404,20.4924],[-104.2363,20.529],[-104.268,20.559],[-104.2411,20.5979],[-104.2572,20.6036],[-104.2823,20.6288],[-104.2873,20.6874],[-104.3507,20.7254],[-104.3967,20.7809],[-104.4506,20.8036],[-104.5035,20.8418],[-104.5428,20.912],[-104.5907,20.9346],[-104.6189,20.9238],[-104.59,20.8405],[-104.584,20.7943],[-104.5384,20.7414],[-104.5336,20.7105]]]},"properties":{"cvegeo":"14038","nombre":"Guachinango"}},
{"type":"Feature","geometry":{"type":"Polygon","coordinates":[[[-102.0095,20.545],[-101.9842,20.5348],[-101.969,20.5625],[-101.9515,20.6068],[-101.968,20.6636],[-102.0194,20.6761],[-102.0143,20.717],[-102.0346,20.742],[-102.0644,20.7387],[-102.0676,20.7716],[-102.0739,20.7765],[-102.0875,20.7789],[-102.0945,20.7594],[-102.131,20.7867],[-102.2422,20.6825],[-102.2631,20.6727],[-102.2435,20.6381],[-102.2847,20.6012],[-102.253,20.5916],[-102.2485,20.5446],[-102.2232,20.5103],[-102.189,20.5301],[-102.1607,20.5192],[-102.0891,20.5288],[-102.0514,20.5488],[-102.0095,20.545]]]},"properties":{"cvegeo":"14048","nombre":"Jesús María"}},
{"type":"Feature","geometry":{"type":"Polygon","coordinates":[[[-103.2822,20.6412],[-103.2641,20.6679],[-103.2657,20.7056],[-103.2835,20.7303],[-103.3126,20.7527],[-103.3475,20.7172],[-103.4058,20.7121],[-103.3966,20.6365],[-103.396,20.6132],[-103.3405,20.6094],[-103.3183,20.6425],[-103.2822,20.6412]]]},"properties":{"cvegeo":"14039","nombre":"Guadalajara"}},
{"type":"Feature","geometry":{"type":"Polygon","coordinates":[[[-102.55,21.0761],[-102.5449,21.0384],[-102.5253,21.0328],[-102.5731,21.0015],[-102.5646,20.9711],[-102.5567,20.9404],[-102.4933,20.9076],[-102.4837,20.8651],[-102.4749,20.8678],[-102.4365,20.8664],[-102.4197,20.8885],[-102.2371,20.8851],[-102.2352,20.898],[-102.2295,20.9251],[-102.2232,20.9346],[-102.2226,20.9353],[-102.2042,21.0029],[-102.2238,21.0995],[-102.2923,21.0961],[-102.3148,21.1053],[-102.3161,21.1061],[-102.3766,21.1135],[-102.4552,21.0697],[-102.4933,21.0662],[-102.5208,21.0893],[-102.55,21.0761]]]},"properties":{"cvegeo":"14078","nombre":"San Miguel el Alto"}},
{"type":"Feature","geometry":{"type":"Polygon","coordinates":[[[-102.7586,20.4324],[-102.7294,20.4257],[-102.6917,20.4492],[-102.679,20.4812],[-102.6819,20.5161],[-102.6308,20.5221],[-102.6299,20.5675],[-102.6685,20.5792],[-102.653,20.6066],[-102.7183,20.6494],[-102.7433,20.6123],[-102.8033,20.6239],[-102.8733,20.5972],[-102.8879,20.5479],[-102.8594,20.5199],[-102.8121,20.531],[-102.7849,20.4924],[-102.7652,20.4912],[-102.7586,20.4324]]]},"properties":{"cvegeo":"14105","nombre":"Tototlán"}},
{"type":"Feature","geometry":{"type":"Polygon","coordinates":[[[-102.7586,20.4324],[-102.7652,20.4912],[-102.7849,20.4924],[-102.8121,20.531],[-102.8594,20.5199],[-102.8879,20.5479],[-102.9063,20.5208],[-102.9541,20.5026],[-103.0087,20.5277],[-103.0312,20.4977],[-103.0809,20.4875],[-103.0847,20.4004],[-103.0847,20.4002],[-103.0258,20.4224],[-102.9909,20.4019],[-102.9516,20.4013],[-102.9126,20.3817],[-102.8803,20.3868],[-102.84,20.4168],[-102.8086,20.4104],[-102.7884,20.4472],[-102.7586,20.4324]]]},"properties":{"cvegeo":"14123","nombre":"Zapotlán del Rey"}},
{"type":"Feature","geometry":{"type":"Polygon","coordinates":[[[-102.4533,20.4377],[-102.4463,20.485],[-102.4178,20.5259],[-102.4216,20.5881],[-102.4429,20.5921],[-102.4197,20.6221],[-102.4622,20.6618],[-102.4942,20.6674],[-102.5158,20.6479],[-102.5379,20.6658],[-102.5405,20.6659],[-102.5443,20.6659],[-102.653,20.6066],[-102.6685,20.5792],[-102.6299,20.5675],[-102.6308,20.5221],[-102.6819,20.5161],[-102.679,20.4812],[-102.6467,20.457],[-102.627,20.4673],[-102.5953,20.4468],[-102.6096,20.4197],[-102.5864,20.4184],[-102.5674,20.455],[-102.4831,20.4528],[-102.4533,20.4377]]]},"properties":{"cvegeo":"14013","nombre":"Atotonilco el Alto"}},
{"type":"Feature","geometry":{"type":"Polygon","coordinates":[[[-104.0195,20.389],[-103.9884,20.401],[-104.0036,20.4181],[-103.9761,20.4823],[-103.9536,20.4573],[-103.9133,20.5255],[-103.8889,20.5284],[-103.8937,20.5526],[-103.8578,20.5763],[-103.9108,20.6387],[-103.9485,20.6336],[-103.9878,20.6114],[-104.0563,20.6623],[-104.0975,20.6354],[-104.1301,20.6476],[-104.1434,20.6488],[-104.1444,20.6492],[-104.2094,20.6585],[-104.2477,20.6899],[-104.2572,20.6036],[-104.2411,20.5979],[-104.268,20.559],[-104.2363,20.529],[-104.2404,20.4924],[-104.1878,20.4522],[-104.1666,20.4586],[-104.1504,20.4333],[-104.1019,20.4064],[-104.0835,20.3777],[-104.0407,20.3933],[-104.0268,20.3868],[-104.0195,20.389]]]},"properties":{"cvegeo":"14006","nombre":"Ameca"}},
{"type":"Feature","geometry":{"type":"Polygon","coordinates":[[[-103.2866,20.3326],[-103.2717,20.3415],[-103.1846,20.3273],[-103.1462,20.3357],[-103.1259,20.3611],[-103.1215,20.4053],[-103.1215,20.4061],[-103.145,20.4435],[-103.2026,20.4608],[-103.2106,20.4801],[-103.2492,20.4517],[-103.2892,20.4008],[-103.2993,20.3902],[-103.2866,20.3326]]]},"properties":{"cvegeo":"14044","nombre":"Ixtlahuacán de los Membrillos"}},
{"type":"Feature","geometry":{"type":"Polygon","coordinates":[[[-103.5402,20.3495],[-103.5367,20.4082],[-103.5707,20.4639],[-103.596,20.4835],[-103.66,20.5048],[-103.686,20.501],[-103.6753,20.4357],[-103.6299,20.4091],[-103.6134,20.3515],[-103.5402,20.3495]]]},"properties":{"cvegeo":"14002","nombre":"Acatlán de Juárez"}},
{"type":"Feature","geometry":{"type":"Polygon","coordinates":[[[-104.6138,20.4664],[-104.5625,20.4783],[-104.5165,20.5128],[-104.4873,20.5154],[-104.4778,20.4522],[-104.4408,20.4224],[-104.4591,20.4013],[-104.4319,20.389],[-104.3938,20.3362],[-104.3862,20.3704],[-104.3282,20.374],[-104.3079,20.4213],[-104.2724,20.4117],[-104.2515,20.4308],[-104.2065,20.4326],[-104.1878,20.4522],[-104.2404,20.4924],[-104.2797,20.4979],[-104.2797,20.4588],[-104.3162,20.4935],[-104.3793,20.5201],[-104.4347,20.5163],[-104.5029,20.6285],[-104.4791,20.6483],[-104.5171,20.6648],[-104.5336,20.7105],[-104.6005,20.6568],[-104.5942,20.6428],[-104.629,20.6034],[-104.5999,20.5694],[-104.6509,20.5046],[-104.6148,20.4893],[-104.6138,20.4664]]]},"properties":{"cvegeo":"14062","nombre":"Mixtlán"}},
{"type":"Feature","geometry":{"type":"Polygon","coordinates":[[[-102.2197,20.3511],[-102.1801,20.3553],[-102.0964,20.384],[-102.0641,20.4408],[-102.0612,20.4448],[-102.0095,20.545],[-102.0514,20.5488],[-102.0891,20.5288],[-102.1607,20.5192],[-102.189,20.5301],[-102.2232,20.5103],[-102.273,20.4672],[-102.3072,20.4562],[-102.3107,20.4282],[-102.2917,20.3591],[-102.2197,20.3511]]]},"properties":{"cvegeo":"14033","nombre":"Degollado"}},
{"type":"Feature","geometry":{"type":"Polygon","coordinates":[[[-103.9472,20.3242],[-103.9162,20.3466],[-103.8997,20.3868],[-103.8895,20.3631],[-103.8436,20.3753],[-103.8835,20.4137],[-103.8737,20.4497],[-103.8442,20.4997],[-103.8385,20.5383],[-103.7795,20.5263],[-103.7818,20.5335],[-103.7155,20.5144],[-103.7152,20.5137],[-103.7155,20.5144],[-103.7329,20.5525],[-103.7903,20.5725],[-103.8154,20.5957],[-103.848,20.5845],[-103.8578,20.5763],[-103.8937,20.5526],[-103.8889,20.5284],[-103.9133,20.5255],[-103.9536,20.4573],[-103.9761,20.4823],[-104.0036,20.4181],[-103.9884,20.401],[-104.0195,20.389],[-104.0268,20.3868],[-104.0407,20.3933],[-104.03,20.3331],[-103.9485,20.3364],[-103.9472,20.3242]]]},"properties":{"cvegeo":"14077","nombre":"San Martín Hidalgo"}},
{"type":"Feature","geometry":{"type":"Polygon","coordinates":[[[-102.2847,20.6012],[-102.336,20.5946],[-102.3522,20.6087],[-102.4216,20.5881],[-102.4178,20.5259],[-102.4463,20.485],[-102.4533,20.4377],[-102.4083,20.4159],[-102.3848,20.3759],[-102.3468,20.3753],[-102.3471,20.3349],[-102.298,20.3537],[-102.2536,20.3355],[-102.2197,20.3511],[-102.2917,20.3591],[-102.3107,20.4282],[-102.3072,20.4562],[-102.273,20.4672],[-102.2232,20.5103],[-102.2485,20.5446],[-102.253,20.5916],[-102.2847,20.6012]]]},"properties":{"cvegeo":"14016","nombre":"Ayotlán"}},
{"type":"Feature","geometry":{"type":"Polygon","coordinates":[[[-103.3703,20.9353],[-103.3307,20.8651],[-103.3342,20.8023],[-103.3073,20.7798],[-103.3126,20.7527],[-103.2835,20.7303],[-103.2286,20.7143],[-103.145,20.7565],[-103.0831,20.7598],[-103.0774,20.7911],[-103.0746,20.8287],[-103.1025,20.8771],[-103.1497,20.8855],[-103.1557,20.9282],[-103.1827,20.9422],[-103.1199,20.9617],[-103.1199,20.9618],[-103.119,20.9949],[-103.1542,20.9938],[-103.1494,21.0319],[-103.1263,21.0548],[-103.2099,21.0941],[-103.2584,21.0831],[-103.2775,21.0513],[-103.2974,21.064],[-103.3472,21.0442],[-103.3358,21.0042],[-103.3589,20.9669],[-103.3383,20.9557],[-103.3703,20.9353]]]},"properties":{"cvegeo":"14045","nombre":"Ixtlahuacán del Río"}},
{"type":"Feature","geometry":{"type":"Polygon","coordinates":[[[-103.622,20.0641],[-103.6547,20.0552],[-103.6746,20.0067],[-103.6813,19.9548],[-103.6616,19.9359],[-103.6096,19.9085],[-103.6068,19.9288],[-103.6122,19.9563],[-103.5529,20.0385],[-103.622,20.0641]]]},"properties":{"cvegeo":"14004","nombre":"Amacueca"}},
{"type":"Feature","geometry":{"type":"Polygon","coordinates":[[[-104.1418,20.0392],[-104.1124,20.0383],[-104.0664,19.9899],[-104.0873,19.9801],[-104.0547,19.9639],[-103.9529,19.9888],[-103.9884,20.0247],[-103.9441,20.1107],[-104.0046,20.1189],[-104.0344,20.1203],[-104.0455,20.1627],[-104.1089,20.0841],[-104.1368,20.0869],[-104.1418,20.0392]]]},"properties":{"cvegeo":"14052","nombre":"Juchitlán"}},
{"type":"Feature","geometry":{"type":"Polygon","coordinates":[[[-102.5443,20.6659],[-102.5405,20.6659],[-102.5379,20.6658],[-102.5158,20.6479],[-102.4942,20.6674],[-102.4622,20.6618],[-102.4197,20.6221],[-102.4429,20.5921],[-102.4216,20.5881],[-102.3522,20.6087],[-102.336,20.5946],[-102.2847,20.6012],[-102.2435,20.6381],[-102.2631,20.6727],[-102.2422,20.6825],[-102.131,20.7867],[-102.0945,20.7594],[-102.0875,20.7789],[-102.0802,20.828],[-102.0549,20.8464],[-102.0603,20.8842],[-102.1195,20.8765],[-102.1598,20.8762],[-102.1646,20.9111],[-102.2352,20.898],[-102.2371,20.8851],[-102.4197,20.8885],[-102.4365,20.8664],[-102.4749,20.8678],[-102.4635,20.826],[-102.4359,20.8282],[-102.4333,20.7885],[-102.4695,20.6732],[-102.5037,20.6688],[-102.544,20.703],[-102.5443,20.6659]]]},"properties":{"cvegeo":"14008","nombre":"Arandas"}},
{"type":"Feature","geometry":{"type":"Polygon","coordinates":[[[-102.4837,20.8651],[-102.575,20.8031],[-102.5906,20.7789],[-102.5804,20.731],[-102.544,20.703],[-102.5037,20.6688],[-102.4695,20.6732],[-102.4333,20.7885],[-102.4359,20.8282],[-102.4635,20.826],[-102.4749,20.8678],[-102.4837,20.8651]]]},"properties":{"cvegeo":"14125","nombre":"San Ignacio Cerro Gordo"}},
{"type":"Feature","geometry":{"type":"Polygon","coordinates":[[[-103.6578,20.7121],[-103.6867,20.7043],[-103.7615,20.7369],[-103.7738,20.7094],[-103.7577,20.6776],[-103.8112,20.6252],[-103.848,20.5845],[-103.8154,20.5957],[-103.7903,20.5725],[-103.7329,20.5525],[-103.7155,20.5144],[-103.7152,20.5137],[-103.7149,20.5137],[-103.686,20.501],[-103.66,20.5048],[-103.596,20.4835],[-103.5722,20.525],[-103.6176,20.5392],[-103.5871,20.603],[-103.6245,20.6565],[-103.6138,20.6725],[-103.6518,20.6874],[-103.6578,20.7121]]]},"properties":{"cvegeo":"14083","nombre":"Tala"}},
{"type":"Feature","geometry":{"type":"Polygon","coordinates":[[[-103.6065,20.7481],[-103.622,20.6923],[-103.6578,20.7121],[-103.6518,20.6874],[-103.6138,20.6725],[-103.6245,20.6565],[-103.5871,20.603],[-103.5624,20.6157],[-103.5241,20.5943],[-103.4578,20.5972],[-103.4312,20.5879],[-103.4258,20.6163],[-103.3966,20.6365],[-103.4058,20.7121],[-103.3475,20.7172],[-103.3126,20.7527],[-103.3073,20.7798],[-103.3342,20.8023],[-103.3307,20.8651],[-103.3703,20.9353],[-103.4049,20.9566],[-103.5231,20.9982],[-103.5615,20.9635],[-103.616,20.9618],[-103.6553,20.904],[-103.6432,20.8567],[-103.6486,20.8205],[-103.6572,20.796],[-103.6394,20.7509],[-103.6065,20.7481]]]},"properties":{"cvegeo":"14120","nombre":"Zapopan"}},
{"type":"Feature","geometry":{"type":"Polygon","coordinates":[[[-103.3272,20.5677],[-103.312,20.5421],[-103.2721,20.5295],[-103.2442,20.495],[-103.1979,20.4963],[-103.176,20.5028],[-103.1652,20.5488],[-103.2131,20.5468],[-103.2546,20.5648],[-103.3183,20.5832],[-103.3272,20.5677]]]},"properties":{"cvegeo":"14070","nombre":"El Salto"}},
{"type":"Feature","geometry":{"type":"Polygon","coordinates":[[[-103.6578,20.7121],[-103.622,20.6923],[-103.6065,20.7481],[-103.6394,20.7509],[-103.6572,20.796],[-103.6486,20.8205],[-103.693,20.8249],[-103.7212,20.7725],[-103.745,20.7649],[-103.7615,20.7369],[-103.6867,20.7043],[-103.6578,20.7121]]]},"properties":{"cvegeo":"14009","nombre":"El Arenal"}},
{"type":"Feature","geometry":{"type":"Polygon","coordinates":[[[-103.745,20.7649],[-103.7212,20.7725],[-103.693,20.8249],[-103.6486,20.8205],[-103.6432,20.8567],[-103.6553,20.904],[-103.6978,20.9127],[-103.7545,20.9255],[-103.7881,20.7949],[-103.7865,20.786],[-103.745,20.7649]]]},"properties":{"cvegeo":"14005","nombre":"Amatitán"}},
{"type":"Feature","geometry":{"type":"Polygon","coordinates":[[[-102.62,21.2654],[-102.6067,21.3052],[-102.5551,21.3087],[-102.5316,21.295],[-102.4818,21.3268],[-102.4945,21.3481],[-102.4543,21.4047],[-102.4178,21.4123],[-102.4343,21.4351],[-102.4055,21.454],[-102.4001,21.4974],[-102.3684,21.5173],[-102.3677,21.5671],[-102.4048,21.5909],[-102.3845,21.6518],[-102.4197,21.6693],[-102.4381,21.6349],[-102.5253,21.5793],[-102.5639,21.5749],[-102.5722,21.5793],[-102.6086,21.5685],[-102.6517,21.6126],[-102.6917,21.6277],[-102.7082,21.6533],[-102.7421,21.6533],[-102.7481,21.7159],[-102.7621,21.692],[-102.8052,21.6709],[-102.8033,21.6673],[-102.7652,21.5964],[-102.7174,21.5715],[-102.6968,21.5431],[-102.6318,21.5344],[-102.6248,21.5014],[-102.6546,21.4472],[-102.659,21.409],[-102.6429,21.3672],[-102.6822,21.3392],[-102.7053,21.3192],[-102.6543,21.277],[-102.6533,21.2514],[-102.62,21.2654]]]},"properties":{"cvegeo":"14091","nombre":"Teocaltiche"}},
{"type":"Feature","geometry":{"type":"Polygon","coordinates":[[[-102.55,21.0761],[-102.5471,21.1124],[-102.5925,21.1168],[-102.5779,21.1386],[-102.6156,21.1424],[-102.641,21.1266],[-102.647,21.1335],[-102.6679,21.1157],[-102.6942,21.0933],[-102.698,21.0919],[-102.7269,21.0813],[-102.7551,21.1041],[-102.7941,21.0722],[-102.8166,21.0693],[-102.8197,21.0371],[-102.7906,21.0315],[-102.731,21.0395],[-102.7265,21.0029],[-102.686,21.0035],[-102.6904,20.9818],[-102.6445,20.9477],[-102.5804,20.9591],[-102.5804,20.9589],[-102.5646,20.9711],[-102.5731,21.0015],[-102.5253,21.0328],[-102.5449,21.0384],[-102.55,21.0761]]]},"properties":{"cvegeo":"14111","nombre":"Valle de Guadalupe"}},
{"type":"Feature","geometry":{"type":"Polygon","coordinates":[[[-102.544,20.703],[-102.5804,20.731],[-102.5906,20.7789],[-102.575,20.8031],[-102.4837,20.8651],[-102.4933,20.9076],[-102.5567,20.9404],[-102.5646,20.9711],[-102.5804,20.9589],[-102.5804,20.9591],[-102.6445,20.9477],[-102.6904,20.9818],[-102.686,21.0035],[-102.7265,21.0029],[-102.731,21.0395],[-102.7906,21.0315],[-102.8448,20.9831],[-102.8755,21.0099],[-102.944,20.9047],[-102.943,20.8727],[-102.9202,20.8533],[-102.8616,20.8742],[-102.8261,20.8465],[-102.8163,20.7892],[-102.8166,20.7061],[-102.9088,20.6916],[-102.9072,20.6632],[-102.9205,20.6194],[-102.8882,20.5939],[-102.8876,20.5939],[-102.8869,20.5946],[-102.8863,20.5946],[-102.8838,20.5954],[-102.8733,20.5972],[-102.8033,20.6239],[-102.7433,20.6123],[-102.7183,20.6494],[-102.653,20.6066],[-102.5443,20.6659],[-102.544,20.703]]]},"properties":{"cvegeo":"14093","nombre":"Tepatitlán de Morelos"}},
{"type":"Feature","geometry":{"type":"Polygon","coordinates":[[[-102.3845,21.6518],[-102.4048,21.5909],[-102.3677,21.5671],[-102.3684,21.5173],[-102.4001,21.4974],[-102.4055,21.454],[-102.4343,21.4351],[-102.4178,21.4123],[-102.381,21.3878],[-102.3408,21.4127],[-102.298,21.3823],[-102.297,21.3823],[-102.266,21.3907],[-102.226,21.3969],[-102.2219,21.3989],[-102.2169,21.3836],[-102.15,21.3878],[-102.1148,21.4505],[-102.0517,21.462],[-102.0501,21.5111],[-102.0229,21.508],[-101.9924,21.6073],[-101.9721,21.6324],[-101.9721,21.7035],[-102.0238,21.731],[-102.0229,21.7504],[-102.105,21.7517],[-102.142,21.7053],[-102.1782,21.6882],[-102.2146,21.6948],[-102.2273,21.6568],[-102.2955,21.6531],[-102.3259,21.622],[-102.3845,21.6518]]]},"properties":{"cvegeo":"14035","nombre":"Encarnación de Díaz"}},
{"type":"Feature","geometry":{"type":"Polygon","coordinates":[[[-102.3148,21.1053],[-102.2923,21.0961],[-102.2238,21.0995],[-102.189,21.1155],[-102.202,21.133],[-102.189,21.1814],[-102.1646,21.1994],[-102.1424,21.2112],[-102.1262,21.269],[-102.1316,21.2976],[-102.1592,21.3045],[-102.1478,21.374],[-102.15,21.3878],[-102.2169,21.3836],[-102.2219,21.3989],[-102.226,21.3969],[-102.266,21.3907],[-102.297,21.3823],[-102.298,21.3823],[-102.3408,21.4127],[-102.381,21.3878],[-102.4178,21.4123],[-102.4543,21.4047],[-102.4945,21.3481],[-102.4818,21.3268],[-102.4318,21.3274],[-102.4549,21.291],[-102.4232,21.2816],[-102.4324,21.233],[-102.3966,21.1999],[-102.4083,21.1615],[-102.3658,21.163],[-102.3135,21.1361],[-102.3148,21.1053]]]},"properties":{"cvegeo":"14073","nombre":"San Juan de los Lagos"}},
{"type":"Feature","geometry":{"type":"Polygon","coordinates":[[[-102.1262,21.269],[-102.0859,21.2486],[-102.0767,21.2203],[-102.0403,21.2419],[-102.0324,21.2226],[-101.9889,21.2777],[-101.949,21.2576],[-101.9059,21.2554],[-101.8755,21.2241],[-101.8625,21.177],[-101.7737,21.2197],[-101.7687,21.2577],[-101.6866,21.2941],[-101.6434,21.2994],[-101.646,21.3281],[-101.6428,21.3549],[-101.6793,21.3932],[-101.5968,21.4211],[-101.5709,21.4185],[-101.5892,21.4647],[-101.6409,21.5287],[-101.6228,21.5447],[-101.639,21.5418],[-101.6859,21.5791],[-101.6821,21.6137],[-101.7408,21.6482],[-101.8222,21.7304],[-101.801,21.7284],[-101.8267,21.7841],[-101.8561,21.7993],[-101.8862,21.8484],[-101.9328,21.8574],[-101.9417,21.8894],[-102.0387,21.8532],[-102.053,21.8133],[-102.0644,21.7962],[-102.105,21.7517],[-102.0229,21.7504],[-102.0238,21.731],[-101.9721,21.7035],[-101.9721,21.6324],[-101.9924,21.6073],[-102.0229,21.508],[-102.0501,21.5111],[-102.0517,21.462],[-102.1148,21.4505],[-102.15,21.3878],[-102.1478,21.374],[-102.1592,21.3045],[-102.1316,21.2976],[-102.1262,21.269]]]},"properties":{"cvegeo":"14053","nombre":"Lagos de Moreno"}},
{"type":"Feature","geometry":{"type":"Polygon","coordinates":[[[-101.8869,21.0611],[-101.8717,21.0953],[-101.8178,21.1068],[-101.8336,21.1373],[-101.7877,21.1564],[-101.7737,21.2197],[-101.8625,21.177],[-101.8755,21.2241],[-101.9059,21.2554],[-101.949,21.2576],[-101.9889,21.2777],[-102.0324,21.2226],[-102.0403,21.2419],[-102.0767,21.2203],[-102.0859,21.2486],[-102.1262,21.269],[-102.1424,21.2112],[-102.1646,21.1994],[-102.189,21.1814],[-102.202,21.133],[-102.189,21.1155],[-102.131,21.1088],[-102.091,21.0633],[-102.0783,21.0386],[-101.9959,21.0424],[-101.9747,21.0571],[-101.923,21.0449],[-101.8869,21.0611]]]},"properties":{"cvegeo":"14109","nombre":"Unión de San Antonio"}},
{"type":"Feature","geometry":{"type":"Polygon","coordinates":[[[-103.519,20.1331],[-103.5447,20.1443],[-103.5887,20.1336],[-103.6087,20.1009],[-103.6455,20.0863],[-103.622,20.0641],[-103.5529,20.0385],[-103.5428,20.1138],[-103.519,20.1331]]]},"properties":{"cvegeo":"14089","nombre":"Techaluta de Montenegro"}},
{"type":"Feature","geometry":{"type":"Polygon","coordinates":[[[-103.6616,19.9359],[-103.6749,19.8857],[-103.7057,19.8803],[-103.6363,19.8441],[-103.6496,19.8317],[-103.6521,19.8032],[-103.6087,19.773],[-103.5437,19.7742],[-103.5656,19.8166],[-103.5415,19.8637],[-103.512,19.8541],[-103.4993,19.8975],[-103.5234,19.9487],[-103.5729,19.9086],[-103.6068,19.9288],[-103.6096,19.9085],[-103.6616,19.9359]]]},"properties":{"cvegeo":"14082","nombre":"Sayula"}},
{"type":"Feature","geometry":{"type":"Polygon","coordinates":[[[-103.8807,19.8192],[-103.8658,19.879],[-103.8965,19.8906],[-103.8845,19.925],[-103.8943,20.0021],[-103.9222,19.969],[-103.9596,19.9581],[-103.9796,19.8857],[-103.9688,19.8606],[-104.0135,19.8699],[-104.0455,19.8153],[-104.0455,19.7872],[-104.049,19.781],[-104.0236,19.7433],[-103.9735,19.7337],[-103.9181,19.7388],[-103.9498,19.7757],[-103.9311,19.7988],[-103.8807,19.8192]]]},"properties":{"cvegeo":"14102","nombre":"Tonaya"}},
{"type":"Feature","geometry":{"type":"Polygon","coordinates":[[[-103.6496,19.8317],[-103.6363,19.8441],[-103.7057,19.8803],[-103.6749,19.8857],[-103.6616,19.9359],[-103.6813,19.9548],[-103.6746,20.0067],[-103.6547,20.0552],[-103.622,20.0641],[-103.6455,20.0863],[-103.7114,20.0885],[-103.764,20.0609],[-103.7751,20.0927],[-103.8347,20.0558],[-103.8284,20.005],[-103.8731,20.017],[-103.8943,20.0021],[-103.8845,19.925],[-103.8965,19.8906],[-103.8658,19.879],[-103.8807,19.8192],[-103.7402,19.8155],[-103.7168,19.8395],[-103.6711,19.8057],[-103.6496,19.8317]]]},"properties":{"cvegeo":"14086","nombre":"Tapalpa"}},
{"type":"Feature","geometry":{"type":"Polygon","coordinates":[[[-102.9735,19.6348],[-102.943,19.6806],[-102.9881,19.7515],[-102.9681,19.7726],[-102.9795,19.8614],[-102.919,19.9014],[-102.9091,19.9707],[-102.9513,19.9965],[-102.9938,19.9838],[-103.0156,19.9596],[-103.0023,19.9403],[-102.9982,19.8917],[-102.9801,19.8688],[-102.9823,19.8281],[-103.0163,19.7879],[-103.0036,19.7475],[-103.0185,19.7075],[-103.0055,19.6393],[-102.9735,19.6348]]]},"properties":{"cvegeo":"14112","nombre":"Valle de Juárez"}},
{"type":"Feature","geometry":{"type":"Polygon","coordinates":[[[-104.456,19.8466],[-104.482,19.8623],[-104.5007,19.8395],[-104.5238,19.8574],[-104.5393,19.9001],[-104.546,19.9758],[-104.5745,19.989],[-104.5641,20.0103],[-104.6072,20.0138],[-104.6221,20.0447],[-104.6458,20.023],[-104.6766,20.0347],[-104.7536,19.999],[-104.7853,19.9536],[-104.8497,19.9403],[-104.8585,19.8983],[-104.8798,19.9057],[-104.9416,19.9141],[-104.9451,19.8854],[-104.9828,19.9001],[-104.9996,19.881],[-104.9799,19.8497],[-105.0256,19.7637],[-105.01,19.7553],[-105.0249,19.7142],[-104.9828,19.6877],[-104.9692,19.7066],[-104.92,19.6831],[-104.8725,19.7075],[-104.8303,19.638],[-104.7653,19.638],[-104.7412,19.6118],[-104.7213,19.6366],[-104.6671,19.6255],[-104.6126,19.6011],[-104.5881,19.6451],[-104.5558,19.6284],[-104.5419,19.6653],[-104.5124,19.6566],[-104.5105,19.6904],[-104.4791,19.68],[-104.468,19.7768],[-104.4734,19.8006],[-104.4493,19.8414],[-104.456,19.8466]]]},"properties":{"cvegeo":"14068","nombre":"Villa Purificación"}},
{"type":"Feature","geometry":{"type":"Polygon","coordinates":[[[-104.0455,19.8153],[-104.0765,19.8253],[-104.0303,19.9099],[-104.0493,19.9296],[-104.0686,19.8797],[-104.178,19.8537],[-104.1859,19.8061],[-104.1162,19.8066],[-104.0746,19.773],[-104.049,19.781],[-104.0455,19.7872],[-104.0455,19.8153]]]},"properties":{"cvegeo":"14054","nombre":"El Limón"}},
{"type":"Feature","geometry":{"type":"Polygon","coordinates":[[[-104.178,19.8537],[-104.0686,19.8797],[-104.0493,19.9296],[-104.0303,19.9099],[-104.0765,19.8253],[-104.0455,19.8153],[-104.0135,19.8699],[-103.9688,19.8606],[-103.9796,19.8857],[-103.9596,19.9581],[-103.9529,19.9888],[-104.0547,19.9639],[-104.0873,19.9801],[-104.1342,19.9808],[-104.2018,19.9288],[-104.23,19.8868],[-104.2373,19.875],[-104.178,19.8537]]]},"properties":{"cvegeo":"14034","nombre":"Ejutla"}},
{"type":"Feature","geometry":{"type":"Polygon","coordinates":[[[-103.3326,19.9607],[-103.2981,19.9885],[-103.3288,20.017],[-103.3298,20.0156],[-103.3589,20.0176],[-103.3833,20.0596],[-103.4543,20.094],[-103.474,20.0685],[-103.4974,20.0901],[-103.4664,20.1189],[-103.519,20.1331],[-103.5428,20.1138],[-103.5529,20.0385],[-103.6122,19.9563],[-103.6068,19.9288],[-103.5729,19.9086],[-103.5234,19.9487],[-103.4993,19.8975],[-103.4372,19.8806],[-103.4277,19.9347],[-103.3798,19.9319],[-103.3659,19.9556],[-103.3326,19.9607]]]},"properties":{"cvegeo":"14014","nombre":"Atoyac"}},
{"type":"Feature","geometry":{"type":"Polygon","coordinates":[[[-103.2695,19.8845],[-103.2356,19.9021],[-103.2258,19.9332],[-103.1877,19.9128],[-103.1814,19.8845],[-103.1656,19.897],[-103.1551,19.9652],[-103.169,20.0079],[-103.1754,20.0558],[-103.2296,20.0794],[-103.2806,20.0603],[-103.2686,20.0347],[-103.2711,20.0132],[-103.3019,20.043],[-103.3288,20.017],[-103.2981,19.9885],[-103.3326,19.9607],[-103.2806,19.9154],[-103.2695,19.8845]]]},"properties":{"cvegeo":"14026","nombre":"Concepción de Buenos Aires"}},
{"type":"Feature","geometry":{"type":"Polygon","coordinates":[[[-103.2695,19.8845],[-103.2806,19.9154],[-103.3326,19.9607],[-103.3659,19.9556],[-103.3798,19.9319],[-103.4277,19.9347],[-103.4372,19.8806],[-103.4993,19.8975],[-103.512,19.8541],[-103.5415,19.8637],[-103.5656,19.8166],[-103.5437,19.7742],[-103.4603,19.7679],[-103.428,19.7886],[-103.4125,19.8117],[-103.364,19.8108],[-103.3415,19.7937],[-103.3019,19.8528],[-103.3225,19.8779],[-103.2695,19.8845]]]},"properties":{"cvegeo":"14079","nombre":"Gómez Farías"}},
{"type":"Feature","geometry":{"type":"Polygon","coordinates":[[[-104.2902,19.8579],[-104.2924,19.8908],[-104.23,19.8868],[-104.2018,19.9288],[-104.1342,19.9808],[-104.1542,20.0247],[-104.1926,20.034],[-104.1786,20.0672],[-104.1767,20.1467],[-104.2059,20.1423],[-104.242,20.1276],[-104.2734,20.0936],[-104.3019,20.0867],[-104.3203,20.046],[-104.3187,20.0012],[-104.3761,19.9754],[-104.3675,19.9257],[-104.3533,19.8903],[-104.2902,19.8579]]]},"properties":{"cvegeo":"14110","nombre":"Unión de Tula"}},
{"type":"Feature","geometry":{"type":"Polygon","coordinates":[[[-104.2902,19.8579],[-104.2747,19.8232],[-104.2411,19.8204],[-104.216,19.7593],[-104.1644,19.7364],[-104.1365,19.6922],[-104.1098,19.6953],[-104.1152,19.7591],[-104.1323,19.7757],[-104.1162,19.8066],[-104.1859,19.8061],[-104.178,19.8537],[-104.2373,19.875],[-104.23,19.8868],[-104.2924,19.8908],[-104.2902,19.8579]]]},"properties":{"cvegeo":"14037","nombre":"El Grullo"}},
{"type":"Feature","geometry":{"type":"Polygon","coordinates":[[[-103.2822,20.6412],[-103.3183,20.6425],[-103.3405,20.6094],[-103.396,20.6132],[-103.3966,20.6365],[-103.4258,20.6163],[-103.4312,20.5879],[-103.4575,20.5505],[-103.4217,20.5412],[-103.3722,20.5699],[-103.3475,20.5506],[-103.3272,20.5677],[-103.3183,20.5832],[-103.2546,20.5648],[-103.2575,20.6117],[-103.2832,20.613],[-103.2822,20.6412]]]},"properties":{"cvegeo":"14098","nombre":"San Pedro Tlaquepaque"}},
{"type":"Feature","geometry":{"type":"Polygon","coordinates":[[[-103.2657,20.7056],[-103.2641,20.6679],[-103.2822,20.6412],[-103.2832,20.613],[-103.2575,20.6117],[-103.2546,20.5648],[-103.2131,20.5468],[-103.1652,20.5488],[-103.137,20.5717],[-103.1399,20.6212],[-103.1846,20.6285],[-103.1877,20.6709],[-103.2407,20.7038],[-103.2657,20.7056]]]},"properties":{"cvegeo":"14101","nombre":"Tonalá"}},
{"type":"Feature","geometry":{"type":"Polygon","coordinates":[[[-103.0847,20.4004],[-103.0809,20.4875],[-103.0965,20.5303],[-103.1323,20.5466],[-103.137,20.5717],[-103.1652,20.5488],[-103.176,20.5028],[-103.1979,20.4963],[-103.2106,20.4801],[-103.2026,20.4608],[-103.145,20.4435],[-103.1215,20.4061],[-103.1215,20.4053],[-103.1215,20.4061],[-103.0847,20.4004]]]},"properties":{"cvegeo":"14051","nombre":"Juanacatlán"}},
{"type":"Feature","geometry":{"type":"Polygon","coordinates":[[[-102.9072,20.6632],[-102.9088,20.6916],[-102.8166,20.7061],[-102.8163,20.7892],[-102.8261,20.8465],[-102.8616,20.8742],[-102.9202,20.8533],[-102.9827,20.8052],[-103.0248,20.7923],[-103.0388,20.7572],[-103.003,20.7343],[-102.9909,20.6879],[-102.9598,20.7063],[-102.9072,20.6632]]]},"properties":{"cvegeo":"14001","nombre":"Acatic"}},
{"type":"Feature","geometry":{"type":"Polygon","coordinates":[[[-103.0809,20.4875],[-103.0312,20.4977],[-103.0087,20.5277],[-102.9541,20.5026],[-102.9063,20.5208],[-102.8879,20.5479],[-102.8733,20.5972],[-102.8838,20.5954],[-102.8863,20.5946],[-102.8869,20.5946],[-102.8876,20.5939],[-102.8882,20.5939],[-102.9205,20.6194],[-102.9072,20.6632],[-102.9598,20.7063],[-102.9909,20.6879],[-103.003,20.7343],[-103.0388,20.7572],[-103.0248,20.7923],[-103.0774,20.7911],[-103.0831,20.7598],[-103.145,20.7565],[-103.2286,20.7143],[-103.2835,20.7303],[-103.2657,20.7056],[-103.2407,20.7038],[-103.1877,20.6709],[-103.1846,20.6285],[-103.1399,20.6212],[-103.137,20.5717],[-103.1323,20.5466],[-103.0965,20.5303],[-103.0809,20.4875]]]},"properties":{"cvegeo":"14124","nombre":"Zapotlanejo"}},
{"type":"Feature","geometry":{"type":"Polygon","coordinates":[[[-103.5367,20.4082],[-103.4794,20.3933],[-103.4182,20.3597],[-103.3431,20.3686],[-103.3342,20.3873],[-103.2892,20.4008],[-103.2492,20.4517],[-103.2106,20.4801],[-103.1979,20.4963],[-103.2442,20.495],[-103.2721,20.5295],[-103.312,20.5421],[-103.3272,20.5677],[-103.3475,20.5506],[-103.3722,20.5699],[-103.4217,20.5412],[-103.4575,20.5505],[-103.4312,20.5879],[-103.4578,20.5972],[-103.5241,20.5943],[-103.5624,20.6157],[-103.5871,20.603],[-103.6176,20.5392],[-103.5722,20.525],[-103.596,20.4835],[-103.5707,20.4639],[-103.5367,20.4082]]]},"properties":{"cvegeo":"14097","nombre":"Tlajomulco de Zúñiga"}},
{"type":"Feature","geometry":{"type":"Polygon","coordinates":[[[-103.0502,19.9965],[-103.021,20.0472],[-103.0312,20.066],[-103.0654,20.0621],[-103.0914,20.0329],[-103.1225,20.0816],[-103.1665,20.0885],[-103.1754,20.0558],[-103.169,20.0079],[-103.1551,19.9652],[-103.0835,19.9619],[-103.0502,19.9965]]]},"properties":{"cvegeo":"14057","nombre":"La Manzanilla de la Paz"}},
{"type":"Feature","geometry":{"type":"Polygon","coordinates":[[[-103.1814,19.8845],[-103.1763,19.8543],[-103.1329,19.8459],[-103.1142,19.8606],[-103.0163,19.7879],[-102.9823,19.8281],[-102.9801,19.8688],[-102.9982,19.8917],[-103.0023,19.9403],[-103.0156,19.9596],[-103.0502,19.9965],[-103.0835,19.9619],[-103.1551,19.9652],[-103.1656,19.897],[-103.1814,19.8845]]]},"properties":{"cvegeo":"14059","nombre":"Mazamitla"}},
{"type":"Feature","geometry":{"type":"Polygon","coordinates":[[[-103.0369,20.1814],[-103.0901,20.1591],[-103.1367,20.1671],[-103.1551,20.154],[-103.1665,20.0885],[-103.1225,20.0816],[-103.0914,20.0329],[-103.0654,20.0621],[-103.0312,20.066],[-103.0324,20.1365],[-102.9988,20.126],[-102.9443,20.1309],[-102.9247,20.1362],[-102.9541,20.1709],[-103.0251,20.1645],[-103.0369,20.1814]]]},"properties":{"cvegeo":"14096","nombre":"Tizapán el Alto"}},
{"type":"Feature","geometry":{"type":"Polygon","coordinates":[[[-103.3421,20.1738],[-103.3748,20.1698],[-103.4435,20.2075],[-103.4527,20.1756],[-103.4388,20.1369],[-103.4664,20.1189],[-103.4974,20.0901],[-103.474,20.0685],[-103.4543,20.094],[-103.3833,20.0596],[-103.3589,20.0176],[-103.3298,20.0156],[-103.3288,20.017],[-103.3019,20.043],[-103.2711,20.0132],[-103.2686,20.0347],[-103.2806,20.0603],[-103.2296,20.0794],[-103.2432,20.1156],[-103.1919,20.1194],[-103.2229,20.1438],[-103.3031,20.17],[-103.3421,20.1738]]]},"properties":{"cvegeo":"14092","nombre":"Teocuitatlán de Corona"}},
{"type":"Feature","geometry":{"type":"Polygon","coordinates":[[[-103.841,20.2018],[-103.8921,20.1598],[-103.9225,20.1583],[-103.9441,20.1107],[-103.9884,20.0247],[-103.9529,19.9888],[-103.9596,19.9581],[-103.9222,19.969],[-103.8943,20.0021],[-103.8731,20.017],[-103.8284,20.005],[-103.8347,20.0558],[-103.7751,20.0927],[-103.7542,20.1136],[-103.771,20.1423],[-103.8141,20.1443],[-103.841,20.2018]]]},"properties":{"cvegeo":"14032","nombre":"Chiquilistlán"}},
{"type":"Feature","geometry":{"type":"Polygon","coordinates":[[[-103.3608,20.2265],[-103.3706,20.194],[-103.3421,20.1738],[-103.3031,20.17],[-103.2229,20.1438],[-103.1919,20.1194],[-103.2432,20.1156],[-103.2296,20.0794],[-103.1754,20.0558],[-103.1665,20.0885],[-103.1551,20.154],[-103.2451,20.1874],[-103.254,20.1922],[-103.3095,20.2029],[-103.3608,20.2265]]]},"properties":{"cvegeo":"14107","nombre":"Tuxcueca"}},
{"type":"Feature","geometry":{"type":"Polygon","coordinates":[[[-104.1453,20.2898],[-104.1254,20.2764],[-104.1507,20.2466],[-104.1263,20.2426],[-104.1197,20.1865],[-104.1003,20.1438],[-104.1159,20.0987],[-104.1368,20.0869],[-104.1089,20.0841],[-104.0455,20.1627],[-104.0344,20.1203],[-104.0046,20.1189],[-103.9441,20.1107],[-103.9225,20.1583],[-103.8921,20.1598],[-103.841,20.2018],[-103.8385,20.2413],[-103.8585,20.2589],[-103.8455,20.2898],[-103.8838,20.3049],[-103.9054,20.2946],[-103.9472,20.3242],[-103.9485,20.3364],[-104.03,20.3331],[-104.0407,20.3933],[-104.0835,20.3777],[-104.1019,20.4064],[-104.1504,20.4333],[-104.1666,20.4586],[-104.1878,20.4522],[-104.2065,20.4326],[-104.1821,20.3644],[-104.1634,20.3568],[-104.1567,20.2949],[-104.1453,20.29],[-104.1453,20.2898]]]},"properties":{"cvegeo":"14088","nombre":"Tecolotlán"}},
{"type":"Feature","geometry":{"type":"Polygon","coordinates":[[[-104.2832,20.2044],[-104.327,20.2331],[-104.3558,20.2285],[-104.3675,20.1942],[-104.398,20.1965],[-104.3802,20.1291],[-104.4557,20.1209],[-104.5165,20.1454],[-104.5095,20.1252],[-104.5625,20.1374],[-104.6097,20.1334],[-104.6233,20.1071],[-104.6636,20.1354],[-104.6363,20.0952],[-104.6604,20.0791],[-104.6233,20.0654],[-104.6221,20.0447],[-104.6072,20.0138],[-104.5641,20.0103],[-104.5745,19.989],[-104.546,19.9758],[-104.5393,19.9001],[-104.5238,19.8574],[-104.5007,19.8395],[-104.482,19.8623],[-104.456,19.8466],[-104.4135,19.9176],[-104.3675,19.9257],[-104.3761,19.9754],[-104.3187,20.0012],[-104.3203,20.046],[-104.3019,20.0867],[-104.2734,20.0936],[-104.242,20.1276],[-104.2059,20.1423],[-104.1995,20.184],[-104.2537,20.174],[-104.2911,20.162],[-104.313,20.2004],[-104.2832,20.2044]]]},"properties":{"cvegeo":"14017","nombre":"Ayutla"}},
{"type":"Feature","geometry":{"type":"Polygon","coordinates":[[[-105.2658,20.1853],[-105.3543,20.168],[-105.379,20.2089],[-105.4627,20.2318],[-105.475,20.2033],[-105.5435,20.1813],[-105.5486,20.0949],[-105.5052,20.0116],[-105.4088,19.8792],[-105.3435,19.8035],[-105.262,19.6795],[-105.2205,19.6457],[-105.1568,19.664],[-105.1625,19.6913],[-105.1311,19.7275],[-105.1146,19.7186],[-105.0256,19.7637],[-104.9799,19.8497],[-104.9996,19.881],[-104.9828,19.9001],[-104.9451,19.8854],[-104.9416,19.9141],[-104.8798,19.9057],[-104.8585,19.8983],[-104.8497,19.9403],[-104.7853,19.9536],[-104.7536,19.999],[-104.6766,20.0347],[-104.6458,20.023],[-104.6221,20.0447],[-104.6233,20.0654],[-104.6604,20.0791],[-104.6363,20.0952],[-104.6636,20.1354],[-104.6766,20.1578],[-104.7061,20.1507],[-104.7695,20.1222],[-104.7764,20.0665],[-104.856,20.0581],[-104.8934,20.0398],[-104.9108,20.0609],[-104.9438,20.0523],[-104.9774,20.0769],[-104.9802,20.1094],[-105.0966,20.1762],[-105.1311,20.1896],[-105.2234,20.1709],[-105.2494,20.1547],[-105.2658,20.1853]]]},"properties":{"cvegeo":"14100","nombre":"Tomatlán"}},
{"type":"Feature","geometry":{"type":"Polygon","coordinates":[[[-104.1821,20.2604],[-104.2426,20.2095],[-104.2832,20.2044],[-104.313,20.2004],[-104.2911,20.162],[-104.2537,20.174],[-104.1995,20.184],[-104.2059,20.1423],[-104.1767,20.1467],[-104.1786,20.0672],[-104.1926,20.034],[-104.1542,20.0247],[-104.1342,19.9808],[-104.0873,19.9801],[-104.0664,19.9899],[-104.1124,20.0383],[-104.1418,20.0392],[-104.1368,20.0869],[-104.1159,20.0987],[-104.1003,20.1438],[-104.1197,20.1865],[-104.1263,20.2426],[-104.1507,20.2466],[-104.1254,20.2764],[-104.1453,20.2898],[-104.1453,20.29],[-104.1567,20.2949],[-104.1821,20.2604]]]},"properties":{"cvegeo":"14090","nombre":"Tenamaxtlán"}},
{"type":"Feature","geometry":{"type":"Polygon","coordinates":[[[-105.5435,20.1813],[-105.475,20.2033],[-105.4627,20.2318],[-105.379,20.2089],[-105.3543,20.168],[-105.2658,20.1853],[-105.2494,20.1547],[-105.2234,20.1709],[-105.1311,20.1896],[-105.1498,20.222],[-105.1996,20.2393],[-105.1736,20.2869],[-105.1774,20.3575],[-105.1574,20.3791],[-105.2199,20.4],[-105.2354,20.4575],[-105.2265,20.4732],[-105.2744,20.4903],[-105.2747,20.5124],[-105.3257,20.5123],[-105.4582,20.4953],[-105.5296,20.4921],[-105.6145,20.4712],[-105.6532,20.429],[-105.6947,20.4097],[-105.6871,20.3677],[-105.6564,20.3177],[-105.5594,20.2322],[-105.5435,20.1813]]]},"properties":{"cvegeo":"14020","nombre":"Cabo Corrientes"}},
{"type":"Feature","geometry":{"type":"Polygon","coordinates":[[[-102.4533,20.4377],[-102.4831,20.4528],[-102.5674,20.455],[-102.5864,20.4184],[-102.6096,20.4197],[-102.6616,20.3728],[-102.6514,20.3364],[-102.6654,20.2938],[-102.6039,20.2926],[-102.6112,20.2687],[-102.5912,20.2586],[-102.5224,20.2757],[-102.5313,20.2949],[-102.4324,20.3409],[-102.3687,20.328],[-102.3471,20.3346],[-102.3471,20.3349],[-102.3468,20.3753],[-102.3848,20.3759],[-102.4083,20.4159],[-102.4533,20.4377]]]},"properties":{"cvegeo":"14018","nombre":"La Barca"}},
{"type":"Feature","geometry":{"type":"Polygon","coordinates":[[[-103.7621,20.2662],[-103.8119,20.2687],[-103.8455,20.2898],[-103.8585,20.2589],[-103.8385,20.2413],[-103.841,20.2018],[-103.8141,20.1443],[-103.771,20.1423],[-103.7542,20.1136],[-103.7751,20.0927],[-103.764,20.0609],[-103.7114,20.0885],[-103.6455,20.0863],[-103.6087,20.1009],[-103.5887,20.1336],[-103.6566,20.1711],[-103.6648,20.2395],[-103.7038,20.2267],[-103.7317,20.2433],[-103.7621,20.2662]]]},"properties":{"cvegeo":"14010","nombre":"Atemajac de Brizuela"}},
{"type":"Feature","geometry":{"type":"Polygon","coordinates":[[[-103.7621,20.2662],[-103.7795,20.3122],[-103.738,20.358],[-103.7624,20.3953],[-103.7548,20.4481],[-103.7754,20.4448],[-103.7859,20.4959],[-103.7795,20.5263],[-103.8385,20.5383],[-103.8442,20.4997],[-103.8737,20.4497],[-103.8835,20.4137],[-103.8436,20.3753],[-103.8895,20.3631],[-103.8997,20.3868],[-103.9162,20.3466],[-103.9472,20.3242],[-103.9054,20.2946],[-103.8838,20.3049],[-103.8455,20.2898],[-103.8119,20.2687],[-103.7621,20.2662]]]},"properties":{"cvegeo":"14024","nombre":"Cocula"}},
{"type":"Feature","geometry":{"type":"Polygon","coordinates":[[[-103.7621,20.2662],[-103.7317,20.2433],[-103.7152,20.2718],[-103.6768,20.2911],[-103.6632,20.3326],[-103.6249,20.3189],[-103.6134,20.3515],[-103.6299,20.4091],[-103.6753,20.4357],[-103.686,20.501],[-103.7149,20.5137],[-103.7152,20.5137],[-103.7155,20.5144],[-103.7818,20.5335],[-103.7795,20.5263],[-103.7859,20.4959],[-103.7754,20.4448],[-103.7548,20.4481],[-103.7624,20.3953],[-103.738,20.358],[-103.7795,20.3122],[-103.7621,20.2662]]]},"properties":{"cvegeo":"14114","nombre":"Villa Corona"}},
{"type":"Feature","geometry":{"type":"Polygon","coordinates":[[[-104.5999,20.1954],[-104.5387,20.3011],[-104.5175,20.2567],[-104.4972,20.258],[-104.462,20.2513],[-104.4049,20.2911],[-104.3853,20.3022],[-104.3938,20.3362],[-104.4319,20.389],[-104.4591,20.4013],[-104.4408,20.4224],[-104.4778,20.4522],[-104.4873,20.5154],[-104.5165,20.5128],[-104.5625,20.4783],[-104.6138,20.4664],[-104.6338,20.4041],[-104.603,20.3686],[-104.6376,20.3286],[-104.6319,20.2962],[-104.708,20.2671],[-104.7061,20.2064],[-104.6439,20.1634],[-104.5999,20.1954]]]},"properties":{"cvegeo":"14012","nombre":"Atenguillo"}},
{"type":"Feature","geometry":{"type":"Polygon","coordinates":[[[-103.4435,20.2075],[-103.4695,20.2464],[-103.4603,20.2693],[-103.4974,20.2924],[-103.5402,20.3495],[-103.6134,20.3515],[-103.6249,20.3189],[-103.6632,20.3326],[-103.6768,20.2911],[-103.7152,20.2718],[-103.7317,20.2433],[-103.7038,20.2267],[-103.6648,20.2395],[-103.6566,20.1711],[-103.5887,20.1336],[-103.5447,20.1443],[-103.519,20.1331],[-103.4664,20.1189],[-103.4388,20.1369],[-103.4527,20.1756],[-103.4435,20.2075]]]},"properties":{"cvegeo":"14119","nombre":"Zacoalco de Torres"}},
{"type":"Feature","geometry":{"type":"Polygon","coordinates":[[[-104.3995,20.2897],[-104.3558,20.2285],[-104.327,20.2331],[-104.2832,20.2044],[-104.2426,20.2095],[-104.1821,20.2604],[-104.1567,20.2949],[-104.1634,20.3568],[-104.1821,20.3644],[-104.2065,20.4326],[-104.2515,20.4308],[-104.2724,20.4117],[-104.3079,20.4213],[-104.3282,20.374],[-104.3862,20.3704],[-104.3938,20.3362],[-104.3853,20.3022],[-104.4049,20.2911],[-104.3995,20.2897]]]},"properties":{"cvegeo":"14011","nombre":"Atengo"}},
{"type":"Feature","geometry":{"type":"Polygon","coordinates":[[[-104.5999,20.1954],[-104.6439,20.1634],[-104.7061,20.2064],[-104.7061,20.1507],[-104.6766,20.1578],[-104.6636,20.1354],[-104.6233,20.1071],[-104.6097,20.1334],[-104.5625,20.1374],[-104.5095,20.1252],[-104.5165,20.1454],[-104.4557,20.1209],[-104.3802,20.1291],[-104.398,20.1965],[-104.3675,20.1942],[-104.3558,20.2285],[-104.3995,20.2897],[-104.4049,20.2911],[-104.462,20.2513],[-104.4972,20.258],[-104.5175,20.2567],[-104.5387,20.3011],[-104.5999,20.1954]]]},"properties":{"cvegeo":"14028","nombre":"Cuautla"}},
{"type":"Feature","geometry":{"type":"Polygon","coordinates":[[[-104.708,20.2671],[-104.6319,20.2962],[-104.6376,20.3286],[-104.603,20.3686],[-104.6338,20.4041],[-104.6138,20.4664],[-104.6148,20.4893],[-104.6509,20.5046],[-104.5999,20.5694],[-104.629,20.6034],[-104.5942,20.6428],[-104.6005,20.6568],[-104.5336,20.7105],[-104.5384,20.7414],[-104.584,20.7943],[-104.59,20.8405],[-104.6509,20.8345],[-104.6519,20.7909],[-104.7143,20.7312],[-104.7371,20.733],[-104.7397,20.7007],[-104.8218,20.7241],[-104.8753,20.6878],[-104.9178,20.7165],[-104.9622,20.6974],[-104.9913,20.7449],[-105.0043,20.7443],[-105.0449,20.7292],[-105.0674,20.7089],[-105.0833,20.6896],[-105.139,20.693],[-105.1375,20.6901],[-105.14,20.6859],[-105.1454,20.6885],[-105.1546,20.6941],[-105.1558,20.6949],[-105.1609,20.6959],[-105.1631,20.6959],[-105.1692,20.6867],[-105.1695,20.687],[-105.1695,20.6872],[-105.1704,20.6865],[-105.1299,20.6237],[-105.1406,20.6003],[-105.1134,20.5737],[-105.1191,20.5264],[-105.1131,20.501],[-105.0595,20.4744],[-105.0459,20.4426],[-105.0072,20.4493],[-104.979,20.4359],[-104.9679,20.4773],[-104.9936,20.4964],[-104.9489,20.5183],[-104.9615,20.5348],[-104.9064,20.5552],[-104.8915,20.5275],[-104.8294,20.5086],[-104.8113,20.4677],[-104.8249,20.4453],[-104.8084,20.4115],[-104.7527,20.3942],[-104.7609,20.36],[-104.7248,20.3415],[-104.7368,20.3104],[-104.708,20.2671]]]},"properties":{"cvegeo":"14058","nombre":"Mascota"}},
{"type":"Feature","geometry":{"type":"Polygon","coordinates":[[[-104.708,20.2671],[-104.7368,20.3104],[-104.7248,20.3415],[-104.7609,20.36],[-104.7527,20.3942],[-104.8084,20.4115],[-104.8249,20.4453],[-104.8113,20.4677],[-104.8294,20.5086],[-104.8915,20.5275],[-104.9064,20.5552],[-104.9615,20.5348],[-104.9489,20.5183],[-104.9936,20.4964],[-104.9679,20.4773],[-104.979,20.4359],[-105.0072,20.4493],[-105.0459,20.4426],[-105.0595,20.4744],[-105.1131,20.501],[-105.1191,20.5264],[-105.1631,20.5315],[-105.2265,20.4732],[-105.2354,20.4575],[-105.2199,20.4],[-105.1574,20.3791],[-105.1774,20.3575],[-105.1736,20.2869],[-105.1996,20.2393],[-105.1498,20.222],[-105.1311,20.1896],[-105.0966,20.1762],[-104.9802,20.1094],[-104.9774,20.0769],[-104.9438,20.0523],[-104.9108,20.0609],[-104.8934,20.0398],[-104.856,20.0581],[-104.7764,20.0665],[-104.7695,20.1222],[-104.7061,20.1507],[-104.7061,20.2064],[-104.708,20.2671]]]},"properties":{"cvegeo":"14084","nombre":"Talpa de Allende"}},
{"type":"Feature","geometry":{"type":"Polygon","coordinates":[[[-103.1551,20.154],[-103.1367,20.1671],[-103.0901,20.1591],[-103.0369,20.1814],[-103.0229,20.2866],[-103.0337,20.3311],[-103.1152,20.3329],[-103.0632,20.3764],[-103.0847,20.4002],[-103.0847,20.4004],[-103.1215,20.4061],[-103.1215,20.4053],[-103.1259,20.3611],[-103.1462,20.3357],[-103.1846,20.3273],[-103.2717,20.3415],[-103.2866,20.3326],[-103.2993,20.2871],[-103.4109,20.2886],[-103.4188,20.27],[-103.4087,20.2247],[-103.3608,20.2265],[-103.3095,20.2029],[-103.254,20.1922],[-103.2451,20.1874],[-103.1551,20.154]]]},"properties":{"cvegeo":"14030","nombre":"Chapala"}},
{"type":"Feature","geometry":{"type":"Polygon","coordinates":[[[-103.5402,20.3495],[-103.4974,20.2924],[-103.4603,20.2693],[-103.4695,20.2464],[-103.4435,20.2075],[-103.3748,20.1698],[-103.3421,20.1738],[-103.3706,20.194],[-103.3608,20.2265],[-103.4087,20.2247],[-103.4188,20.27],[-103.4109,20.2886],[-103.2993,20.2871],[-103.2866,20.3326],[-103.2993,20.3902],[-103.2892,20.4008],[-103.3342,20.3873],[-103.3431,20.3686],[-103.4182,20.3597],[-103.4794,20.3933],[-103.5367,20.4082],[-103.5402,20.3495]]]},"properties":{"cvegeo":"14050","nombre":"Jocotepec"}},
{"type":"Feature","geometry":{"type":"Polygon","coordinates":[[[-102.8803,20.3868],[-102.9126,20.3817],[-102.9516,20.4013],[-102.9909,20.4019],[-103.0258,20.4224],[-103.0847,20.4002],[-103.0632,20.3764],[-103.1152,20.3329],[-103.0337,20.3311],[-103.0229,20.2866],[-103.0369,20.1814],[-103.0251,20.1645],[-102.9541,20.1709],[-102.8755,20.1576],[-102.8166,20.106],[-102.8197,20.1373],[-102.7846,20.1374],[-102.7307,20.1662],[-102.6796,20.1713],[-102.6828,20.2067],[-102.685,20.212],[-102.7484,20.2115],[-102.7361,20.2909],[-102.7668,20.296],[-102.7782,20.3415],[-102.8093,20.3819],[-102.8803,20.3868]]]},"properties":{"cvegeo":"14066","nombre":"Poncitlán"}},
{"type":"Feature","geometry":{"type":"Polygon","coordinates":[[[-102.7361,20.2909],[-102.7459,20.3197],[-102.7275,20.3435],[-102.6616,20.3728],[-102.6096,20.4197],[-102.5953,20.4468],[-102.627,20.4673],[-102.6467,20.457],[-102.679,20.4812],[-102.6917,20.4492],[-102.7294,20.4257],[-102.7586,20.4324],[-102.7884,20.4472],[-102.8086,20.4104],[-102.84,20.4168],[-102.8803,20.3868],[-102.8093,20.3819],[-102.7782,20.3415],[-102.7668,20.296],[-102.7361,20.2909]]]},"properties":{"cvegeo":"14063","nombre":"Ocotlán"}},
{"type":"Feature","geometry":{"type":"Polygon","coordinates":[[[-102.6112,20.2687],[-102.6039,20.2926],[-102.6654,20.2938],[-102.6514,20.3364],[-102.6616,20.3728],[-102.7275,20.3435],[-102.7459,20.3197],[-102.7361,20.2909],[-102.7484,20.2115],[-102.685,20.212],[-102.679,20.2267],[-102.6273,20.2296],[-102.6112,20.2687]]]},"properties":{"cvegeo":"14047","nombre":"Jamay"}},
{"type":"Feature","geometry":{"type":"Polygon","coordinates":[[[-103.6987,19.5915],[-103.661,19.5975],[-103.6458,19.568],[-103.6074,19.5787],[-103.5301,19.6328],[-103.57,19.6528],[-103.5678,19.6868],[-103.5976,19.6931],[-103.6207,19.7273],[-103.6087,19.773],[-103.6521,19.8032],[-103.6496,19.8317],[-103.6711,19.8057],[-103.7168,19.8395],[-103.7402,19.8155],[-103.8807,19.8192],[-103.9311,19.7988],[-103.9498,19.7757],[-103.9181,19.7388],[-103.8832,19.7471],[-103.8613,19.723],[-103.9082,19.6566],[-103.8274,19.6438],[-103.8182,19.6106],[-103.7675,19.6247],[-103.6987,19.5915]]]},"properties":{"cvegeo":"14113","nombre":"San Gabriel"}},
{"type":"Feature","geometry":{"type":"Polygon","coordinates":[[[-103.4651,19.6278],[-103.4293,19.6227],[-103.3779,19.5927],[-103.3196,19.5975],[-103.3253,19.5422],[-103.2882,19.536],[-103.2822,19.5004],[-103.2223,19.4842],[-103.1998,19.5029],[-103.2166,19.5284],[-103.2597,19.5462],[-103.2461,19.5691],[-103.2882,19.6071],[-103.3554,19.6964],[-103.3548,19.7306],[-103.3187,19.7479],[-103.3462,19.7546],[-103.3735,19.7319],[-103.4055,19.7351],[-103.4214,19.6991],[-103.4756,19.6558],[-103.4651,19.6278]]]},"properties":{"cvegeo":"14121","nombre":"Zapotiltic"}},
{"type":"Feature","geometry":{"type":"Polygon","coordinates":[[[-104.3498,19.6009],[-104.3108,19.6062],[-104.2756,19.5889],[-104.2068,19.5995],[-104.1653,19.6546],[-104.1365,19.6922],[-104.1644,19.7364],[-104.216,19.7593],[-104.2411,19.8204],[-104.2747,19.8232],[-104.2902,19.8579],[-104.3533,19.8903],[-104.3675,19.9257],[-104.4135,19.9176],[-104.456,19.8466],[-104.4493,19.8414],[-104.4734,19.8006],[-104.468,19.7768],[-104.4255,19.7593],[-104.4046,19.7317],[-104.3736,19.7437],[-104.3869,19.698],[-104.3691,19.6897],[-104.3869,19.626],[-104.3498,19.6009]]]},"properties":{"cvegeo":"14015","nombre":"Autlán de Navarro"}},
{"type":"Feature","geometry":{"type":"Polygon","coordinates":[[[-104.1067,19.5698],[-104.0664,19.6118],[-104.0147,19.5844],[-103.965,19.6037],[-103.9735,19.6153],[-103.9393,19.6535],[-103.9082,19.6566],[-103.8613,19.723],[-103.8832,19.7471],[-103.9181,19.7388],[-103.9735,19.7337],[-104.0236,19.7433],[-104.049,19.781],[-104.0746,19.773],[-104.1162,19.8066],[-104.1323,19.7757],[-104.1152,19.7591],[-104.1098,19.6953],[-104.1365,19.6922],[-104.1653,19.6546],[-104.1548,19.6062],[-104.1067,19.5698]]]},"properties":{"cvegeo":"14106","nombre":"Tuxcacuesco"}},
{"type":"Feature","geometry":{"type":"Polygon","coordinates":[[[-103.5301,19.6328],[-103.5082,19.6055],[-103.4651,19.6278],[-103.4756,19.6558],[-103.4214,19.6991],[-103.4055,19.7351],[-103.428,19.7886],[-103.4603,19.7679],[-103.5437,19.7742],[-103.6087,19.773],[-103.6207,19.7273],[-103.5976,19.6931],[-103.5678,19.6868],[-103.57,19.6528],[-103.5301,19.6328]]]},"properties":{"cvegeo":"14023","nombre":"Zapotlán el Grande"}},
{"type":"Feature","geometry":{"type":"Polygon","coordinates":[[[-102.7313,19.8988],[-102.7842,19.9512],[-102.8825,19.9758],[-102.9091,19.9707],[-102.919,19.9014],[-102.9795,19.8614],[-102.9681,19.7726],[-102.9881,19.7515],[-102.943,19.6806],[-102.9735,19.6348],[-102.9088,19.6253],[-102.8514,19.6571],[-102.7931,19.6624],[-102.7808,19.7019],[-102.8109,19.7408],[-102.8197,19.7777],[-102.7944,19.8126],[-102.7446,19.8141],[-102.7313,19.8988]]]},"properties":{"cvegeo":"14069","nombre":"Quitupan"}},
{"type":"Feature","geometry":{"type":"Polygon","coordinates":[[[-103.2486,19.0144],[-103.2597,19.0526],[-103.3012,19.0493],[-103.2863,19.1319],[-103.2622,19.1301],[-103.2866,19.1995],[-103.2578,19.247],[-103.274,19.2903],[-103.3019,19.3001],[-103.2686,19.3205],[-103.266,19.3625],[-103.306,19.367],[-103.3567,19.3274],[-103.3931,19.3352],[-103.3982,19.2794],[-103.4445,19.2426],[-103.4819,19.2546],[-103.5095,19.2416],[-103.5146,19.2172],[-103.4978,19.1774],[-103.5237,19.1139],[-103.5228,19.0659],[-103.4889,19.0273],[-103.4889,18.9648],[-103.4838,18.9798],[-103.4207,18.9817],[-103.396,18.9671],[-103.3773,18.98],[-103.332,18.9735],[-103.2486,19.0144]]]},"properties":{"cvegeo":"14065","nombre":"Pihuamo"}},
{"type":"Feature","geometry":{"type":"Polygon","coordinates":[[[-104.6259,19.353],[-104.674,19.376],[-104.7191,19.3403],[-104.7726,19.3365],[-104.7793,19.2921],[-104.7571,19.2848],[-104.7755,19.239],[-104.6861,19.2079],[-104.6902,19.1764],[-104.6756,19.1854],[-104.59,19.1501],[-104.6005,19.1783],[-104.5767,19.1808],[-104.5549,19.2365],[-104.5232,19.2603],[-104.4905,19.2326],[-104.4395,19.2781],[-104.4363,19.3025],[-104.4671,19.3678],[-104.5171,19.3587],[-104.5431,19.339],[-104.6011,19.323],[-104.623,19.3012],[-104.6477,19.3492],[-104.6259,19.353]]]},"properties":{"cvegeo":"14022","nombre":"Cihuatlán"}},
{"type":"Feature","geometry":{"type":"Polygon","coordinates":[[[-103.8347,19.4398],[-103.8214,19.4109],[-103.7161,19.4563],[-103.6905,19.4925],[-103.6182,19.5124],[-103.6461,19.5129],[-103.6458,19.568],[-103.661,19.5975],[-103.6987,19.5915],[-103.7621,19.5851],[-103.7539,19.5696],[-103.8353,19.5638],[-103.8826,19.5373],[-103.881,19.5067],[-103.8296,19.4796],[-103.8347,19.4398]]]},"properties":{"cvegeo":"14122","nombre":"Zapotitlán de Vadillo"}},
{"type":"Feature","geometry":{"type":"Polygon","coordinates":[[[-103.4863,19.3378],[-103.4591,19.3823],[-103.4832,19.4192],[-103.4724,19.4442],[-103.5326,19.4856],[-103.5618,19.4874],[-103.5881,19.52],[-103.6182,19.5124],[-103.6128,19.4889],[-103.6157,19.4749],[-103.5691,19.4061],[-103.538,19.3881],[-103.5152,19.3518],[-103.4863,19.3378]]]},"properties":{"cvegeo":"14103","nombre":"Tonila"}},
{"type":"Feature","geometry":{"type":"Polygon","coordinates":[[[-103.3931,19.3352],[-103.3668,19.3956],[-103.3798,19.4227],[-103.3332,19.4551],[-103.3247,19.4809],[-103.3456,19.512],[-103.3253,19.5422],[-103.3196,19.5975],[-103.3779,19.5927],[-103.4293,19.6227],[-103.4651,19.6278],[-103.5082,19.6055],[-103.5301,19.6328],[-103.6074,19.5787],[-103.6458,19.568],[-103.6461,19.5129],[-103.6182,19.5124],[-103.5881,19.52],[-103.5618,19.4874],[-103.5326,19.4856],[-103.4724,19.4442],[-103.4832,19.4192],[-103.4591,19.3823],[-103.4863,19.3378],[-103.5066,19.2923],[-103.5095,19.2416],[-103.4819,19.2546],[-103.4445,19.2426],[-103.3982,19.2794],[-103.3931,19.3352]]]},"properties":{"cvegeo":"14108","nombre":"Tuxpan"}},
{"type":"Feature","geometry":{"type":"Polygon","coordinates":[[[-103.3253,19.5422],[-103.3456,19.512],[-103.3247,19.4809],[-103.3332,19.4551],[-103.3798,19.4227],[-103.3668,19.3956],[-103.3931,19.3352],[-103.3567,19.3274],[-103.306,19.367],[-103.266,19.3625],[-103.2686,19.3205],[-103.3019,19.3001],[-103.274,19.2903],[-103.2578,19.247],[-103.2866,19.1995],[-103.2622,19.1301],[-103.2863,19.1319],[-103.3012,19.0493],[-103.2597,19.0526],[-103.2486,19.0144],[-103.2239,19.0239],[-103.2049,18.9684],[-103.1738,18.9362],[-103.125,18.9302],[-103.0451,19.032],[-103.0251,19.0531],[-102.9922,19.0528],[-103.0156,19.0788],[-103.0191,19.1323],[-103.0438,19.1357],[-103.047,19.1832],[-103.1047,19.2152],[-103.08,19.2428],[-103.1301,19.2745],[-103.163,19.3141],[-103.0828,19.402],[-103.1183,19.4416],[-103.2201,19.45],[-103.2233,19.4791],[-103.2223,19.4842],[-103.2822,19.5004],[-103.2882,19.536],[-103.3253,19.5422]]]},"properties":{"cvegeo":"14087","nombre":"Tecalitlán"}},
{"type":"Feature","geometry":{"type":"Polygon","coordinates":[[[-103.0584,19.5073],[-102.9453,19.4554],[-102.8999,19.4689],[-102.8679,19.4423],[-102.8584,19.3865],[-102.8109,19.4314],[-102.77,19.388],[-102.7345,19.4487],[-102.6666,19.45],[-102.6473,19.4371],[-102.6181,19.4658],[-102.5864,19.4682],[-102.5763,19.4978],[-102.5722,19.5111],[-102.5826,19.5284],[-102.6574,19.4873],[-102.6895,19.5133],[-102.7155,19.4983],[-102.7164,19.6004],[-102.7747,19.6266],[-102.7931,19.6624],[-102.8514,19.6571],[-102.9088,19.6253],[-102.9735,19.6348],[-103.0055,19.6393],[-103.0115,19.6106],[-103.0289,19.5871],[-103.0058,19.5527],[-103.0191,19.5273],[-103.0584,19.5073]]]},"properties":{"cvegeo":"14056","nombre":"Santa María del Oro"}},
{"type":"Feature","geometry":{"type":"Polygon","coordinates":[[[-104.5292,19.4634],[-104.4563,19.4505],[-104.4655,19.5044],[-104.4525,19.5165],[-104.3932,19.5171],[-104.377,19.5298],[-104.3498,19.6009],[-104.3869,19.626],[-104.3691,19.6897],[-104.3869,19.698],[-104.3736,19.7437],[-104.4046,19.7317],[-104.4255,19.7593],[-104.468,19.7768],[-104.4791,19.68],[-104.5105,19.6904],[-104.5124,19.6566],[-104.5419,19.6653],[-104.5558,19.6284],[-104.5881,19.6451],[-104.6126,19.6011],[-104.6049,19.5545],[-104.5834,19.5564],[-104.5282,19.5251],[-104.5517,19.5009],[-104.5292,19.4634]]]},"properties":{"cvegeo":"14021","nombre":"Casimiro Castillo"}},
{"type":"Feature","geometry":{"type":"Polygon","coordinates":[[[-104.3498,19.6009],[-104.377,19.5298],[-104.3932,19.5171],[-104.4525,19.5165],[-104.4655,19.5044],[-104.4563,19.4505],[-104.5292,19.4634],[-104.5777,19.4518],[-104.5739,19.4107],[-104.6176,19.4141],[-104.6344,19.398],[-104.6259,19.353],[-104.6477,19.3492],[-104.623,19.3012],[-104.6011,19.323],[-104.5431,19.339],[-104.5171,19.3587],[-104.4671,19.3678],[-104.4363,19.3025],[-104.4395,19.2781],[-104.4002,19.289],[-104.4014,19.2668],[-104.3438,19.2896],[-104.3149,19.2794],[-104.248,19.3121],[-104.2233,19.3016],[-104.1228,19.3205],[-104.1333,19.3536],[-104.0905,19.393],[-104.0712,19.4352],[-104.087,19.4418],[-104.0721,19.4822],[-104.0715,19.4836],[-104.0778,19.5229],[-104.1067,19.5698],[-104.1548,19.6062],[-104.1653,19.6546],[-104.2068,19.5995],[-104.2756,19.5889],[-104.3108,19.6062],[-104.3498,19.6009]]]},"properties":{"cvegeo":"14027","nombre":"Cuautitlán de García Barragán"}},
{"type":"Feature","geometry":{"type":"Polygon","coordinates":[[[-103.1183,19.4416],[-103.0765,19.4542],[-103.0908,19.4925],[-103.0584,19.5073],[-103.0191,19.5273],[-103.0058,19.5527],[-103.0289,19.5871],[-103.0115,19.6106],[-103.0055,19.6393],[-103.0185,19.7075],[-103.0036,19.7475],[-103.0163,19.7879],[-103.1142,19.8606],[-103.1329,19.8459],[-103.1763,19.8543],[-103.1814,19.8845],[-103.1877,19.9128],[-103.2258,19.9332],[-103.2356,19.9021],[-103.2695,19.8845],[-103.3225,19.8779],[-103.3019,19.8528],[-103.3415,19.7937],[-103.364,19.8108],[-103.4125,19.8117],[-103.428,19.7886],[-103.4055,19.7351],[-103.3735,19.7319],[-103.3462,19.7546],[-103.3187,19.7479],[-103.3548,19.7306],[-103.3554,19.6964],[-103.2882,19.6071],[-103.2461,19.5691],[-103.2597,19.5462],[-103.2166,19.5284],[-103.1998,19.5029],[-103.2223,19.4842],[-103.2233,19.4791],[-103.2201,19.45],[-103.1183,19.4416]]]},"properties":{"cvegeo":"14085","nombre":"Tamazula de Gordiano"}},
{"type":"Feature","geometry":{"type":"Polygon","coordinates":[[[-103.0584,19.5073],[-103.0908,19.4925],[-103.0765,19.4542],[-103.1183,19.4416],[-103.0828,19.402],[-103.163,19.3141],[-103.1301,19.2745],[-103.08,19.2428],[-103.1047,19.2152],[-103.047,19.1832],[-103.0438,19.1357],[-103.0191,19.1323],[-102.9804,19.1199],[-102.9605,19.1739],[-102.9151,19.1795],[-102.8841,19.2057],[-102.8248,19.2057],[-102.7731,19.2452],[-102.7538,19.2556],[-102.6708,19.213],[-102.6381,19.2625],[-102.6381,19.295],[-102.6112,19.323],[-102.6013,19.3645],[-102.5446,19.4332],[-102.5687,19.4454],[-102.5427,19.4762],[-102.5763,19.4978],[-102.5864,19.4682],[-102.6181,19.4658],[-102.6473,19.4371],[-102.6666,19.45],[-102.7345,19.4487],[-102.77,19.388],[-102.8109,19.4314],[-102.8584,19.3865],[-102.8679,19.4423],[-102.8999,19.4689],[-102.9453,19.4554],[-103.0584,19.5073]]]},"properties":{"cvegeo":"14049","nombre":"Jilotlán de los Dolores"}},
{"type":"Feature","geometry":{"type":"Polygon","coordinates":[[[-104.0715,19.4836],[-104.062,19.4976],[-103.965,19.4542],[-103.8997,19.4345],[-103.8892,19.4634],[-103.8547,19.4309],[-103.8347,19.4398],[-103.8296,19.4796],[-103.881,19.5067],[-103.8826,19.5373],[-103.8353,19.5638],[-103.7539,19.5696],[-103.7621,19.5851],[-103.6987,19.5915],[-103.7675,19.6247],[-103.8182,19.6106],[-103.8274,19.6438],[-103.9082,19.6566],[-103.9393,19.6535],[-103.9735,19.6153],[-103.965,19.6037],[-104.0147,19.5844],[-104.0664,19.6118],[-104.1067,19.5698],[-104.0778,19.5229],[-104.0715,19.4836]]]},"properties":{"cvegeo":"14099","nombre":"Tolimán"}}
]}