{"type":"Topology","arcs":[[[324670,466805],[6310,-1569]],[[330980,465236],[1312,-7267]],[[332292,457969],[-4436,-5015],[812,-5561]],[[328668,447393],[-2748,-3104],[-15056,4708]],[[310864,448997],[749,3241]],[[311613,452238],[1500,6618],[11557,7949]],[[359905,482464],[4123,1092]],[[364028,483556],[812,-273],[3374,-2661]],[[368214,480622],[-3436,-4879]],[[364778,475743],[-4374,-1978],[-2249,5185]],[[358155,478950],[1750,3514]],[[674392,185078],[13431,-8836],[6310,68],[3686,5731],[4123,4913],[6560,1672],[8434,-5868],[7871,6243],[2437,-3207]],[[727244,185794],[499,-3957],[10246,6550],[10495,-6414],[4811,-10201]],[[753295,171772],[-2249,-3957],[4060,-7232],[-8933,818],[-2124,-7096],[3186,-1296]],[[747235,153009],[-7809,-5868]],[[739426,147141],[-10308,-2525],[-4998,4163]],[[724120,148779],[-312,1842],[62,307],[125,2183],[625,239],[125,785],[-563,546],[-17679,2081],[-7435,-1024],[-2374,-4640],[-4872,7779],[-4811,273]],[[687011,159150],[-6247,14328],[312,4811],[-6684,6789]],[[433810,431734],[-6435,-7164],[-5435,-478]],[[421940,424092],[-3686,3685],[-9246,614],[-9496,6379],[-6684,103],[-8184,11531],[-12432,5458],[4998,3685]],[[377210,455547],[1749,136],[187,1740]],[[379146,457423],[438,-341],[2311,-341],[187,-34],[500,34],[3499,-478],[1062,-136],[7309,-6789],[-750,5390],[375,1774],[375,136],[5810,2627],[875,69],[8059,580],[-500,4844],[9558,853],[11058,16273],[10558,4026],[8496,-4162]],[[448366,481748],[2186,-11327],[4186,-6789],[-62,-8665],[8808,-12145]],[[463484,442822],[-8808,-2730],[-3186,-4776],[-12870,819],[-4810,-4401]],[[572312,249454],[-12870,4162],[3311,9518],[-11120,8052],[812,8801]],[[552445,279987],[10808,4981],[3936,-1705],[3498,-12180],[5560,-5049]],[[576247,266034],[8184,-5936]],[[584431,260098],[250,-1126],[2062,-4162],[-14431,-5356]],[[262697,296227],[3561,8972]],[[266258,305199],[1062,478]],[[267320,305677],[7997,-717],[11932,5459]],[[287249,310419],[3561,-2116]],[[290810,308303],[-562,-6720],[-4748,-7983],[-500,-10986]],[[285000,282614],[-7497,-1978],[0,34],[-5810,7744],[-8059,2149],[-937,5664]],[[401761,358454],[14869,1296],[7621,-2047]],[[424251,357703],[8372,716],[-625,-11019],[-6122,375],[-7185,-4776],[3499,-1433]],[[422190,341566],[-14494,-1364],[375,12418],[-11120,580],[4810,5254]],[[318360,370667],[500,-1774],[-13619,-7471],[-8184,443]],[[297057,361865],[-5310,6311],[15993,6994],[10620,-4503]],[[379146,457423],[812,5527],[-1124,1262]],[[378834,464212],[2999,9655],[5372,8119],[-2561,2389]],[[384644,484375],[2811,1091],[5310,1433],[2312,853],[2624,-3719],[-2312,5629]],[[395389,489662],[7559,5561],[11120,2866],[4561,6789]],[[418629,504878],[6247,18115]],[[424876,522993],[15556,-15045],[9121,-22482],[-1187,-3718]],[[332667,496724],[-6310,-887]],[[326357,495837],[-16805,-7505]],[[309552,488332],[-3186,3787],[-13432,-15386]],[[292934,476733],[-12619,545],[4248,-8324]],[[284563,468954],[-5935,239]],[[278628,469193],[-2437,22243],[3936,6107]],[[280127,497543],[14369,-1194],[9621,5834],[4685,5868],[5997,614],[375,-34],[6060,1262],[8496,580],[1062,4640],[9246,1910]],[[340038,517023],[1375,-5254],[-4936,-4537],[2874,-4913],[-6684,-5595]],[[622102,295988],[2687,-9348],[-7622,-2252]],[[617167,284388],[-8621,7369],[-8497,614],[-17367,-5390],[750,-9655],[-5685,-2763],[-1500,-8529]],[[552445,279987],[-2873,-1364]],[[549572,278623],[2249,18729],[3186,5664],[-8059,238],[-5873,7642],[-7996,-204]],[[533079,310692],[-3749,1739],[2687,5834],[-750,9655],[-9183,2832],[2124,7573]],[[524208,338325],[-4186,8597],[-13432,4538],[2937,6721],[-4061,1774]],[[505466,359955],[3623,8733]],[[509089,368688],[7310,-6959],[17929,-2457],[2062,-16409],[3811,-11122],[15430,-13646],[23990,-8597],[15118,-8393],[27363,-5117]],[[608608,228507],[-8996,239]],[[599612,228746],[-3873,3821],[-21741,11701]],[[573998,244268],[-1686,5186]],[[584431,260098],[6560,-5288],[11182,-16512],[-1187,-4401],[7622,-5390]],[[175735,787015],[3062,5595]],[[178797,792610],[-313,-3514],[8746,-1842],[9559,5219],[2311,-750],[12932,-4708],[4061,3650]],[[216093,790665],[-188,-3411],[-1124,-7949],[-13307,-2081]],[[201474,777224],[-3436,-2286],[-13431,-103],[-5748,11941],[-3124,239]],[[365277,330308],[688,-2900]],[[365965,327408],[-4936,-2388],[5498,-4878],[-3436,-5254],[375,-5527]],[[363466,309361],[-5685,-239],[-7435,239]],[[350346,309361],[-3935,1672]],[[346411,311033],[-438,1330]],[[345973,312363],[-250,717],[-937,1671],[-4748,4435]],[[340038,319186],[11245,4879],[3561,3957],[-4997,2115],[6247,2696],[312,8631]],[[356406,341464],[3874,648]],[[360280,342112],[4747,-3446],[250,-8358]],[[633347,275177],[-1374,14465],[0,68],[1874,1570],[1624,1706],[4061,2285]],[[639532,295271],[29487,819]],[[669019,296090],[-2999,-4435],[3187,-5151],[-2562,-7984],[6247,-5629],[-7371,342],[-3811,-3821]],[[661710,269412],[-1874,-10337],[-9121,-5425],[-12557,-477],[-6185,-3241],[-5435,1330]],[[626538,251262],[1374,11668],[5248,2899],[187,9348]],[[484912,399290],[-937,-8358],[-9246,8256],[-8996,-6346],[-4123,2047]],[[461610,394889],[3499,10064],[-5373,8529],[-6997,3650]],[[452739,417132],[1437,7540]],[[454176,424672],[8871,-921],[2124,3446]],[[465171,427197],[5248,-17229],[14493,-10678]],[[383332,419316],[5810,-2729],[5622,3752],[4873,-7471],[3499,2013],[687,-239],[13869,-989]],[[417692,413653],[-6935,-3924]],[[410757,409729],[-15805,-3275],[-4936,1501]],[[390016,407955],[-3123,717],[-3561,10644]],[[266258,305199],[-4435,5117],[5372,3855],[63,239]],[[267258,314410],[6622,-5015],[-6560,-3718]],[[321859,272277],[187,-1296]],[[322046,270981],[-12744,-11258]],[[309302,259723],[-6310,9313]],[[302992,269036],[18867,3241]],[[317736,293838],[3186,-4093],[-6123,-7540]],[[314799,282205],[-9745,1296]],[[305054,283501],[-4686,3037],[-250,0]],[[300118,286538],[-5435,1535],[9871,2047],[812,8768]],[[305366,298888],[3998,-5220],[8372,170]],[[367964,351187],[4060,-2627],[11558,-23130],[4748,-4333]],[[388330,321097],[-7122,-546]],[[381208,320551],[-1874,1023],[-5435,4674],[-7934,1160]],[[360280,342112],[-1063,3105],[0,170],[188,6107]],[[359405,351494],[3811,-478],[4748,171]],[[314799,327067],[-4123,1092]],[[310676,328159],[-125,4605]],[[310551,332764],[3749,1945],[-7997,9348],[4748,3548]],[[311051,347605],[2312,-1160]],[[313363,346445],[8683,1467],[2874,-5186]],[[324920,342726],[2249,-5970]],[[327169,336756],[-6185,2763],[-2624,-6209],[-3561,-6243]],[[280127,497543],[4186,5015],[-2749,3958],[250,8870],[5685,7164]],[[287499,522550],[13744,16648],[11183,2389],[2686,5151]],[[315112,546738],[4123,-3377],[1562,-7642],[10308,-6380],[2749,4230]],[[333854,533569],[5747,-3479],[437,-12691]],[[340038,517399],[0,-376]],[[394077,399324],[-62,34],[-24552,-8665]],[[369463,390693],[-3686,5049]],[[365777,395742],[13682,5527],[-500,546],[-4248,955],[-7747,2763],[-6560,-1910]],[[360404,403623],[-11932,-2115],[-12994,-10849],[2499,-4469]],[[337977,386190],[-12307,4230]],[[325670,390420],[5497,3411],[3061,8222]],[[334228,402053],[2874,1808]],[[337102,403861],[15119,10201]],[[352221,414062],[10120,5117]],[[362341,419179],[7684,-2354]],[[370025,416825],[5560,-3855],[63,-5765],[6684,989],[3311,-8256],[4061,-102],[312,8119]],[[410757,409729],[-2186,-5151],[-14494,-5254]],[[340413,455922],[-6747,2218]],[[333666,458140],[3998,3343]],[[337664,461483],[63,-68],[5248,2968],[8808,-5936]],[[351783,458447],[-11370,-2525]],[[108827,673785],[-10870,1979]],[[97957,675764],[-2249,3991],[-6685,205],[-3498,5185]],[[85525,685145],[4498,5391],[-5685,648],[-2249,8426],[7934,7540]],[[90023,707150],[5248,-3957],[3873,2831],[1937,-682],[2624,-2286],[5747,375],[-125,-34],[0,-68],[3374,-4299]],[[112701,699030],[-4936,-10337],[7060,-2354],[1249,-6652],[-7247,-5902]],[[505216,381720],[5060,-3786],[-1187,-9246]],[[505466,359955],[-5123,511],[2499,11293],[-3748,-1740]],[[499094,370019],[6122,11701]],[[297057,361865],[-3936,-2252]],[[293121,359613],[-14368,-4537]],[[278753,355076],[125,102],[1249,12828],[11683,8119],[1311,5630],[9934,-1467],[0,-69],[13556,-1091],[4373,-4811]],[[320984,374317],[-2624,-3650]],[[298619,313796],[63,-102]],[[298682,313694],[6872,-2422]],[[305554,311272],[-1750,-5459]],[[303804,305813],[-4248,-614]],[[299556,305199],[-6435,9314],[5498,-717]],[[424439,324099],[12307,-9586],[-1624,-6824]],[[435122,307689],[-7872,-4025],[-26238,2013],[-6997,2149],[-1250,14192]],[[392765,322018],[9121,-307],[-375,4128],[8684,2695],[14244,-4435]],[[745548,264840],[-2749,-13476],[1500,-5288],[8184,649]],[[752483,246725],[-6310,-8529],[5310,-3241]],[[751483,234955],[-2187,-3309],[-10807,-3003],[-7497,1536],[-10433,-4947],[1562,-3309]],[[722121,221923],[-625,-6687],[-8309,-1365],[-2998,7199],[-12807,-4913],[-3561,2763]],[[693821,218920],[2499,2764],[-1312,14226],[3748,5493],[562,7812],[-3186,5152],[12682,-376],[-312,7062],[-8996,2422],[6622,1502],[-437,4162],[10183,5253]],[[715874,274392],[4810,-5799],[15118,-3514],[9746,-239]],[[251515,673648],[11870,2150],[8246,11735],[9371,-4503],[7496,3378]],[[288498,686408],[4748,-10610],[2562,-12896]],[[295808,662902],[-6685,-3241],[-6809,1126],[-8746,-7949],[-875,4128],[250,2797],[-16306,137]],[[256637,659900],[2687,4401],[-7809,9347]],[[190916,762895],[1562,-2286]],[[192478,760609],[-3061,-3582],[1374,-853],[-2624,-6959],[-5497,1603]],[[182670,750818],[-10183,8597],[-7372,2286],[2936,4878]],[[168051,766579],[6685,2866],[16180,-6550]],[[143562,800081],[4248,4810]],[[147810,804891],[6872,-9620],[1375,5902],[7621,-6823],[-2499,-4572],[3874,-9279]],[[165053,780499],[-5435,-9655]],[[159618,770844],[-6810,11906],[437,11804],[-9683,5527]],[[348410,473969],[0,-34]],[[348410,473935],[-563,-5322]],[[347847,468613],[-10183,1638]],[[337664,470251],[-2249,13237],[4061,1501]],[[339476,484989],[8934,-11020]],[[198038,594671],[-562,-8256]],[[197476,586415],[-5435,-6551],[-5685,2968]],[[186356,582832],[-4186,6653],[9621,1126],[6247,4060]],[[369338,424638],[-1749,-955]],[[367589,423683],[2436,-6858]],[[362341,419179],[-10245,751]],[[352096,419930],[-19992,15727],[-9121,3139],[-5685,6243],[-6684,2252]],[[310614,447291],[250,1706]],[[328668,447393],[4436,-2797],[8621,1364]],[[341725,445960],[9496,-5390]],[[351221,440570],[2561,-7471],[10433,-1570],[6997,-3787],[-1874,-3104]],[[871993,175013],[-10683,5050],[-5123,-5971]],[[856187,174092],[-1374,-750]],[[854813,173342],[-4186,3957],[-3873,-1671],[-7622,4673]],[[839132,180301],[-8684,2491],[-10183,-1945],[-3436,7710],[-9433,-3821]],[[807396,184736],[-3311,5868],[-7247,3787],[2437,7164],[5747,-3343]],[[805022,198212],[7434,-4605],[18492,-3378],[21866,2422],[22615,4504]],[[875429,197155],[3248,-9792],[-6684,-12350]],[[229150,605929],[-10871,-3139]],[[218279,602790],[-9183,34],[-6247,8836],[1999,1365],[-812,682]],[[204036,613707],[2498,8324],[6498,1501],[4935,5664],[6747,-478]],[[224714,628718],[10495,3548]],[[235209,632266],[16681,-3719]],[[251890,628547],[874,-3343],[-9496,-2524],[-4997,-19071],[-9121,2320]],[[350346,309361],[-2249,-4674]],[[348097,304687],[-4185,3855]],[[343912,308542],[2499,2491]],[[380708,530806],[3124,4060],[4935,-3582],[9183,5492],[4998,-9484],[-2561,-8461]],[[400387,518831],[-4686,-5731],[-5497,2252]],[[390204,515352],[-7434,4571],[-6123,-716]],[[376647,519207],[-4560,6925],[6122,1945],[2499,2729]],[[346536,385780],[12494,-3343]],[[359030,382437],[8184,-2832],[19929,1399],[6372,4708]],[[393515,385712],[11995,2013]],[[405510,387725],[6872,-5834],[17617,-4128]],[[429999,377763],[1124,-2729],[-15618,-580],[3686,-6005],[-2061,-3104]],[[417130,365345],[-9184,1194],[-7559,-3139],[-6685,717]],[[393702,364117],[-14993,3377],[-12432,8359],[-12370,3343]],[[353907,379196],[-1811,307],[-5560,6277]],[[340038,319186],[-3373,2866],[-1874,9211],[5372,717],[-9371,8699],[2437,4913]],[[333229,345592],[312,2149]],[[333541,347741],[4998,3378]],[[338539,351119],[6810,375],[6184,-3480],[-1624,-4776],[6497,-1774]],[[512025,192242],[-7496,-3480],[-11370,-478],[1624,8598]],[[494783,196882],[18367,2524],[0,6141],[4810,3582],[-4560,10508],[4373,10678],[7622,4367]],[[525395,234682],[6122,7301]],[[531517,241983],[15993,-205],[812,-9075],[7934,-955],[15618,4367]],[[571874,236115],[2687,-15148]],[[574561,220967],[-4623,4640],[-3811,-4401],[-4123,3309],[-5186,-9654],[-11932,-2593],[1062,-3378]],[[545948,208890],[-1624,-716]],[[544324,208174],[-6435,682],[125,-4264],[-4935,4332],[-5873,-12349]],[[527206,196575],[-2873,5970],[-4561,-6960],[-7747,-3343]],[[324483,415700],[3998,1091]],[[328481,416791],[8559,-511],[8121,2456],[7060,-4674]],[[337102,403861],[-10433,5459],[-2186,6380]],[[330293,359136],[-4311,-3344]],[[325982,355792],[-8684,-2149],[-3935,-7198]],[[311051,347605],[-11620,3889],[-6310,8119]],[[320984,374317],[2999,376]],[[323983,374693],[7559,-9075]],[[331542,365618],[-1249,-6482]],[[839132,180301],[437,-8529]],[[839569,171772],[-5872,273],[-1687,-4776]],[[832010,167269],[-8246,341],[-2687,7165],[-6934,375],[-3623,4435],[-1937,-12623],[-3561,-8290],[6497,-4094],[-4810,-12111],[-6435,1058],[-4935,-6039]],[[795339,137486],[-8621,3207],[3623,12896]],[[790341,153589],[9808,-6073],[1687,7744],[-8059,1365]],[[793777,156625],[687,8597]],[[794464,165222],[6247,3821],[4873,10917]],[[805584,179960],[1812,4776]],[[466608,345387],[1812,-750]],[[468420,344637],[812,-7301],[7434,-3343]],[[476666,333993],[3249,-2900],[5372,3445],[5185,-3377],[1875,-11224]],[[492347,319937],[-11808,-2798],[-6934,-8460],[-12182,3070],[-15993,-5254],[4123,-2422],[-6747,-3991]],[[442806,300082],[-7934,-35]],[[434872,300047],[250,7642]],[[424439,324099],[3124,2286],[-4561,5356],[13557,6380]],[[436559,338121],[13993,-717],[9121,6687],[6935,1296]],[[230024,568981],[-17742,-2285]],[[212282,566696],[-3249,2695],[-187,409]],[[208846,569800],[3748,3821]],[[212594,573621],[11370,9553],[-5872,-444]],[[218092,582730],[-1312,4435]],[[216780,587165],[7497,1194],[12057,-2661],[-1250,-2593],[-8871,-5151],[688,-5459],[4498,3514],[-1375,-7028]],[[218279,602790],[-5997,-6925],[4498,-8700]],[[218092,582730],[-7122,-4299]],[[210970,578431],[-4748,-2149],[-2374,6516],[-4873,0]],[[198975,582798],[-1499,3617]],[[198038,594671],[-437,8017],[-3436,-5595],[-13557,11463],[3311,7642],[2937,5663],[4810,580],[6934,-8256],[5436,-478]],[[385394,301514],[-27551,3071],[-7497,4776]],[[363466,309361],[11807,-3241]],[[375273,306120],[10121,-4606]],[[388330,321097],[4435,921]],[[434872,300047],[-8621,-1944],[-11370,2422]],[[414881,300525],[-15369,2388],[-14118,-1399]],[[375273,306120],[-437,4435],[6372,9996]],[[563191,177095],[-1812,9040],[-3624,273]],[[557755,186408],[-3935,9109],[5435,4879],[-8684,8528],[-4623,-34]],[[574561,220967],[-5061,-5492],[5310,-2013],[9246,-11258]],[[584056,202204],[2687,-1911],[-4686,-7642],[-7247,-2456],[-3061,-10849],[-5497,-853],[-3061,-1398]],[[363840,502899],[13495,-5595],[5185,5391]],[[382520,502695],[-1749,-3855],[12494,-8939],[812,-648],[1312,409]],[[384644,484375],[-7809,3104],[-8621,-6857]],[[364028,483556],[-1250,9211],[-3935,2490]],[[358843,495257],[4997,7642]],[[119135,699815],[-6434,-785]],[[90023,707150],[-2374,4537],[0,307],[4186,3787],[3748,12009],[6935,409],[2186,12418],[-7247,4811]],[[97457,745428],[5998,5322],[12057,5083],[10308,-1638]],[[125820,754195],[62,-272],[5873,-1331],[437,273],[250,239],[9058,5492]],[[141500,758596],[4436,-2627],[125,-12076],[4685,716],[8372,-7778]],[[159118,736831],[-7497,-2661],[-2561,-7404],[6122,-5117],[8684,-2456],[-6185,-8836],[312,-5732],[-8059,-2285],[1062,-1126]],[[150996,701214],[-7621,-8086],[-7247,8598],[-9933,3343],[-7060,-5254]],[[765040,177299],[10995,239],[874,6584]],[[776909,184122],[17243,-5390],[11432,1228]],[[794464,165222],[-8121,-2081]],[[786343,163141],[-15306,3753]],[[771037,166894],[-8434,4537]],[[762603,171431],[2437,5868]],[[214031,802196],[7060,-5561]],[[221091,796635],[-4998,-5970]],[[178797,792610],[4623,4503],[-2124,3821]],[[181296,800934],[1999,1535]],[[183295,802469],[9745,-4435],[12058,6209],[8933,-2047]],[[904978,155977],[1312,-18491],[9121,205],[2124,-5663],[9434,2081],[3998,-5834],[1811,-9689],[5311,-4230],[10370,-1194],[-2249,-2661],[14931,-6892],[6497,614],[4998,-4469],[2999,-8119],[16305,-13135],[5373,-1910],[-500,-9723],[-5685,-13851],[-8309,-6005],[11745,-9211],[-1125,-3821],[6560,-580],[-11120,-5390],[312,-5629],[-21615,-1945],[-6185,-3923],[-4561,-9825],[-6747,-1638],[-1249,-5049],[-43294,2354]],[[905540,2354],[-562,6618],[17492,-102],[-124,2900],[13806,68],[1749,18320],[-10745,5118],[-11183,34],[-125,3548],[-18304,375],[-15806,-4162]],[[881738,35071],[-1749,6209],[6185,6345],[-7934,10781],[-2686,17160],[3748,7813],[5872,-3105],[13120,4162],[-5810,3651],[1811,5185],[-11120,3889],[4186,3787],[-3998,9689],[-5311,1467],[1187,9962],[4249,11770],[-12620,-68],[-9371,-2320],[7684,4605],[875,4777]],[[870056,140830],[11058,10575],[2686,8563]],[[883800,159968],[16805,-4435],[4373,444]],[[325982,355792],[7559,-8051]],[[333229,345592],[-4311,1672],[-3998,-4538]],[[159618,770844],[249,-1501]],[[159867,769343],[-8746,-7540],[-9058,-2149]],[[142063,759654],[499,4435],[5123,-1058],[-999,5425],[-12807,3650],[-2374,13646],[-6310,2627]],[[125195,788379],[1312,10372],[-5685,10814],[9308,11122],[-1062,7983],[7809,11736],[-8496,4230],[-2874,4776]],[[125507,849412],[10683,-1296],[4123,-13135],[-4373,-20162],[7622,-14738]],[[212594,573621],[-1624,4810]],[[363528,453534],[6997,3923]],[[370525,457457],[6685,-1910]],[[421940,424092],[-4248,-10439]],[[383332,419316],[-6997,5151],[-2187,-4810],[-6559,4026]],[[351221,440570],[8871,6618],[4935,-1876],[-1499,8222]],[[229150,605929],[687,-5152],[7809,-1808],[8371,-1160],[10683,-13885]],[[256700,583924],[-5310,-3241],[-7684,2593],[-3749,-4128],[250,-7608],[-4748,-3411],[-3186,-3139]],[[232273,564990],[-2249,3991]],[[198975,582798],[-5622,-4605],[6434,-7062],[6435,204]],[[206222,571335],[-4623,-2592],[-16305,4537],[1062,9552]],[[345973,312363],[-8871,4401]],[[337102,316764],[-7996,12589],[-1937,7403]],[[303554,607669],[-4248,3923],[-2311,205],[-2999,9586],[6185,2866],[1499,7915]],[[301680,632164],[9246,4469],[10121,-11907],[6559,1126],[-749,-6277],[-2812,-5731],[-6934,-273],[-2124,-3992],[-11433,-1910]],[[830573,79285],[63,-12077],[6872,-7744]],[[837508,59464],[-19429,1057],[250,-7744],[9933,-2968],[-2999,-2661],[-19866,2388],[-812,-7540],[-6497,3514],[-1250,-10917],[-3311,1774]],[[793527,36367],[-6622,10303],[-8559,-2149],[2874,9314],[-10183,8256],[-7997,-7097],[-8308,6482],[1936,6380],[8247,-3514],[14556,4094],[3498,5970],[-10245,9553]],[[772724,83959],[5810,3514],[-3749,5356],[6248,4571],[2998,11190]],[[784031,108590],[5498,-1399],[-1812,5766],[7872,7369],[2249,12316]],[[797838,132642],[5685,-6823],[8121,511],[-8871,-10507],[6122,-20094],[18305,921],[8871,-5595],[812,-5902],[-6310,-5868]],[[361904,364287],[-8746,2286]],[[353158,366573],[-21616,-955]],[[323983,374693],[-3623,11906],[5310,3821]],[[337977,386190],[1562,-1945]],[[339539,384245],[14681,-8324],[-313,3275]],[[393702,364117],[-15243,955],[-18617,9621],[-5560,-1740],[7622,-8666]],[[58287,612615],[-14306,-12929],[-2124,272],[-12870,2218],[-2811,3343],[-250,12725],[-9246,11839],[7747,2524],[6247,6585],[3998,9722],[4998,-1432],[-2811,10473],[6122,4265],[2811,6277],[3999,3002]],[[49791,671499],[18429,-5902]],[[68220,665597],[-3748,-3207],[-8809,-16375],[188,-7301]],[[55851,638714],[-6310,-5390],[5247,-5766],[-8433,-10746],[437,-4742],[11495,545]],[[722121,221923],[4123,1501],[375,-12043],[6185,-5595],[-500,-15796],[-5060,-4196]],[[674392,185078],[-10683,2695],[-14681,7471]],[[649028,195244],[-4623,4196],[5997,4913]],[[650402,204353],[6373,2695],[13181,-4401],[-1811,5254],[14431,-1638],[-5123,5118],[8996,-239],[3061,7164],[4311,614]],[[312051,318197],[-6497,-6925]],[[298619,313796],[63,-102]],[[298682,313694],[2686,3070]],[[301368,316764],[8434,1228]],[[309802,317992],[2249,205]],[[524145,300286],[8934,10406]],[[549572,278623],[-875,-8495],[-8122,-2183],[-7496,-8939]],[[533079,259006],[-6935,3582],[438,4947],[-5061,6073]],[[521521,273608],[1250,3787],[-5560,7471],[4185,6414],[-1499,7437],[4248,1569]],[[66658,686783],[-10807,-3446],[874,-4776],[-6247,-989]],[[50478,677572],[-6747,-6346],[-12807,-6277],[-4935,1433],[3498,4503],[0,34],[15618,6550],[-2249,4913],[4061,11190],[3686,2900],[15805,2865],[-1624,-5458],[7497,-4913],[-5623,-2183]],[[608608,228370],[8247,1809],[2249,-5152]],[[619104,225027],[6934,-3480],[875,-14874],[13181,1160]],[[640094,207833],[-2311,-3958],[12619,478]],[[649028,195244],[-11932,-4435],[-6060,7335],[-7497,-14158],[14119,-16853],[3561,-1911],[-3499,-8119],[2312,-3855],[-8496,-8768],[-8996,-1638]],[[622540,142842],[-8372,717],[-625,-3446],[-17180,1672],[-8058,-2047],[-750,5049],[-5560,2149]],[[581995,146936],[5685,6687],[2061,7267],[5560,-478],[3124,14363],[3873,3275],[-6997,1535],[3249,20913],[13119,6925],[3874,6141],[-7622,6653],[687,8153]],[[142063,759654],[-563,-1058]],[[125820,754195],[2874,2866],[-8184,6789],[2873,3958],[-9558,3514],[7622,4980],[0,13749],[3748,-1672]],[[334228,402053],[-1124,1058],[-4623,1365],[-5498,4844],[-10682,-2695],[-9934,2968],[-187,0]],[[302180,409593],[4560,10439],[-8058,5186],[-625,8938],[4310,-648]],[[302367,433508],[2749,-4776],[6935,34],[13369,-5800]],[[325420,422966],[562,-1126]],[[325982,421840],[-1499,-6140]],[[353158,366573],[1624,-16273],[4623,1194]],[[338539,351119],[-1124,2320],[-7122,5697]],[[300431,324304],[-4498,-1638]],[[295933,322666],[-4811,2866],[-2561,7301]],[[288561,332833],[7622,3343],[10183,-4435],[3248,-6380]],[[309614,325361],[-1749,-955],[-7434,-102]],[[853251,145674],[-16181,-682],[-2936,7642],[4436,6243],[-6560,8392]],[[839569,171772],[1875,-3445],[13369,5015]],[[856187,174092],[3748,-1364],[-2811,-9109],[-7871,-4231],[3998,-13714]],[[137315,634074],[-4561,2934],[-5497,18832],[-5998,7642],[-2124,-4230],[-4623,-6994],[-2061,409]],[[112451,652667],[-3811,4845],[2249,8460],[-5748,2184],[3686,5629]],[[150996,701214],[3249,-4845],[-4311,-3104],[-1437,-8120],[6560,1570]],[[155057,686715],[-5373,-15216],[4936,-2525],[-3186,-5833],[3623,-9143],[-2811,-6892],[-14119,-8631],[-812,-4401]],[[531517,241983],[-3249,1705],[3249,8256],[-5373,1808],[6935,5254]],[[573998,244268],[-4310,-4059],[2186,-4094]],[[327169,304960],[-3811,5117]],[[323358,310077],[-1124,1638]],[[322234,311715],[-7934,6448]],[[314300,318163],[3436,3411],[-2937,5493]],[[337102,316764],[-625,-5015]],[[336477,311749],[-62,-34]],[[336415,311715],[-9246,-6755]],[[278628,469193],[-8184,-5322],[-13931,4571]],[[256513,468442],[10682,8427],[4373,-1467],[-5747,8563],[2186,3548],[1312,17229],[2624,9211],[9121,10473]],[[281064,524426],[6435,-1876]],[[351783,458447],[9434,1398],[624,444],[625,1672]],[[362466,461961],[8059,-4504]],[[341725,445960],[-2061,6823],[624,1911],[125,1228]],[[784031,108590],[-500,3173],[-9558,3684],[-4748,5391],[6435,11258],[6060,2490],[-313,4231],[-9683,1535],[-3124,5493],[-1811,12315]],[[766789,158160],[5497,3344],[-1249,5390]],[[786343,163141],[-875,-7846],[500,-239],[0,-34],[3498,-205]],[[789466,154817],[875,-1228]],[[795339,137486],[2499,-4844]],[[493783,358317],[-1811,-7301],[-13369,-11735],[-1937,-5288]],[[468420,344637],[-1500,10200],[9559,6687]],[[476479,361524],[3498,-3446],[13806,239]],[[764102,83754],[8622,205]],[[793527,36367],[-8059,990],[-687,-7710],[-10808,-4265],[2749,-1945],[-3436,-8119],[2936,-6346]],[[776222,8972],[-15805,751],[-19554,921],[2623,13953],[3686,8086],[-16118,3821],[-20491,7778],[-8996,11088],[-16243,20026]],[[685324,75396],[10371,4503],[18055,1672]],[[713750,81571],[7184,-1536],[4623,3003],[38545,716]],[[301993,441048],[8621,6243]],[[352096,419930],[-18305,5254],[-8371,-2218]],[[302367,433508],[-374,7540]],[[347847,468613],[4249,-1433],[10370,-5219]],[[337664,461483],[-3685,4469]],[[333979,465952],[3685,4299]],[[687011,159150],[-8059,-717],[-2186,-11156],[2311,-8972],[-9496,-819],[1250,-11736],[-13682,1809],[-14618,-7676],[-2499,-4299]],[[640032,115584],[-5685,3139],[-2811,16580],[-8996,7539]],[[400387,518831],[5248,-7266],[12994,-6687]],[[382520,502695],[7684,12657]],[[359905,482464],[-3249,11361]],[[356656,493825],[2187,1432]],[[633347,275177],[-15243,955],[-1125,2354]],[[616979,278486],[188,5902]],[[622102,295988],[17430,-717]],[[318360,304312],[-749,3411]],[[317611,307723],[5747,2354]],[[327169,304960],[-8809,-648]],[[272693,323348],[10058,10917]],[[282751,334265],[5685,-1432]],[[288436,332833],[-625,-9212],[-562,-13202]],[[267258,314410],[5435,8938]],[[466608,345387],[-1125,4026],[-17929,7539],[7496,6721],[-4810,3241],[-625,14943],[-6434,-341],[-2187,2934]],[[440994,384450],[16743,477],[5310,1843]],[[463047,386770],[5997,-2150],[-2374,-4912],[9996,-5220]],[[476666,374488],[-187,-12964]],[[282751,334265],[-1562,4708]],[[281189,338973],[4748,6892],[4311,-3480],[8558,-614],[6248,-7096],[5497,-1911]],[[310676,328159],[-1062,-2798]],[[288561,332833],[-125,0]],[[311051,585118],[5248,2968],[13244,683]],[[329543,588769],[-1562,-9758],[-312,-614],[5248,-12998],[9808,-3002]],[[342725,562397],[-6435,-2081],[-3436,-7915],[1874,-17842],[-874,-990]],[[315112,546738],[-8059,6653],[1562,6482],[-4811,-342]],[[303804,559531],[-1874,7642]],[[301930,567173],[4436,16103],[4685,1842]],[[208846,569800],[-2624,1535]],[[524208,338325],[-3062,-2763],[-6684,4776],[-4998,-10883],[-4685,717],[-4998,-10337],[-7434,102]],[[476666,374488],[5373,443],[9058,-6209],[7997,1297]],[[355844,494063],[812,-238]],[[358155,478950],[-4248,239],[-4623,3036]],[[349284,482225],[6560,11838]],[[309552,488332],[1687,-2627],[-8809,-7403],[-687,-7540]],[[301743,470762],[-8809,5971]],[[881738,35071],[-1686,-1296],[-7685,15795],[-18491,-750],[-3811,5629],[2374,4537],[-15306,-4674],[375,5152]],[[853251,145674],[9995,-478],[6810,-4366]],[[355844,494063],[-3748,-580]],[[352096,493483],[-688,10508],[-6247,9928],[-5123,3480]],[[342725,562397],[9121,3105],[2499,-3003]],[[354345,562499],[-4373,-2729],[2186,-7573],[9184,-11805],[5747,-2831],[10933,3036]],[[378022,540597],[-2374,-6550],[5060,-3241]],[[376647,519207],[-5497,-2388],[-7310,-13920]],[[342287,266205],[-1124,853],[-4561,-1365]],[[336602,265693],[-62,0],[-13244,6073]],[[323296,271766],[4498,238],[8871,7949]],[[336665,279953],[4310,-443],[4499,-7813],[-3187,-5492]],[[871993,175013],[-2874,-3820],[10808,-1809],[-625,-6720],[4498,-2696]],[[376397,462745],[2437,1467]],[[348410,473935],[4248,546],[-3374,7744]],[[364778,475743],[6559,-5254],[-2311,-6072],[7371,-1672]],[[343912,308542],[-5123,-2047]],[[338789,306495],[-2374,5220]],[[336415,311715],[62,34]],[[373774,582457],[125,273]],[[373899,582730],[15618,-16205]],[[389517,566525],[-1999,-1535],[6872,-12486],[-12308,-11429],[-4060,-478]],[[354345,562499],[9870,7676],[3999,6585],[7059,819],[-1499,4878]],[[299556,305199],[-6684,-955],[-2062,4059]],[[295933,322666],[5435,-5902]],[[747235,153009],[6622,477]],[[753857,153486],[812,-14567],[-7372,-3173],[-562,-4435]],[[746735,131311],[-10183,12384],[2874,3446]],[[404760,280431],[-10870,7062],[-188,-4708]],[[393702,282785],[-8496,7335],[-8809,1979],[-7246,7232],[-6622,3719],[-8372,-1399]],[[354157,301651],[-6060,3036]],[[414881,300525],[1936,-5868],[-6247,-1092],[-5810,-13134]],[[314300,318163],[-2249,34]],[[309802,317992],[-9371,6312]],[[527206,196575],[3186,-6278]],[[530392,190297],[-5060,-2763],[-874,239],[-8997,-1160],[-3436,5629]],[[793777,156625],[-4311,-1808]],[[255138,825327],[-28237,8290]],[[226901,833617],[-22616,8802],[-4310,-4197],[-5935,2423],[-5310,-2627],[2186,-6721],[-7309,-7403]],[[183607,823894],[-9121,-1365],[-8496,-15864],[-14869,580],[-3311,-2354]],[[125507,849412],[-9058,69],[-1749,-3514]],[[114700,845967],[-9684,6379],[-1999,5766]],[[103017,858112],[2499,10405],[3936,2661],[937,12043],[6622,1706],[-7059,14806],[6122,3855],[-3686,3821],[7809,3957]],[[120197,911366],[4248,-8460],[24365,-2115],[1749,-4640],[8059,-1092],[5060,7199],[6435,-4435],[5685,1569],[13806,-2934],[8247,1057],[8121,-14840],[3311,-10917],[22428,-21663],[9746,-13988],[13681,-10780]],[[776909,184122],[-5122,3821],[3123,9826],[8247,5595],[-3561,3923]],[[779596,207287],[-2874,12725],[11557,7540]],[[788279,227552],[5248,-7472],[6372,-4298],[-250,-6039],[5373,-11531]],[[140251,974719],[-5997,-6652],[8683,-717],[4186,-6993],[7934,-6414]],[[155057,953943],[-7872,-2627],[-10308,819],[-5685,-6312],[3062,-5185],[-7622,-4162],[-812,-5015],[-7559,-1024],[14868,-5083]],[[133129,925354],[-2999,-7130],[-9933,-6858]],[[103017,858112],[-62,0],[-8934,1979],[-4435,-3412],[-16868,-2661]],[[72718,854018],[-1749,3514],[3186,21936],[-17055,-1194],[-4498,2354],[1374,5118],[-4560,6004],[-11245,-9962]],[[38171,881788],[-5873,-1501],[-5997,5697],[1000,13647],[8808,-990],[-2686,4128],[-8059,-3002],[-5060,4981],[3311,1433],[7871,2183],[5435,-3480],[11933,17945],[374,13510],[18867,11122],[-1624,6482],[3686,3923],[-9559,-1330],[1250,3616],[-7309,136],[-8184,9314],[-6185,-1774],[-11308,7812],[-8621,1979],[-687,4640],[-19554,-307],[2187,6414],[11245,614],[4685,-2730],[8684,1058],[10870,5151],[5872,-2865],[3561,3787],[6560,-6107],[10933,-1979],[8184,4674],[-1312,9552],[5372,478],[19554,-478],[1375,-7983],[13681,-4810],[1937,-5663],[9496,-3685],[5935,2115],[11432,-4776]],[[295808,662902],[9746,-13305]],[[305554,649597],[-11995,-6823],[-4561,-6789],[12682,-3821]],[[303554,607669],[-2748,-8836],[8059,-4981],[2186,-8734]],[[301930,567173],[-2811,-1603],[-24177,7403],[-5685,1740],[-10995,3480],[-1562,5731]],[[251890,628547],[-1312,12384],[-5560,6858]],[[245018,647789],[11619,12111]],[[422190,341566],[9371,-4435],[4998,990]],[[367964,351187],[2061,3411]],[[370025,354598],[19054,-1159],[6310,4946],[6372,69]],[[440994,384450],[-10495,-3344],[-500,-3343]],[[405510,387725],[6309,5356],[9434,3139],[15118,12384],[16368,8528]],[[461610,394889],[1437,-8119]],[[281189,338973],[-1249,6994],[-4623,3446],[3186,5390],[250,273]],[[260386,420032],[-5685,10030],[6310,512],[1874,9860],[-11183,2081],[-4310,8597],[-1500,8767],[2811,6687],[7810,1876]],[[284563,468954],[6684,-4264],[7310,307]],[[298557,464997],[13056,-12759]],[[301993,441048],[-12870,-1638],[-11745,-5015],[10683,-12555],[-9183,-614]],[[278878,421226],[-2937,956],[-11057,955],[-4498,-3105]],[[49041,772720],[-5060,8939],[-7684,4537]],[[36297,786196],[5622,5800],[562,1194],[-187,2490]],[[42294,795680],[4186,4367],[6309,-3412],[3749,6073],[3623,-1399]],[[60161,801309],[-4310,-4674],[6934,-5424],[-4623,-7608],[9683,-5527],[9496,1672],[6560,-3650],[187,-8086]],[[84088,768012],[-8059,-8119]],[[76029,759893],[-625,-1535],[-1999,1023]],[[73405,759381],[-14493,12759],[-9871,580]],[[640032,115584],[4810,-11122],[11620,-2900]],[[656462,101562],[-10870,-6482],[-3936,580],[-10120,-11053],[-1375,2627],[-8933,-5834]],[[621228,81400],[-4124,-989],[-3186,5970],[10995,5834],[-7934,4537],[-7934,-3104],[-2061,9279],[-9683,1774],[-1875,6926],[-5122,3479],[-6310,-5390],[-5935,137],[-3498,-6687],[-1312,-11804]],[[573249,91362],[-5873,989],[-18179,14124],[812,11702],[4748,1194],[3561,10200],[-1999,3173],[2124,648],[9558,19105]],[[568001,152497],[5185,-4742],[8809,-819]],[[235209,632266],[1250,5834],[5372,2763],[3187,6926]],[[298557,464997],[3186,5765]],[[301743,470762],[10683,1297],[5560,5936]],[[317986,477995],[6684,-5220],[0,-5970]],[[176673,943435],[-14744,-3411],[-7122,-4367],[375,-5800],[-5685,-4264],[-5872,1160],[3935,6959],[-4435,1092],[-3436,682],[-1062,-8324],[-5498,-1808]],[[155057,953943],[8621,-2764],[2999,4231],[10183,6072],[-1812,-2285],[1625,-15762]],[[393515,385712],[-26426,1842]],[[367089,387554],[2374,3139]],[[433810,431734],[2998,-7710],[9621,2559],[7747,-1911]],[[309552,310214],[-63,-6346]],[[309489,303868],[-3748,1809]],[[305741,305677],[-1937,136]],[[322234,311715],[-3374,-1979],[-5435,4640],[-3873,-4162]],[[333666,458140],[-1374,-171]],[[330980,465236],[2999,716]],[[316049,279953],[-1250,2252]],[[317736,293838],[10932,0]],[[328668,293838],[-1249,-9825]],[[327419,284013],[-11370,-4060]],[[626538,251262],[-6185,2013]],[[620353,253275],[-375,6345],[-6997,5902],[-1936,9894],[5934,3070]],[[318360,304312],[-8871,-444]],[[309552,310214],[8059,-2491]],[[676453,255526],[3062,3378],[-9684,5186],[-187,4264],[-7934,1058]],[[669019,296090],[3124,-1467],[17680,-102],[11744,-10167],[8434,-2047],[5873,-7915]],[[640094,207833],[7684,2115],[10558,8461],[1999,15829],[9059,3002],[7059,18286]],[[724120,148779],[-5185,-7813],[1312,-11872],[-9809,-8120],[7685,-5663],[18991,-8085],[-874,-6005],[8371,1433],[-437,-11838],[-10995,2627],[-12058,9450],[-1124,5731],[-7060,-2729],[10996,-12827],[-11433,2422],[-1812,-12657],[3062,-1262]],[[685324,75396],[-9558,11735],[-4998,2593],[4873,4811],[13119,2626],[-624,6960],[-9559,8904],[-5122,-4025],[-6123,818],[-7496,-8836],[-3374,580]],[[619104,225027],[5310,5117],[-812,17741],[-3249,5390]],[[746735,131311],[500,-7471],[7434,-7301],[-2624,-3411],[9184,-1672],[-1750,-6073],[3686,-2490],[937,-19139]],[[753295,171772],[9308,-341]],[[766789,158160],[-12932,-4674]],[[339539,384245],[6997,1535]],[[300118,286538],[-1811,-2081],[-11495,-2730]],[[286812,281727],[-1812,887]],[[305741,305677],[-375,-6789]],[[424251,357703],[-7121,3070],[0,4572]],[[751483,234955],[7059,2729],[2062,-5936],[-2436,-9007]],[[758168,222741],[3998,-11121],[-7185,-1058],[-1874,-6516],[3374,-12248],[9246,-853],[62,-5253],[-7247,-512],[-3686,-7028],[10184,-853]],[[176673,943435],[5185,-16102],[10308,-20572],[17804,-25519],[10308,-12008],[26426,-22824],[14931,-10439],[4748,-6550]],[[266383,829421],[-11245,-4094]],[[172112,784797],[3623,2218]],[[201474,777224],[-7372,-5015],[1062,-6141],[-4248,-3173]],[[168051,766579],[-8184,2764]],[[165053,780499],[7059,4298]],[[183607,823894],[2249,-7676],[-4623,-5834],[19429,1535],[11245,6380],[7622,-7199],[-2624,-10541],[-2874,1637]],[[183295,802469],[749,4094],[-9058,-3002],[6310,-2627]],[[178797,792610],[-9059,-2593],[2374,-5220]],[[85587,811919],[-62,103],[-1937,852],[0,137],[1187,955],[688,5049],[-1187,717],[4373,10712],[6622,3173],[999,-137],[6872,-2149],[4311,3582],[125,375],[1812,819],[62,0],[3436,0],[1812,9860]],[[97457,745428],[-7871,7471]],[[89586,752899],[3873,580],[-3311,11224],[-6060,3309]],[[60161,801309],[4061,-3582],[5123,6926],[-3187,4571],[15306,9860],[250,-8700],[3873,1535]],[[326357,495837],[-1000,-11394],[-7371,-6448]],[[183607,689922],[20491,-819],[4748,4264],[6747,-3957]],[[215593,689410],[2561,-2968],[-5372,-9143],[-1062,-14295],[-10058,-2763],[-63,-3343],[-8996,-1706]],[[192603,655192],[-8809,2558],[-499,10952],[-188,5765],[4811,1706],[1561,6652],[1375,4299],[-7247,2798]],[[305554,649597],[15493,-15113],[13119,-10235],[15181,-18457],[24552,-23062]],[[373774,582457],[-6810,-785],[-6872,7676],[-6560,-1466],[-6247,5015],[-10620,-4436],[-4623,4197],[-2499,-3889]],[[322046,270981],[1250,785]],[[336602,265693],[-4935,-3992]],[[331667,261701],[-16180,-12827],[-6185,10849]],[[183607,689922],[-4436,2354],[-9933,-3173],[-3061,4878],[-7996,-375],[-3124,-6891]],[[159118,736831],[10807,7778],[-2936,3821],[14994,-7540],[687,9928]],[[192478,760609],[13369,-1433],[1437,-3616],[14494,-11122]],[[221778,744438],[6934,614],[2874,-6413],[-17367,-12725],[4560,-10576],[8122,818],[6059,-4025],[-1561,-15284]],[[231399,696847],[-4061,1092],[-437,-6448],[-11308,-2081]],[[42294,795680],[-7309,2047],[-1250,1774],[-2249,5390],[1000,6209],[-3061,7540],[-13744,7983],[-4498,9007],[749,6823],[-4435,750],[4810,7369],[11995,3105]],[[24302,853677],[4373,-7744],[17367,5833],[7310,-2865],[16867,1808],[2499,3309]],[[365777,395742],[-12057,-5527],[-6060,2866],[12744,10542]],[[352096,493483],[-7247,-2319]],[[344849,491164],[-12182,5560]],[[328481,416791],[-2499,5049]],[[361904,364287],[8121,-9689]],[[338789,306495],[2062,-3104],[-12183,-9553]],[[568001,152497],[-4810,24598]],[[584056,202204],[12682,8836],[2312,8017],[-3749,716],[4311,8973]],[[608608,228507],[0,-137]],[[93022,665154],[2686,-2389],[-6997,-10917]],[[88711,651848],[-12807,-6993],[-5310,1603],[-1249,-5015],[-3311,-1228],[-10183,-1501]],[[68220,665597],[3311,1911],[6372,-4572],[15119,2218]],[[327419,284013],[9246,-4060]],[[321859,272277],[-5810,7676]],[[393702,282785],[1000,-6891],[-4498,-5015],[500,-5186],[-5435,-4401],[8808,-5629],[-4498,-8154],[-187,-6209],[4873,-2047],[-2937,-8938],[-7309,1774],[937,4060],[-10433,6345],[-3061,15455],[-8933,-3480],[-4686,6107]],[[357843,260576],[5060,6345],[1375,5254],[-5498,7881],[-4560,13509],[-63,8086]],[[442806,300082],[874,-9382],[13120,1671],[6809,-5219],[9871,204],[14806,-5731],[7122,2388],[6747,-8358],[8996,1296],[10370,-3343]],[[525395,234682],[-9496,5185],[-11120,1399],[-8559,-6448],[-19679,3275],[-6934,-8119],[874,-9484]],[[470481,220490],[-1374,1091],[-3561,7506],[-63,0],[-6372,9791],[-9933,5527],[-3436,12793],[-7247,11702],[-10120,3616],[-10371,-341],[-4560,2627],[0,68],[-8684,5561]],[[224714,628718],[-9496,12691],[-11932,1672],[-1375,-3753],[-5435,5254],[-3186,239],[-687,10371]],[[231399,696847],[3248,2968],[6747,-3684],[-4435,-5186],[687,-6243],[6622,-7813],[5685,-784],[1562,-2457]],[[544324,208174],[8121,-9143],[-6309,-2456],[1624,-9212]],[[547760,187363],[-3124,2968],[-7934,273],[-4061,-1194],[-624,-204],[-1625,1091]],[[344849,491164],[-6435,-1774],[1062,-4401]],[[359030,382437],[2312,4708],[5747,409]],[[112451,652667],[-2249,-5697],[-9933,-10508],[-7685,-239],[-10183,-6959]],[[82401,629264],[-4623,5254],[6435,3002],[2561,6584],[2000,7642],[-63,102]],[[93022,665154],[5685,6345],[-750,4265]],[[281064,524426],[-1062,8290],[10621,7062],[-625,5015],[13806,14738]],[[302992,269036],[437,4197]],[[303429,273233],[188,-273],[1437,10541]],[[259574,743006],[16555,-34526],[10245,-15556],[2124,-6516]],[[221778,744438],[3748,3617],[17055,2251],[6997,-4059],[2999,3138],[6997,-6379]],[[557755,186408],[-9995,955]],[[463484,442822],[4248,-6653],[-2561,-8972]],[[389517,566525],[24989,-28009],[2873,-6755],[7497,-8768]],[[303429,273233],[-16617,8494]],[[82401,629264],[-2186,-1877],[-8372,-9859],[-8558,-5458],[-4998,545]],[[357843,260576],[-6560,4264],[-5185,-2593],[-5372,3582],[-8497,-4776],[-562,648]],[[49791,671499],[687,6073]],[[66658,686783],[8621,409],[-937,-3377],[11183,1330]],[[232273,564990],[1562,-2252],[-12869,-9382],[-4998,-1364],[-1874,3275],[-1812,11429]],[[897044,201828],[63,-2627],[1936,-6345],[3686,1433],[63,-8256],[5310,-13032],[-1874,-9860],[4435,-3650],[-5685,-3514]],[[875429,197155],[21615,4673]],[[24302,853677],[-1687,5629],[6747,-3821],[3873,5424],[11558,7403],[-6622,13476]],[[494783,196882],[-9121,-4606],[-13994,18866],[3061,7164],[-4248,2184]],[[779596,207287],[-6935,-1160],[-1249,-8495],[-3124,-102],[2561,15693],[-6622,-2456],[-1312,7403],[-4747,4571]],[[752483,246725],[14681,10439]],[[767164,257164],[3061,-10985],[8059,-11190],[9995,-7437]],[[905540,2354],[-129318,6618]],[[621228,81400],[-8434,-4162],[-5123,-2627],[-9246,2320],[-11245,-5288],[-8309,12589],[-11557,3957],[5935,3173]],[[302180,409593],[-10246,-2115],[-2936,2627],[1000,6823],[-11120,4298]],[[89586,752899],[-4311,-3991],[-6560,1364],[-2686,9621]],[[73405,759381],[-6184,-2866],[-4811,-1501],[-11245,273],[-375,785]],[[50790,756072],[-500,5765],[-3311,6175],[2062,4708]],[[50790,756072],[-312,0],[-3374,2013],[-1999,4708],[-5685,4946],[2624,3787],[-9496,-1057],[-5372,3718],[9121,12009]],[[745548,264840],[16305,-1876],[5311,-5800]],[[226901,833617],[3498,-21323],[-1437,-10746],[-7871,-4913]],[[266383,829421],[188,-7096],[-8872,-22449],[-7059,-11633],[-1999,-20265],[5560,-15488],[5373,-9484]],[[484912,399290],[7809,-2832],[1625,-4503],[9933,-5936],[937,-4299]]],"transform":{"scale":[0.00000507383370415124,0.00000533090170399197],"translate":[-98.681940205387,17.13680284664393]},"objects":{"municipalities":{"type":"GeometryCollection","geometries":[{"arcs":[[0,1,2,3,4,5]],"type":"Polygon","properties":{"cvegeo":"30001","nombre":"Acajete"}},{"arcs":[[6,7,8,9,10]],"type":"Polygon","properties":{"cvegeo":"30002","nombre":"Acatlán"}},{"arcs":[[11,12,13,14,15,16,17]],"type":"Polygon","properties":{"cvegeo":"30003","nombre":"Acayucan"}},{"arcs":[[18,19,20,21,22,23]],"type":"Polygon","properties":{"cvegeo":"30004","nombre":"Actopan"}},{"arcs":[[24,25,26,27]],"type":"Polygon","properties":{"cvegeo":"30005","nombre":"Acula"}},{"arcs":[[28,29,30,31,32,33]],"type":"Polygon","properties":{"cvegeo":"30006","nombre":"Acultzingo"}},{"arcs":[[34,35,36]],"type":"Polygon","properties":{"cvegeo":"30007","nombre":"Camarón de Tejeda"}},{"arcs":[[37,38]],"type":"Polygon","properties":{"cvegeo":"30008","nombre":"Alpatláhuac"}},{"arcs":[[-22,39,40,41,42,43,44]],"type":"Polygon","properties":{"cvegeo":"30009","nombre":"Alto Lucero de Gutiérrez Barrios"}},{"arcs":[[45,46,47,48,49,50,51,52]],"type":"Polygon","properties":{"cvegeo":"30010","nombre":"Altotonga"}},{"arcs":[[53,54,-26,55,56,57,58,59,60]],"type":"Polygon","properties":{"cvegeo":"30011","nombre":"Alvarado"}},{"arcs":[[61,62,63,-28,64]],"type":"Polygon","properties":{"cvegeo":"30012","nombre":"Amatitlán"}},{"arcs":[[65,66,67,68]],"type":"Polygon","properties":{"cvegeo":"30013","nombre":"Naranjos Amatlán"}},{"arcs":[[69,70,71,72,73,74,75,76,77]],"type":"Polygon","properties":{"cvegeo":"30014","nombre":"Amatlán de los Reyes"}},{"arcs":[[78,79,80,81,82]],"type":"Polygon","properties":{"cvegeo":"30015","nombre":"Angel R. Cabada"}},{"arcs":[[83,84,85,86,87]],"type":"Polygon","properties":{"cvegeo":"30016","nombre":"La Antigua"}},{"arcs":[[88,89,90,91]],"type":"Polygon","properties":{"cvegeo":"30017","nombre":"Apazapan"}},{"arcs":[[-30,92,93]],"type":"Polygon","properties":{"cvegeo":"30018","nombre":"Aquila"}},{"arcs":[[94,95,96,97]],"type":"Polygon","properties":{"cvegeo":"30019","nombre":"Astacinga"}},{"arcs":[[98,99,100,101,102]],"type":"Polygon","properties":{"cvegeo":"30020","nombre":"Atlahuilco"}},{"arcs":[[103,104,105,-70,-78,106,107]],"type":"Polygon","properties":{"cvegeo":"30021","nombre":"Atoyac"}},{"arcs":[[108,109,110,111,112,113,114]],"type":"Polygon","properties":{"cvegeo":"30022","nombre":"Atzacan"}},{"arcs":[[115,116,117,118,119,-52]],"type":"Polygon","properties":{"cvegeo":"30023","nombre":"Atzalan"}},{"arcs":[[120,121,122,123,124,125,126,127,128,129,130,-91,131]],"type":"Polygon","properties":{"cvegeo":"30024","nombre":"Tlaltetela"}},{"arcs":[[132,133,134,135]],"type":"Polygon","properties":{"cvegeo":"30026","nombre":"Banderilla"}},{"arcs":[[136,137,138,139,140]],"type":"Polygon","properties":{"cvegeo":"30027","nombre":"Benito Juárez"}},{"arcs":[[141,-60,142,143]],"type":"Polygon","properties":{"cvegeo":"30028","nombre":"Boca del Río"}},{"arcs":[[144,145,146,147,-39]],"type":"Polygon","properties":{"cvegeo":"30029","nombre":"Calcahualco"}},{"arcs":[[148,149,150,151,152]],"type":"Polygon","properties":{"cvegeo":"30030","nombre":"Camerino Z. Mendoza"}},{"arcs":[[153,154,155]],"type":"Polygon","properties":{"cvegeo":"30031","nombre":"Carrillo Puerto"}},{"arcs":[[156,157,158,159,160,161]],"type":"Polygon","properties":{"cvegeo":"30032","nombre":"Catemaco"}},{"arcs":[[162,163,164,165]],"type":"Polygon","properties":{"cvegeo":"30033","nombre":"Cazones de Herrera"}},{"arcs":[[166,167,168,169]],"type":"Polygon","properties":{"cvegeo":"30034","nombre":"Cerro Azul"}},{"arcs":[[170,171,172,173]],"type":"Polygon","properties":{"cvegeo":"30035","nombre":"Citlaltépetl"}},{"arcs":[[174,175,176,177,178]],"type":"Polygon","properties":{"cvegeo":"30036","nombre":"Coacoatzintla"}},{"arcs":[[179,180,181]],"type":"Polygon","properties":{"cvegeo":"30037","nombre":"Coahuitlán"}},{"arcs":[[182,183,-130,184,185,186,-4,187,188,189]],"type":"Polygon","properties":{"cvegeo":"30038","nombre":"Coatepec"}},{"arcs":[[190,191,192,193,194,195,196]],"type":"Polygon","properties":{"cvegeo":"30039","nombre":"Coatzacoalcos"}},{"arcs":[[197,198,199,200,201,202]],"type":"Polygon","properties":{"cvegeo":"30040","nombre":"Coatzintla"}},{"arcs":[[-73,203,204,205]],"type":"Polygon","properties":{"cvegeo":"30041","nombre":"Coetzala"}},{"arcs":[[206,207,208,209]],"type":"Polygon","properties":{"cvegeo":"30042","nombre":"Colipa"}},{"arcs":[[210,211,212,213,214,215,216,217]],"type":"Polygon","properties":{"cvegeo":"30043","nombre":"Comapa"}},{"arcs":[[218,219,220,221,-76]],"type":"Polygon","properties":{"cvegeo":"30044","nombre":"Córdoba"}},{"arcs":[[222,223,224,225,226,227,228,229,230]],"type":"Polygon","properties":{"cvegeo":"30045","nombre":"Cosamaloapan de Carpio"}},{"arcs":[[231,232,-128,233]],"type":"Polygon","properties":{"cvegeo":"30046","nombre":"Cosautlán de Carvajal"}},{"arcs":[[234,235,-112,236,-145,-38,-148,237,238,239]],"type":"Polygon","properties":{"cvegeo":"30047","nombre":"Coscomatepec"}},{"arcs":[[-194,240,241,242,243,244,245,246,247]],"type":"Polygon","properties":{"cvegeo":"30048","nombre":"Cosoleacaque"}},{"arcs":[[248,249,250,251,252,253,-154,254,255]],"type":"Polygon","properties":{"cvegeo":"30049","nombre":"Cotaxtla"}},{"arcs":[[256,257,258,259,260,261]],"type":"Polygon","properties":{"cvegeo":"30050","nombre":"Coxquihui"}},{"arcs":[[262,-261,263,264,265,-180,266,-199]],"type":"Polygon","properties":{"cvegeo":"30051","nombre":"Coyutla"}},{"arcs":[[267,-72,268,269]],"type":"Polygon","properties":{"cvegeo":"30052","nombre":"Cuichapa"}},{"arcs":[[-105,270,-155,-254,271,272,-270,273]],"type":"Polygon","properties":{"cvegeo":"30053","nombre":"Cuitláhuac"}},{"arcs":[[274,275,-228,276,277]],"type":"Polygon","properties":{"cvegeo":"30054","nombre":"Chacaltianguis"}},{"arcs":[[278,279,-42,280,-8,281,282]],"type":"Polygon","properties":{"cvegeo":"30057","nombre":"Chiconquiaco"}},{"arcs":[[283,-140,284,285,286,287,288,289]],"type":"Polygon","properties":{"cvegeo":"30058","nombre":"Chicontepec"}},{"arcs":[[290,291,-247,292,293,294,295]],"type":"Polygon","properties":{"cvegeo":"30059","nombre":"Chinameca"}},{"arcs":[[296,297,-67,298,299,300]],"type":"Polygon","properties":{"cvegeo":"30060","nombre":"Chinampa de Gorostiza"}},{"arcs":[[301,302,303,304,305]],"type":"Polygon","properties":{"cvegeo":"30061","nombre":"Las Choapas"}},{"arcs":[[306,-220,307,-113,-236]],"type":"Polygon","properties":{"cvegeo":"30062","nombre":"Chocamán"}},{"arcs":[[-174,308,309,310,311,312]],"type":"Polygon","properties":{"cvegeo":"30063","nombre":"Chontla"}},{"arcs":[[-264,-260,313]],"type":"Polygon","properties":{"cvegeo":"30064","nombre":"Chumatlán"}},{"arcs":[[314,315,-20,316,-89,317,-183,-190,318]],"type":"Polygon","properties":{"cvegeo":"30065","nombre":"Emiliano Zapata"}},{"arcs":[[-262,-263,-198,319,320,321]],"type":"Polygon","properties":{"cvegeo":"30066","nombre":"Espinal"}},{"arcs":[[-266,322,323,-181]],"type":"Polygon","properties":{"cvegeo":"30067","nombre":"Filomeno Mata"}},{"arcs":[[-75,324,325,-114,-308,-219]],"type":"Polygon","properties":{"cvegeo":"30068","nombre":"Fortín"}},{"arcs":[[326,327]],"type":"Polygon","properties":{"cvegeo":"30069","nombre":"Gutiérrez Zamora"}},{"arcs":[[328,329,330,331,332,333]],"type":"Polygon","properties":{"cvegeo":"30070","nombre":"Hidalgotitlán"}},{"arcs":[[334,335,-239,336,-125,337,338,-217,339]],"type":"Polygon","properties":{"cvegeo":"30071","nombre":"Huatusco"}},{"arcs":[[340,341,342,343]],"type":"Polygon","properties":{"cvegeo":"30072","nombre":"Huayacocotla"}},{"arcs":[[-160,344,-12,345,346,347]],"type":"Polygon","properties":{"cvegeo":"30073","nombre":"Hueyapan de Ocampo"}},{"arcs":[[348,-150,-149,349,350,351,352]],"type":"Polygon","properties":{"cvegeo":"30074","nombre":"Huiloapan de Cuauhtémoc"}},{"arcs":[[353,-57,354,355,356]],"type":"Polygon","properties":{"cvegeo":"30075","nombre":"Ignacio de la Llave"}},{"arcs":[[357,358]],"type":"Polygon","properties":{"cvegeo":"30076","nombre":"Ilamatlán"}},{"arcs":[[359,360,361,-347,362,363,364]],"type":"Polygon","properties":{"cvegeo":"30077","nombre":"Isla"}},{"arcs":[[-311,365,-287,366]],"type":"Polygon","properties":{"cvegeo":"30078","nombre":"Ixcatepec"}},{"arcs":[[-234,-127,367,368,369,370,371]],"type":"Polygon","properties":{"cvegeo":"30079","nombre":"Ixhuacán de los Reyes"}},{"arcs":[[372,-107,-77,-222,373,-240,-336]],"type":"Polygon","properties":{"cvegeo":"30080","nombre":"Ixhuatlán del Café"}},{"arcs":[[374,375,376,377]],"type":"Polygon","properties":{"cvegeo":"30081","nombre":"Ixhuatlancillo"}},{"arcs":[[378,-242,379,-192,380]],"type":"Polygon","properties":{"cvegeo":"30082","nombre":"Ixhuatlán del Sureste"}},{"arcs":[[381,382,-141,-284,-290,383,384]],"type":"Polygon","properties":{"cvegeo":"30083","nombre":"Ixhuatlán de Madero"}},{"arcs":[[385,-355,-56,-25,-64,386,-226]],"type":"Polygon","properties":{"cvegeo":"30084","nombre":"Ixmatlahuacan"}},{"arcs":[[387,388,389,390,-115,-326,391,392,393]],"type":"Polygon","properties":{"cvegeo":"30085","nombre":"Ixtaczoquitlán"}},{"arcs":[[-116,-51,394,395,396]],"type":"Polygon","properties":{"cvegeo":"30086","nombre":"Jalacingo"}},{"arcs":[[397,398,-315,-319,-189,399,-136]],"type":"Polygon","properties":{"cvegeo":"30087","nombre":"Xalapa"}},{"arcs":[[-184,-318,-92,-131]],"type":"Polygon","properties":{"cvegeo":"30088","nombre":"Jalcomulco"}},{"arcs":[[400,401,-294,402,403,-244,404,-333]],"type":"Polygon","properties":{"cvegeo":"30089","nombre":"Jáltipan"}},{"arcs":[[405,-250,406,407]],"type":"Polygon","properties":{"cvegeo":"30090","nombre":"Jamapa"}},{"arcs":[[408,-331,409,410,411,412]],"type":"Polygon","properties":{"cvegeo":"30091","nombre":"Jesús Carranza"}},{"arcs":[[413,-186,414,-370,415]],"type":"Polygon","properties":{"cvegeo":"30092","nombre":"Xico"}},{"arcs":[[-177,416,-398,-135,417,418]],"type":"Polygon","properties":{"cvegeo":"30093","nombre":"Jilotepec"}},{"arcs":[[-346,-18,419,420,-363]],"type":"Polygon","properties":{"cvegeo":"30094","nombre":"Juan Rodríguez Clara"}},{"arcs":[[-208,421,-43,-280,422]],"type":"Polygon","properties":{"cvegeo":"30095","nombre":"Juchique de Ferrer"}},{"arcs":[[-7,423,424,-282]],"type":"Polygon","properties":{"cvegeo":"30096","nombre":"Landero y Coss"}},{"arcs":[[-79,425,426,-54,427]],"type":"Polygon","properties":{"cvegeo":"30097","nombre":"Lerdo de Tejada"}},{"arcs":[[428,429,-388,430]],"type":"Polygon","properties":{"cvegeo":"30098","nombre":"Magdalena"}},{"arcs":[[431,432,433,-31,-94,434]],"type":"Polygon","properties":{"cvegeo":"30099","nombre":"Maltrata"}},{"arcs":[[-249,435,436,437,438,-407]],"type":"Polygon","properties":{"cvegeo":"30100","nombre":"Manlio Fabio Altamirano"}},{"arcs":[[439,440,-110,441,-377,442,-433]],"type":"Polygon","properties":{"cvegeo":"30101","nombre":"Mariano Escobedo"}},{"arcs":[[443,444,445,-118,446,447,448]],"type":"Polygon","properties":{"cvegeo":"30102","nombre":"Martínez de la Torre"}},{"arcs":[[-314,-259,449,-323,-265]],"type":"Polygon","properties":{"cvegeo":"30103","nombre":"Mecatlán"}},{"arcs":[[-59,450,-251,-406,-408,-439,451,-143]],"type":"Polygon","properties":{"cvegeo":"30105","nombre":"Medellín de Bravo"}},{"arcs":[[452,-424,-11,453,454]],"type":"Polygon","properties":{"cvegeo":"30106","nombre":"Miahuatlán"}},{"arcs":[[455,456,-48]],"type":"Polygon","properties":{"cvegeo":"30107","nombre":"Las Minas"}},{"arcs":[[457,-329,-334,-405,-243,-379,458,-304]],"type":"Polygon","properties":{"cvegeo":"30108","nombre":"Minatitlán"}},{"arcs":[[-283,-425,-453,459,460,-119,-446,461,462,463,-210,464]],"type":"Polygon","properties":{"cvegeo":"30109","nombre":"Misantla"}},{"arcs":[[465,466,467,468]],"type":"Polygon","properties":{"cvegeo":"30110","nombre":"Mixtla de Altamirano"}},{"arcs":[[-305,-459,-381,-191,469]],"type":"Polygon","properties":{"cvegeo":"30111","nombre":"Moloacán"}},{"arcs":[[470,-40,-21,-316,-399,-417,-176,471,-454,-10,472]],"type":"Polygon","properties":{"cvegeo":"30112","nombre":"Naolinco"}},{"arcs":[[-325,-74,-206,473,474,475,-392]],"type":"Polygon","properties":{"cvegeo":"30113","nombre":"Naranjal"}},{"arcs":[[476,477,478,-463,479]],"type":"Polygon","properties":{"cvegeo":"30114","nombre":"Nautla"}},{"arcs":[[-351,-350,-153,480,-32,-434,-443,-376,481]],"type":"Polygon","properties":{"cvegeo":"30115","nombre":"Nogales"}},{"arcs":[[482,483,484,-15]],"type":"Polygon","properties":{"cvegeo":"30116","nombre":"Oluta"}},{"arcs":[[485,486,487,-204,-268,-273,488]],"type":"Polygon","properties":{"cvegeo":"30117","nombre":"Omealca"}},{"arcs":[[-378,-442,-109,-391,489,-353,490]],"type":"Polygon","properties":{"cvegeo":"30118","nombre":"Orizaba"}},{"arcs":[[491,492,-231]],"type":"Polygon","properties":{"cvegeo":"30119","nombre":"Otatitlán"}},{"arcs":[[493,-403,-293,-246]],"type":"Polygon","properties":{"cvegeo":"30120","nombre":"Oteapan"}},{"arcs":[[494,495,496,-171,-313,497,498,499,500]],"type":"Polygon","properties":{"cvegeo":"30121","nombre":"Ozuluama de Mascareñas"}},{"arcs":[[-195,-248,-292,501,502,503]],"type":"Polygon","properties":{"cvegeo":"30122","nombre":"Pajapan"}},{"arcs":[[504,505,506,-500,507,508,509]],"type":"Polygon","properties":{"cvegeo":"30123","nombre":"Pánuco"}},{"arcs":[[-165,510,511,-327,512,-449,513,-320,-203,514,515]],"type":"Polygon","properties":{"cvegeo":"30124","nombre":"Papantla"}},{"arcs":[[516,-255,-156,-271,-104,517,518,-37]],"type":"Polygon","properties":{"cvegeo":"30125","nombre":"Paso del Macho"}},{"arcs":[[519,-214,520,-85,521,-437]],"type":"Polygon","properties":{"cvegeo":"30126","nombre":"Paso de Ovejas"}},{"arcs":[[-146,-237,-111,-441,522]],"type":"Polygon","properties":{"cvegeo":"30127","nombre":"La Perla"}},{"arcs":[[523,-395,-50,524,525,-5,-187,-414,526,527]],"type":"Polygon","properties":{"cvegeo":"30128","nombre":"Perote"}},{"arcs":[[528,529,530,531,532,533,534]],"type":"Polygon","properties":{"cvegeo":"30129","nombre":"Platón Sánchez"}},{"arcs":[[-364,-421,535,536,537,538,539]],"type":"Polygon","properties":{"cvegeo":"30130","nombre":"Playa Vicente"}},{"arcs":[[-202,540,-515]],"type":"Polygon","properties":{"cvegeo":"30131","nombre":"Poza Rica de Hidalgo"}},{"arcs":[[541,542,543,-6,-526]],"type":"Polygon","properties":{"cvegeo":"30132","nombre":"Las Vigas de Ramírez"}},{"arcs":[[544,-506,545]],"type":"Polygon","properties":{"cvegeo":"30133","nombre":"Pueblo Viejo"}},{"arcs":[[-521,-213,546,547,-121,-132,-90,-317,-19,548,-86]],"type":"Polygon","properties":{"cvegeo":"30134","nombre":"Puente Nacional"}},{"arcs":[[549,550,551,-151,-349,-490,-390,552]],"type":"Polygon","properties":{"cvegeo":"30135","nombre":"Rafael Delgado"}},{"arcs":[[553,-2,554,-418,-134]],"type":"Polygon","properties":{"cvegeo":"30136","nombre":"Rafael Lucio"}},{"arcs":[[555,-99,556,557,558]],"type":"Polygon","properties":{"cvegeo":"30137","nombre":"Los Reyes"}},{"arcs":[[-352,-482,-375,-491]],"type":"Polygon","properties":{"cvegeo":"30138","nombre":"Río Blanco"}},{"arcs":[[-83,559,560,-426]],"type":"Polygon","properties":{"cvegeo":"30139","nombre":"Saltabarranca"}},{"arcs":[[-429,561,-550,562]],"type":"Polygon","properties":{"cvegeo":"30140","nombre":"San Andrés Tenejapan"}},{"arcs":[[563,-81,564,-161,-348,-362,565]],"type":"Polygon","properties":{"cvegeo":"30141","nombre":"San Andrés Tuxtla"}},{"arcs":[[-17,566,-412,567,-536,-420]],"type":"Polygon","properties":{"cvegeo":"30142","nombre":"San Juan Evangelista"}},{"arcs":[[-361,568,-560,-82,-564,-566]],"type":"Polygon","properties":{"cvegeo":"30143","nombre":"Santiago Tuxtla"}},{"arcs":[[569,-413,-567,-16,-485]],"type":"Polygon","properties":{"cvegeo":"30144","nombre":"Sayula de Alemán"}},{"arcs":[[570,-295,-402,571,-483,-14]],"type":"Polygon","properties":{"cvegeo":"30145","nombre":"Soconusco"}},{"arcs":[[572,-218,-339]],"type":"Polygon","properties":{"cvegeo":"30146","nombre":"Sochiapa"}},{"arcs":[[573,574,-33,-481,-152,-552,575,-102]],"type":"Polygon","properties":{"cvegeo":"30147","nombre":"Soledad Atzompa"}},{"arcs":[[-36,576,-215,-520,-436,-256,-517]],"type":"Polygon","properties":{"cvegeo":"30148","nombre":"Soledad de Doblado"}},{"arcs":[[-296,-571,-13,-345,-159,577,578]],"type":"Polygon","properties":{"cvegeo":"30149","nombre":"Soteapan"}},{"arcs":[[-507,-545,579,580,-501]],"type":"Polygon","properties":{"cvegeo":"30152","nombre":"Tampico Alto"}},{"arcs":[[581,-69,582,-170,583,-309,-173,584]],"type":"Polygon","properties":{"cvegeo":"30153","nombre":"Tancoco"}},{"arcs":[[-497,585,-301,586,-299,587,-585,-172]],"type":"Polygon","properties":{"cvegeo":"30154","nombre":"Tantima"}},{"arcs":[[588,-498,-312,-367,-286,589,590,-532,591]],"type":"Polygon","properties":{"cvegeo":"30155","nombre":"Tantoyuca"}},{"arcs":[[-543,-456,-47,592]],"type":"Polygon","properties":{"cvegeo":"30156","nombre":"Tatatila"}},{"arcs":[[593,594,595]],"type":"Polygon","properties":{"cvegeo":"30157","nombre":"Castillo de Teayo"}},{"arcs":[[596,-477,597,-444,-513,-328,-512]],"type":"Polygon","properties":{"cvegeo":"30158","nombre":"Tecolutla"}},{"arcs":[[598,-467,599,600,-96]],"type":"Polygon","properties":{"cvegeo":"30159","nombre":"Tehuipango"}},{"arcs":[[-594,601,-384,-289,602,-168,603,604,605]],"type":"Polygon","properties":{"cvegeo":"30160","nombre":"Álamo Temapache"}},{"arcs":[[-508,-499,-589,-592,-531,606,607]],"type":"Polygon","properties":{"cvegeo":"30161","nombre":"Tempoal"}},{"arcs":[[-123,608]],"type":"Polygon","properties":{"cvegeo":"30162","nombre":"Tenampa"}},{"arcs":[[-53,-120,-461,609,610]],"type":"Polygon","properties":{"cvegeo":"30163","nombre":"Tenochtitlán"}},{"arcs":[[-371,-415,-185,-129,-233,611]],"type":"Polygon","properties":{"cvegeo":"30164","nombre":"Teocelo"}},{"arcs":[[-335,612,-518,-108,-373]],"type":"Polygon","properties":{"cvegeo":"30165","nombre":"Tepatlaxco"}},{"arcs":[[-9,-281,-41,-471,-473]],"type":"Polygon","properties":{"cvegeo":"30166","nombre":"Tepetlán"}},{"arcs":[[-603,-288,-366,-310,-584,-169]],"type":"Polygon","properties":{"cvegeo":"30167","nombre":"Tepetzintla"}},{"arcs":[[-394,-393,-476,-475,613,-557,-103,-576,-551,-562,-431]],"type":"Polygon","properties":{"cvegeo":"30168","nombre":"Tequila"}},{"arcs":[[-540,614,-278,615,-62,616,-365]],"type":"Polygon","properties":{"cvegeo":"30169","nombre":"José Azueta"}},{"arcs":[[617,618,-343,619]],"type":"Polygon","properties":{"cvegeo":"30170","nombre":"Texcatepec"}},{"arcs":[[620,-468,-599,-95,621,-559]],"type":"Polygon","properties":{"cvegeo":"30171","nombre":"Texhuacán"}},{"arcs":[[-409,-570,-484,-572,-401,-332]],"type":"Polygon","properties":{"cvegeo":"30172","nombre":"Texistepec"}},{"arcs":[[-487,622,623]],"type":"Polygon","properties":{"cvegeo":"30173","nombre":"Tezonapa"}},{"arcs":[[624,-356,-386,-225,625,626,-489,-272,-253]],"type":"Polygon","properties":{"cvegeo":"30174","nombre":"Tierra Blanca"}},{"arcs":[[-201,627,-595,-606,628,-166,-516,-541]],"type":"Polygon","properties":{"cvegeo":"30175","nombre":"Tihuatlán"}},{"arcs":[[629,630,-492,-230]],"type":"Polygon","properties":{"cvegeo":"30176","nombre":"Tlacojalpan"}},{"arcs":[[-46,-611,631,-178,-419,-555,-1,-544,-593]],"type":"Polygon","properties":{"cvegeo":"30177","nombre":"Tlacolulan"}},{"arcs":[[-360,-617,-65,-27,-55,-427,-561,-569]],"type":"Polygon","properties":{"cvegeo":"30178","nombre":"Tlacotalpan"}},{"arcs":[[-547,-212,632]],"type":"Polygon","properties":{"cvegeo":"30179","nombre":"Tlacotepec de Mejía"}},{"arcs":[[-137,-383,633,634,-618,635]],"type":"Polygon","properties":{"cvegeo":"30180","nombre":"Tlachichilco"}},{"arcs":[[-625,-252,-451,-58,-354,-357]],"type":"Polygon","properties":{"cvegeo":"30181","nombre":"Tlalixcoyan"}},{"arcs":[[-400,-188,-3,-554,-133]],"type":"Polygon","properties":{"cvegeo":"30182","nombre":"Tlalnelhuayocan"}},{"arcs":[[-447,-117,-397,636]],"type":"Polygon","properties":{"cvegeo":"30183","nombre":"Tlapacoyan"}},{"arcs":[[637,638,-100,-556,-622,-98]],"type":"Polygon","properties":{"cvegeo":"30184","nombre":"Tlaquilpa"}},{"arcs":[[-389,-430,-563,-553]],"type":"Polygon","properties":{"cvegeo":"30185","nombre":"Tlilapan"}},{"arcs":[[-374,-221,-307,-235]],"type":"Polygon","properties":{"cvegeo":"30186","nombre":"Tomatlán"}},{"arcs":[[-472,-175,-179,-632,-610,-460,-455]],"type":"Polygon","properties":{"cvegeo":"30187","nombre":"Tonayán"}},{"arcs":[[-338,-124,-609,-122,-548,-633,-211,-573]],"type":"Polygon","properties":{"cvegeo":"30188","nombre":"Totutla"}},{"arcs":[[639,-163,-629,-605,640]],"type":"Polygon","properties":{"cvegeo":"30189","nombre":"Tuxpan"}},{"arcs":[[641,-630,-229,-276]],"type":"Polygon","properties":{"cvegeo":"30190","nombre":"Tuxtilla"}},{"arcs":[[642,-87,-549,-24]],"type":"Polygon","properties":{"cvegeo":"30191","nombre":"Ursulo Galván"}},{"arcs":[[-44,-422,-207,-464,-479,643]],"type":"Polygon","properties":{"cvegeo":"30192","nombre":"Vega de Alatorre"}},{"arcs":[[-457,-542,-525,-49]],"type":"Polygon","properties":{"cvegeo":"30194","nombre":"Villa Aldama"}},{"arcs":[[-101,-639,644,-574]],"type":"Polygon","properties":{"cvegeo":"30195","nombre":"Xoxocotla"}},{"arcs":[[-269,-71,-106,-274]],"type":"Polygon","properties":{"cvegeo":"30196","nombre":"Yanga"}},{"arcs":[[-465,-209,-423,-279]],"type":"Polygon","properties":{"cvegeo":"30197","nombre":"Yecuatla"}},{"arcs":[[-619,-635,645,-344]],"type":"Polygon","properties":{"cvegeo":"30198","nombre":"Zacualpan"}},{"arcs":[[-494,-245,-404]],"type":"Polygon","properties":{"cvegeo":"30199","nombre":"Zaragoza"}},{"arcs":[[-216,-577,-35,-519,-613,-340]],"type":"Polygon","properties":{"cvegeo":"30200","nombre":"Zentla"}},{"arcs":[[-466,-469,-621,-558,-614,-474,-205,-488,-624,646,-600]],"type":"Polygon","properties":{"cvegeo":"30201","nombre":"Zongolica"}},{"arcs":[[-636,-620,-342,647,-358,648,-138]],"type":"Polygon","properties":{"cvegeo":"30202","nombre":"Zontecomatlán de López y Fuentes"}},{"arcs":[[-257,-322,649]],"type":"Polygon","properties":{"cvegeo":"30203","nombre":"Zozocolco de Hidalgo"}},{"arcs":[[650,-306,-470,-197,651]],"type":"Polygon","properties":{"cvegeo":"30204","nombre":"Agua Dulce"}},{"arcs":[[-509,-608,652]],"type":"Polygon","properties":{"cvegeo":"30205","nombre":"El Higo"}},{"arcs":[[-193,-380,-241]],"type":"Polygon","properties":{"cvegeo":"30206","nombre":"Nanchital de Lázaro Cárdenas del Río"}},{"arcs":[[653,-626,-224]],"type":"Polygon","properties":{"cvegeo":"30207","nombre":"Tres Valles"}},{"arcs":[[-616,-277,-227,-387,-63]],"type":"Polygon","properties":{"cvegeo":"30208","nombre":"Carlos A. Carrillo"}},{"arcs":[[-503,654,-578,-158,655,656]],"type":"Polygon","properties":{"cvegeo":"30209","nombre":"Tatahuicapan de Juárez"}},{"arcs":[[-458,-303,657,-410,-330]],"type":"Polygon","properties":{"cvegeo":"30210","nombre":"Uxpanapa"}},{"arcs":[[-445,-598,-480,-462]],"type":"Polygon","properties":{"cvegeo":"30211","nombre":"San Rafael"}},{"arcs":[[658,-538]],"type":"Polygon","properties":{"cvegeo":"30212","nombre":"Santiago Sochiapan"}},{"arcs":[[659,-527,-416,-369]],"type":"Polygon","properties":{"cvegeo":"30025","nombre":"Ayahualulco"}},{"arcs":[[[-591,660,-533]],[[-535,661,662]]],"type":"MultiPolygon","properties":{"cvegeo":"30055","nombre":"Chalma"}},{"arcs":[[-663,663,-529]],"type":"Polygon","properties":{"cvegeo":"30056","nombre":"Chiconamel"}},{"arcs":[[[664,-656,-157]],[[-655,-502,-291,-579]]],"type":"MultiPolygon","properties":{"cvegeo":"30104","nombre":"Mecayapan"}},{"arcs":[[[-66,-582,-588]],[[-496,665,-297,-586]],[[-300,-587]]],"type":"MultiPolygon","properties":{"cvegeo":"30150","nombre":"Tamalín"}},{"arcs":[[-666,-495,-581,666,-641,-604,-167,-583,-68,-298]],"type":"Polygon","properties":{"cvegeo":"30151","nombre":"Tamiahua"}},{"arcs":[[-452,-438,-522,-84,667,-144]],"type":"Polygon","properties":{"cvegeo":"30193","nombre":"Veracruz"}}]}}}