{"type":"Topology","arcs":[[[346469,531045],[-9681,-745],[-2506,11845],[5239,5413]],[[339521,547558],[20729,3608],[-1139,2981]],[[359111,554147],[8542,-4824],[23804,-2785]],[[391457,546538],[-3644,-5491],[-29499,-10355],[-11845,353]],[[437129,543479],[-6833,-6551],[-16971,2001],[5695,-5099],[-16515,-6825],[-8884,-8865],[14010,-8472],[-5809,-2746],[-16970,5099],[-15490,-1333]],[[369362,510688],[-22893,20357]],[[391457,546538],[3759,1059]],[[395216,547597],[38838,-2314],[3075,-1804]],[[392369,576701],[3644,-1059]],[[396013,575642],[13782,-3334],[12414,1686],[14123,-5609],[797,-5059],[20843,-4786],[17882,-980]],[[475854,557560],[19476,-1805],[22095,-9531]],[[517425,546224],[-5580,-5138]],[[511845,541086],[-13782,-2628],[-12642,5570],[-25968,2079],[-22324,-2628]],[[395216,547597],[-6264,7139],[8200,14199],[-10592,3647],[5809,4119]],[[367426,508413],[5808,-667]],[[373234,507746],[13098,-10002],[12415,7100],[21298,-11964],[-13781,-11531],[6378,-7060]],[[412642,474289],[-6492,-5492],[-22893,-7766],[19021,-13336]],[[402278,447695],[-16629,4629],[-13668,-7806]],[[371981,444518],[-14009,9884],[-11959,79]],[[346013,454481],[-3872,8001],[-25513,7217],[-32118,-2902],[-19818,2353],[6606,15690],[-25512,5138],[-2962,6236]],[[242824,496214],[37814,-5922],[7858,7178],[38611,-12003],[20615,3491],[-6834,11336]],[[340888,500294],[26538,8119]],[[284282,566581],[-10136,-14866]],[[274146,551715],[-22780,6355],[-21070,-10512],[-9453,4471],[-19704,-6472],[-8087,-6432],[-14351,-863],[-7403,-5256]],[[171298,533006],[-18451,1020],[-8884,18474],[-20045,20318],[14009,21219],[-4328,6080]],[[133599,600117],[28929,3334],[5923,4981],[6264,-8393],[37016,4824],[2050,-22514],[31549,9296],[9226,-628]],[[254556,591017],[10706,-1020]],[[265262,589997],[19020,-23416]],[[274146,551715],[5694,-1059]],[[279840,550656],[4214,-5255],[-3416,-11414],[29157,-10512]],[[309795,523475],[9339,-9139],[14465,-6041],[7289,-8001]],[[242824,496214],[-19476,1648],[2050,5060],[-10478,4118],[28360,157],[-3303,3805],[-20729,2745],[-13212,5766],[-20615,-902],[-14123,14395]],[[312528,560776],[7176,-8629],[19817,-4589]],[[369362,510688],[3872,-2942]],[[309795,523475],[11389,12198],[-12187,3569],[-911,314],[-17540,2236],[-10706,8864]],[[284282,566581],[18907,706],[9339,-6511]],[[280638,589017],[15148,7021],[4328,12120]],[[300114,608158],[569,-39]],[[300683,608119],[19362,-7531],[-5808,-4276],[11161,-16905]],[[325398,579407],[-34624,981],[-10136,8629]],[[279840,589448],[798,-431]],[[325398,579407],[10137,79]],[[335535,579486],[1936,-16984]],[[337471,562502],[-24943,-1726]],[[265262,589997],[14578,-549]],[[300683,608119],[-1708,6550],[-28132,14042],[-27791,7648],[-3417,-1137]],[[239635,635222],[-8997,3373],[15375,18788],[7973,392],[17198,14709],[-10478,14121]],[[260706,686605],[16856,10276],[14693,314],[1822,-7413],[11390,784],[6036,-8433],[10820,-2824],[6948,-8668],[25171,157],[12756,3608],[-1139,8276]],[[366059,682682],[30524,-1765],[16287,-3883],[12528,-10629],[24146,-2942]],[[449544,663463],[12984,1412],[-3075,-10630]],[[459453,654245],[-15262,628],[911,-7766]],[[445102,647107],[-19818,-2354],[-29385,-7491],[10707,-11807],[-15490,-5256]],[[391116,620199],[-9340,-5177],[-5011,6433],[-25854,-9061],[-17198,1765],[8883,-1490],[8315,-11101],[-2278,-8001]],[[348633,593567],[-6264,-7649]],[[342369,585918],[-6834,-6432]],[[395899,611178],[9681,4981],[9340,-11845],[-11617,-2667],[6833,-7335]],[[410136,594312],[-1366,-8041],[-12757,-10629]],[[392369,576701],[-15376,4354],[-28132,1412],[-6492,3451]],[[348633,593567],[9225,-3452],[13098,2393],[17199,16199],[7744,2471]],[[359111,554147],[-21640,8355]],[[391116,620199],[4783,-9021]],[[300114,608158],[-10251,1490],[-18337,-12512],[8314,-7688]],[[254556,591017],[-1709,10512],[9909,15689],[6150,1687],[-29271,16317]],[[724828,591566],[1253,-7962]],[[726081,583604],[1139,-14591],[-11617,-2824],[20387,-23220],[50114,-12081],[10023,5883],[19590,-10864],[16628,1686],[4101,4668],[14806,-706],[7631,5334],[12642,235],[9112,-6275],[23462,6785],[-227,13846],[15489,-3726],[3189,3608],[20729,-2784]],[[943279,548578],[-114,-46715],[53189,0],[3645,-9061],[-158200,-69072],[-25285,-11728],[-4897,275],[-26880,-118],[1595,2902],[-6378,7139]],[[779954,422200],[-12073,11375],[7289,1726],[-8314,7177],[17881,79],[-4669,11179],[-7631,-1373],[-8884,13728],[-11276,981],[-19362,11806],[-20501,-1099],[114,5217],[-12643,4864],[-7403,-5099],[-11389,157],[-16629,16474],[-10592,4000],[-13440,-4236]],[[640432,499156],[4556,4942],[-7517,7139],[6720,19494],[-17085,14003],[15148,5687],[-8086,6119],[14351,6158],[-20388,14513]],[[628131,577211],[15035,1922],[20273,-14003],[30410,11924],[-2278,14316]],[[691571,591370],[0,39],[5695,2472],[8998,-6119],[18564,3804]],[[887471,619925],[54441,-4079],[1367,-67268]],[[726081,583604],[64237,-6511],[77335,29535],[-114,12238],[-19362,-1648]],[[848177,617218],[8086,4982],[31208,-2275]],[[721867,667738],[11048,-39498]],[[732915,628240],[-9112,-823],[1025,-35851]],[[691571,591370],[-11503,4511],[-6720,-2353],[-570,17062],[-16628,21612]],[[656150,632202],[-7403,9806],[24601,24475],[-342,11532]],[[673006,678015],[26424,-11532],[22437,1255]],[[732915,628240],[2278,-3059],[23348,4157],[912,-2235],[24829,7334],[44191,-29299],[19704,12080]],[[260706,686605],[-8087,4902],[-3986,13925]],[[248633,705432],[4670,11375],[22665,6079],[-15832,12826],[14921,2393],[-9340,12120]],[[265717,750225],[27449,6942],[19704,-745],[-3189,5099]],[[309681,761521],[8997,-6276],[-3872,-7256],[14237,-1647],[14806,-25652],[8998,-4746],[-6492,-5335],[16173,-13924],[3531,-14003]],[[459225,695469],[2506,-7217],[-12187,-24789]],[[309681,761521],[-7745,20475],[21982,392],[-7859,13650],[9567,-1373],[10137,14199],[7631,-6590],[29043,-2236],[11731,-13257],[-4214,-2824],[21868,392]],[[401822,784349],[228,-7021],[10364,-5295],[7631,-14787],[-23007,-8198],[23007,-10237],[-3303,-6629],[11276,-3373],[-5581,-15533],[17881,-4510],[-2847,-6590],[6948,-5413],[14806,-1294]],[[248633,705432],[-39180,-314],[4898,19886],[-9568,-588],[-6719,9963],[-14693,12041]],[[183371,746420],[1822,-2079],[27563,15494],[2392,5412]],[[215148,765247],[42027,-8433],[1253,-8511],[7289,1922]],[[732915,406354],[-4670,-8904],[7517,-19141],[-16628,-11296],[8200,-19063],[-10934,-902],[-29499,6982],[-25512,-7217],[-14009,-7688],[-16515,-824],[-17654,-11257],[114,-8119],[-26196,-4550],[-13325,510],[-34169,-10041],[-10251,-4746]],[[529384,300098],[-14009,6982],[-14464,13610],[455,5334],[-10136,14631],[-11390,7217],[-7175,10276],[13325,5845],[-9908,3883],[-912,6432],[-20387,-8511],[-7517,7727]],[[447266,373524],[8884,4158]],[[456150,377682],[21070,3373],[29499,14944],[18451,-1804],[33941,-7218],[-2847,4158],[15603,-2196],[17198,7413],[18679,-2903],[11162,3491],[12187,-4707],[12300,1334],[2278,7452],[12984,-2510],[1595,5923],[-15034,1804],[5922,12434],[-7403,784]],[[643735,419454],[16743,4982],[1480,4628],[19249,-1608],[-798,-8159],[48064,-3530],[-8200,-10158],[12642,745]],[[529726,381878],[-3189,-20631],[38269,-549],[6720,1765],[0,18513],[-41800,902]],[[548860,805137],[-12642,-11531],[11162,-3766],[-11390,-5334],[-12414,-14160],[-10365,2236],[-8314,-11649],[24146,-4040],[9453,-15886],[-6834,-39851]],[[531662,701156],[-14578,-6079],[-2734,4863],[-14009,-8864],[-41116,4393]],[[401822,784349],[-3531,8119],[11048,589],[15490,6197],[-9112,8080],[16970,1765]],[[432687,809099],[12187,-14591],[42825,9061],[29726,313]],[[517425,803882],[6948,4393],[24487,-3138]],[[314237,436477],[2277,7727],[23007,-3294],[11504,2392],[-11731,7766],[6719,3413]],[[371981,444518],[26880,-27378],[9453,3805],[17995,-12473],[7062,4942],[19248,-34399],[3531,-1333]],[[447266,373524],[-2278,-3060]],[[444988,370464],[-7745,5139],[-27448,-3021],[-22893,11650],[-10706,14983],[-14693,1530],[-25740,19259],[6720,4432],[-15946,4785],[-12300,7256]],[[510706,489037],[24829,15257],[10136,3374],[-16970,7334],[-1822,16317],[-15034,9767]],[[517425,546224],[2962,8747],[14692,-2118],[19932,11845],[-7517,2785],[5808,11493],[-14806,8825],[10706,9061]],[[549202,596862],[18110,-14278],[32004,8159]],[[599316,590743],[0,-9218],[-7859,-5962],[20387,3413],[4784,-6590],[11503,4825]],[[640432,499156],[-14920,1726],[2733,-5217],[-13781,1765],[-12187,-3216],[-6833,7374],[-29613,2040],[797,-5727],[-14920,824],[2506,-16984],[-13896,5884],[1481,-9610],[-31093,11022]],[[567539,799725],[13440,-2040],[3189,-6903],[-15034,-12630],[1594,-9414],[-14009,-6825],[-797,-5373],[43508,-1216],[50797,-14670],[-1253,-10080],[-5581,-24083]],[[643393,706491],[-17653,667],[-3759,-11375],[-36902,5334],[-7517,-5373],[-19476,39],[3531,-8119],[-28018,2628],[-1937,10864]],[[548860,805137],[18679,-5412]],[[402278,447695],[6264,-2902],[13439,5569],[22324,3413],[14123,9100],[-4214,13963]],[[454214,476838],[3758,10120],[37699,-17415],[9568,6236]],[[505239,475779],[6492,-6236],[-4556,-12120],[10706,-667],[8884,-8747],[-3531,-6786],[9795,2118],[9681,-7491],[24602,-10591],[16059,-9374],[6264,4393],[15490,1687],[16173,8629],[11503,-3726],[-2392,-9139],[13326,1725]],[[133599,600117],[-25399,2550],[-3986,25573],[-9567,2471],[-11845,9885],[-25627,8001],[-9909,6276],[-10478,13453],[-36788,23417],[79954,37890],[82916,40870],[20501,-24083]],[[452277,72210],[9454,-25495],[-21982,2863],[-34966,706],[-23462,-12080],[24259,-7257],[-9453,-16042],[-44647,4040],[2962,10276],[-20957,2628],[-10023,-10590],[-9225,-431]],[[314237,20828],[-3417,7021],[1708,14708],[4898,3883],[-12415,2197],[11390,10433],[1708,12395],[7745,-981],[4328,14944],[19704,-2510],[15603,1530],[16515,-2589],[-6606,6668],[44761,-9884],[6150,7060],[14693,-4981],[-1481,-5256],[12756,-3256]],[[621753,633378],[28816,-980]],[[650569,632398],[-2961,-19298],[-14010,-2746],[-35535,2354],[-6720,-2040]],[[591343,610668],[-16401,17023],[17426,5217],[29385,470]],[[410136,594312],[23349,353],[17540,-3138],[25512,19220],[-3645,4275]],[[472892,615022],[26538,941],[5011,-4942]],[[504441,611021],[-50911,-22436],[-13781,2197],[4784,-13728],[24601,-7492],[6720,-12002]],[[215148,765247],[6378,10551],[18679,10551],[-4784,10826],[3873,4785],[-1595,21338],[1822,14552],[-40774,6079],[-15831,7139],[-9909,-6629],[-8429,745],[-18337,-7648],[-11275,6040],[-1253,26162],[56264,30124],[91686,12434],[341,39]],[[282004,912335],[12870,-4668],[-5011,-6550],[41913,-20592],[10934,78],[0,-5883],[25513,0],[3531,-17494],[18223,0],[7175,-15572],[-7175,-7766],[10820,-4354],[28474,3374],[18565,-3766],[-14237,-4589],[-6948,-6354],[6036,-9100]],[[485649,288684],[-8770,1765],[13553,12002],[-8997,11610],[-46583,24083],[13667,7021],[-9112,13493],[19932,118],[-14351,11688]],[[529384,300098],[4784,-15180]],[[534168,284918],[3417,-8943],[-11731,-4903],[-342,-5961],[-17312,3255],[-5809,8551],[-16742,11767]],[[445102,647107],[14123,-10512],[3417,-13964],[10250,-7609]],[[599316,590743],[5923,4589],[-13896,15336]],[[650569,632398],[5581,-196]],[[587699,189135],[10478,-1294],[228,-7806],[19476,-7923],[10706,-20357],[-3758,745],[-9340,1962],[-29840,-22240],[-15376,-3413],[-14465,2354],[-52392,2942],[-19931,-2118],[-7973,-10983]],[[475512,121004],[-8998,14317],[-13211,-432],[1025,10826],[-31777,10159],[4556,12276]],[[427107,168150],[16173,13572],[19704,-549],[14350,3137],[-683,-5922],[35649,4432],[5125,-5531],[8429,9571],[24145,2118],[37700,157]],[[621753,633378],[-17539,13533],[-10479,4824],[-12528,-78],[-114,11061]],[[581093,662718],[15945,156],[17426,7845],[12187,-1334],[-911,10120],[19817,824]],[[645557,680329],[16629,2628],[10820,-4942]],[[779954,422200],[-13440,-2550],[-3189,-7452],[-30410,-5844]],[[505239,475779],[5467,13258]],[[485649,288684],[-14009,-6629],[1936,-3491],[-39750,2197],[-33143,-2550],[8884,-21298],[-2392,-9453],[-28815,-2432],[-11959,-7531]],[[366401,237497],[-5012,5609],[-20273,6080],[-5809,-13650],[-15148,13218],[-11731,-941],[-20615,13022],[-9681,14591],[-4214,-3844],[-18565,-2549],[-3075,10041],[-17085,-3805],[-18565,-8080]],[[216628,267189],[-38610,19416],[-11162,-6668],[-20729,20671],[-2050,8590],[3075,33379],[-10478,18160],[35535,18004],[-33940,16826],[6150,33772],[569,2628],[33713,15297],[42142,4040],[53189,-6864],[40205,-7963]],[[504441,611021],[13212,-2471],[31549,-11688]],[[366401,237497],[-10593,-3177],[18110,-19258],[-10137,-8512],[14465,-5491],[-6037,-4158],[24943,-4550],[-6833,-5020],[-228,-12709],[20729,-2549],[341,-4550],[15946,627]],[[475512,121004],[-11731,-12630],[-16287,-23299],[4783,-12865]],[[314237,20828],[-15148,1372],[3644,-16473],[14579,1412],[-3075,-7139],[-53076,6864],[-1366,4275],[9567,32830],[-21754,11807],[8314,23141],[12529,-3608],[-3759,11845],[-7859,392],[5240,14121],[11389,9374],[-16059,13454],[-2734,12708],[-11047,4079],[-7745,5296],[3644,10002],[-8200,6746],[7745,22867],[6150,9845],[-5239,10159],[7745,4589],[-34624,7335],[7175,941],[3075,9885],[-17312,431],[11959,26437],[-1367,11374]],[[459453,654245],[26537,-9256],[26538,4981],[14009,-1255],[37585,16591],[16971,-2588]],[[454214,476838],[-26196,-6079],[-15376,3530]],[[580865,266091],[-1595,-14120],[-19817,-26711],[-2620,-19220],[30866,-16905]],[[534168,284918],[29954,4982],[6834,-9179],[9909,-14630]],[[489863,993684],[10706,941],[7175,-8903],[7290,78],[16173,-11688],[-71185,-28045],[2506,-12395],[57175,-11767],[3987,-31927],[25170,-40283],[10365,-7844],[-30182,-31340],[-12984,1687],[1366,-8316]],[[282004,912335],[1367,196],[24146,62757],[23234,10002],[35080,14709],[67995,-39694],[23918,12787],[32119,20592]],[[643393,706491],[-5467,-18788],[7631,-7374]]],"transform":{"scale":[0.000002783048661363641,0.000004636713255433792],"translate":[-101.20665095946205,23.162432576216347]},"objects":{"municipalities":{"type":"GeometryCollection","geometries":[{"arcs":[[0,1,2,3]],"type":"Polygon","properties":{"cvegeo":"19026","nombre":"Guadalupe"}},{"arcs":[[4,5,-4,6,7]],"type":"Polygon","properties":{"cvegeo":"19031","nombre":"Juárez"}},{"arcs":[[8,9,10,11,12,-8,13]],"type":"Polygon","properties":{"cvegeo":"19041","nombre":"Pesquería"}},{"arcs":[[14,15,16,17,18,19,20,21]],"type":"Polygon","properties":{"cvegeo":"19049","nombre":"Santiago"}},{"arcs":[[22,23,24,25,26,27]],"type":"Polygon","properties":{"cvegeo":"19018","nombre":"García"}},{"arcs":[[28,29,30,-21,31,-24]],"type":"Polygon","properties":{"cvegeo":"19048","nombre":"Santa Catarina"}},{"arcs":[[32,-1,-6,33,-15,-22,-31,34,-29,-23,35]],"type":"Polygon","properties":{"cvegeo":"19039","nombre":"Monterrey"}},{"arcs":[[-35,-30]],"type":"Polygon","properties":{"cvegeo":"19019","nombre":"San Pedro Garza García"}},{"arcs":[[36,37,38,39]],"type":"Polygon","properties":{"cvegeo":"19010","nombre":"El Carmen"}},{"arcs":[[40,-40,41,42,43,-36,-28,44]],"type":"Polygon","properties":{"cvegeo":"19021","nombre":"General Escobedo"}},{"arcs":[[-39,45,46,47,48,49,50,51,52,53,54,-42]],"type":"Polygon","properties":{"cvegeo":"19045","nombre":"Salinas Victoria"}},{"arcs":[[55,56,-9,57,-54,58]],"type":"Polygon","properties":{"cvegeo":"19025","nombre":"General Zuazua"}},{"arcs":[[-7,-3,59,-43,-55,-58,-14]],"type":"Polygon","properties":{"cvegeo":"19006","nombre":"Apodaca"}},{"arcs":[[-53,60,-59]],"type":"Polygon","properties":{"cvegeo":"19012","nombre":"Ciénega de Flores"}},{"arcs":[[-46,-38,61,-45,-27,62]],"type":"Polygon","properties":{"cvegeo":"19047","nombre":"Hidalgo"}},{"arcs":[[-37,-41,-62]],"type":"Polygon","properties":{"cvegeo":"19001","nombre":"Abasolo"}},{"arcs":[[63,64,65,66,67,68,69]],"type":"Polygon","properties":{"cvegeo":"19013","nombre":"China"}},{"arcs":[[70,-65,71,72]],"type":"Polygon","properties":{"cvegeo":"19020","nombre":"General Bravo"}},{"arcs":[[73,74,-70,75,76,77]],"type":"Polygon","properties":{"cvegeo":"19003","nombre":"Los Aldamas"}},{"arcs":[[-72,-64,-75,78]],"type":"Polygon","properties":{"cvegeo":"19015","nombre":"Doctor Coss"}},{"arcs":[[-48,79,80,81,82]],"type":"Polygon","properties":{"cvegeo":"19051","nombre":"Villaldama"}},{"arcs":[[83,-49,-83,84,85]],"type":"Polygon","properties":{"cvegeo":"19044","nombre":"Sabinas Hidalgo"}},{"arcs":[[-44,-60,-2,-33]],"type":"Polygon","properties":{"cvegeo":"19046","nombre":"San Nicolás de los Garza"}},{"arcs":[[86,87,88,-81]],"type":"Polygon","properties":{"cvegeo":"19008","nombre":"Bustamante"}},{"arcs":[[89,90,91,92,93],[94]],"type":"Polygon","properties":{"cvegeo":"19033","nombre":"Linares"}},{"arcs":[[95,96,-86,97,98,99]],"type":"Polygon","properties":{"cvegeo":"19050","nombre":"Vallecillo"}},{"arcs":[[100,-19,101,-92,102,103]],"type":"Polygon","properties":{"cvegeo":"19043","nombre":"Rayones"}},{"arcs":[[104,-12,105,106,107,-68,108]],"type":"Polygon","properties":{"cvegeo":"19042","nombre":"Los Ramones"}},{"arcs":[[109,110,-96,111]],"type":"Polygon","properties":{"cvegeo":"19040","nombre":"Parás"}},{"arcs":[[-102,-18,112,113,114,-93]],"type":"Polygon","properties":{"cvegeo":"19038","nombre":"Montemorelos"}},{"arcs":[[-80,-47,-63,-26,115,-87]],"type":"Polygon","properties":{"cvegeo":"19037","nombre":"Mina"}},{"arcs":[[116,117]],"type":"Polygon","properties":{"cvegeo":"19036","nombre":"Mier y Noriega"}},{"arcs":[[118,119,120]],"type":"Polygon","properties":{"cvegeo":"19035","nombre":"Melchor Ocampo"}},{"arcs":[[-57,121,122,123,-10]],"type":"Polygon","properties":{"cvegeo":"19034","nombre":"Marín"}},{"arcs":[[-98,-85,-82,-89,124,125]],"type":"Polygon","properties":{"cvegeo":"19032","nombre":"Lampazos de Naranjo"}},{"arcs":[[126,-103,-91,127,128]],"type":"Polygon","properties":{"cvegeo":"19030","nombre":"Iturbide"}},{"arcs":[[-95]],"type":"Polygon","properties":{"cvegeo":"19029","nombre":"Hualahuises"}},{"arcs":[[-122,-56,-61,-52,129]],"type":"Polygon","properties":{"cvegeo":"19028","nombre":"Higueras"}},{"arcs":[[130,-120,131,-76,-69,-108]],"type":"Polygon","properties":{"cvegeo":"19027","nombre":"Los Herreras"}},{"arcs":[[132,133,134]],"type":"Polygon","properties":{"cvegeo":"19024","nombre":"General Zaragoza"}},{"arcs":[[-77,-132,-119,135,136,137]],"type":"Polygon","properties":{"cvegeo":"19023","nombre":"General Treviño"}},{"arcs":[[-67,138,-94,-115,139,-109]],"type":"Polygon","properties":{"cvegeo":"19022","nombre":"General Terán"}},{"arcs":[[-104,-127,140,141,142]],"type":"Polygon","properties":{"cvegeo":"19017","nombre":"Galeana"}},{"arcs":[[143,-106,-11,-124]],"type":"Polygon","properties":{"cvegeo":"19016","nombre":"Doctor González"}},{"arcs":[[144,-134,145,-118,146,-142]],"type":"Polygon","properties":{"cvegeo":"19014","nombre":"Doctor Arroyo"}},{"arcs":[[-136,-121,-131,-107,-144,-123,-130,-51,147]],"type":"Polygon","properties":{"cvegeo":"19011","nombre":"Cerralvo"}},{"arcs":[[-13,-105,-140,-114,148,-16,-34,-5]],"type":"Polygon","properties":{"cvegeo":"19009","nombre":"Cadereyta Jiménez"}},{"arcs":[[149,-135,-145,-141,-129,150]],"type":"Polygon","properties":{"cvegeo":"19007","nombre":"Aramberri"}},{"arcs":[[151,-99,-126,152]],"type":"Polygon","properties":{"cvegeo":"19005","nombre":"Anáhuac"}},{"arcs":[[-149,-113,-17]],"type":"Polygon","properties":{"cvegeo":"19004","nombre":"Allende"}},{"arcs":[[153,-137,-148,-50,-84,-97,-111]],"type":"Polygon","properties":{"cvegeo":"19002","nombre":"Agualeguas"}}]}}}