{"type":"Topology","arcs":[[[320310,493821],[-5276,-1227],[-5385,7566],[-6264,584],[2418,5902],[-7804,88],[-6429,8384],[-9506,4207]],[[282064,519325],[4121,6427],[-4231,12943],[4945,409],[-1428,5171],[-5056,-59],[4616,8385],[15057,-672],[1373,3477],[-3462,7040],[5880,3273],[10386,-1490]],[[314265,564229],[-1978,-3857],[12913,-12387],[3132,-8560],[11540,-7070],[1264,-6982],[-5385,-3477],[-8408,-321],[4341,-7888],[-7583,-7830],[-3791,-12036]],[[545389,660609],[-10441,-18055],[0,-23693],[-12583,29],[-880,-6953],[2858,-3097],[2198,-11540],[-1154,-15309],[1264,-4791],[-14947,117],[-55,-3418],[-17255,29],[1319,-10167],[5056,-2133],[2418,-5872],[-6155,-555],[7309,-13643],[7363,-1344],[4451,-10401],[1539,-9465],[21760,-10664],[10936,-613],[-880,-4412]],[[549510,504659],[-2033,-6573],[-7968,-2366],[4506,-9612],[-4451,-59],[-3132,-5463],[4836,935],[2912,-4908],[6704,-3360],[7528,-234],[9782,3156],[-6320,-8180],[17200,-1841]],[[579074,466154],[4231,-7771],[1264,-11277],[-9287,1344],[-879,-9524],[-12748,-614],[1428,-2308],[-11704,935],[-4781,-3681],[-3407,-8151],[-5990,-526],[330,-10488],[-16265,1431]],[[521266,415524],[-25388,-5229],[-4396,-2746],[-10001,6544]],[[481481,414093],[7199,3973],[1593,12037],[5385,-2513],[-1264,7216],[2363,11277],[-6484,5405],[5111,3944],[-5001,4937],[-9232,1052]],[[481151,461421],[660,7187],[-5605,6310],[549,5639],[5330,1636],[-4231,5200],[-7638,3973],[-6759,6252],[-6154,9116],[2198,4060],[-4946,760],[-4286,5434],[-17530,-3097],[-3352,4090],[605,12767],[-1759,28806],[-2967,6749],[4066,6340],[7254,6135],[1319,8063]],[[437905,586841],[1648,9699],[-8242,760],[2692,12884],[-5165,3272],[2912,6924],[-110,7625],[4891,321],[-275,11014],[13298,4587]],[[449554,643927],[-19452,15572],[0,4791]],[[430102,664290],[0,7800],[14177,-467],[-1429,-5843],[9562,3769],[-440,2074],[15936,0],[1649,-4324],[17199,-29],[-6704,6047],[10551,5580],[24508,-6076],[30333,1694],[-2967,-11803],[2912,-2103]],[[586053,481638],[-9672,29],[10826,-9991],[-8133,-5522]],[[549510,504659],[5660,-4265],[9342,2191],[17419,-1607],[2473,-17529],[1649,-1811]],[[501373,947646],[-9012,-7684],[-4231,3798],[-1868,-10137],[989,-31173],[-7913,-3681]],[[479338,898769],[-9836,5376],[-1209,-5230],[-2913,5259],[-20277,-29],[1099,-5551],[-15166,-175],[-10276,3447],[-16870,-2045],[-55,-3623],[-14067,-2308]],[[389768,893890],[1209,2980],[-7529,7070],[-3297,7742],[-6978,468],[-5056,15863],[18134,5785],[-220,4733],[18519,-146],[9121,5112],[-3461,5522],[-7254,5259],[330,16711],[-22255,3038],[7912,8385],[-2472,10751],[-3792,6836]],[[382679,999999],[58798,0],[7088,-5843],[6375,2688],[12034,-5142],[13573,-17675],[3956,-9699],[5331,-2717],[5220,-10167],[6319,-3798]],[[197274,819743],[4341,-10664],[-1373,-19399],[-4012,-5813],[2528,-12504],[-3572,-5522],[-2857,-12855],[-5715,-2220],[8352,-1168],[-934,-9846]],[[194032,739752],[-1429,-10400],[5605,-5113],[1044,-7859]],[[199252,716380],[-10825,1110],[-2638,-3126],[3078,-14578],[-6594,-14491],[164,-7625]],[[182437,677670],[-13023,-117],[-5165,-2921],[-16596,0],[-55,39645],[-15056,-30],[0,-7216],[-8957,0],[0,7187],[-25717,59],[-9342,-13030],[1704,-3564],[-10551,-2951]],[[79679,694732],[-2253,11218],[2253,1987],[824,12270],[-1154,31143]],[[79349,751350],[19398,-9056],[604,13585],[4561,6456],[5935,-350],[989,6690],[9122,-614],[1868,5201],[14672,3301],[14398,-2717],[-2583,6486],[6649,4791],[-8463,5171],[3682,1578],[3187,7128],[5825,1052],[-2637,3447],[11155,5785],[5824,1022],[330,3798],[-6594,7830],[9122,847],[3407,-4674],[17474,1636]],[[271733,835285],[-55,-12066],[5495,59],[2143,-6048],[5825,-1344],[3242,-12591],[-385,-11219],[-12364,-204],[11430,-11949],[2308,-11949],[-9396,-1344]],[[279976,766630],[-8243,7479],[0,7713],[-13243,3739],[274,-11481],[-6319,-1461],[-11210,2980],[-8133,-1753],[-7803,1081],[275,-19165],[8023,-5346],[-1484,-8706],[-8023,1256],[-9231,-4821],[-20827,1607]],[[197274,819743],[-1483,7858],[-5990,10343],[-550,5843]],[[189251,843787],[12309,5317],[-2912,-6369],[22145,8735],[6155,-7274],[12254,1840],[-1539,-3155],[6539,-5083],[6485,-1578],[-989,-6924],[3297,-292],[15551,10196],[3187,-3915]],[[566270,909228],[-2967,-2600],[3297,-15309],[-5550,-613],[-13903,6895],[-2143,2717],[-13243,2775],[-4890,8239],[6868,3447],[935,3944],[-6924,3418],[1813,15192]],[[529563,937333],[11320,-4616],[4231,-8443],[10441,-3681],[10715,-11365]],[[389768,893890],[-11815,4587],[0,-10722],[-26047,146],[-219,-21210],[-4726,175],[-4451,-14695]],[[342510,852171],[-10056,205],[-5550,-10284],[-8792,555],[-3957,-7742],[-4781,2075],[-3407,6923],[-9067,3798],[-6429,-12416],[-18738,0]],[[189251,843787],[-2802,7099],[4781,1928],[-6540,11043],[-824,16331],[-16925,1403],[-1428,6982],[3901,2542],[-10166,10400],[-3077,6720],[-5935,0],[0,19369]],[[150236,927604],[55,72366],[54676,-117],[109902,117],[67810,29]],[[259149,620146],[-1593,-8414],[4945,-584],[-7034,-29449]],[[255467,581699],[-7968,-3973],[-10935,2688],[1484,4849],[-10606,6077],[-9781,-1665],[-4066,4324],[-11540,321]],[[202055,594320],[-2253,4908],[2802,12563],[3627,4440],[10276,-789],[-604,9641],[-6100,-29],[-5330,6398]],[[204473,631452],[494,4149],[5605,-1227],[6924,4674],[8408,-8677],[8737,-233],[1648,-5697],[19123,-5230],[3737,935]],[[139795,342984],[-3901,-8385],[-13958,-13527],[-12144,4237],[-6429,-9320],[5330,-14900],[10441,-5229],[2363,2366],[3901,-6339],[-1758,-5493],[3846,-6398],[-9176,-11277],[-8957,497],[-4561,-2863],[-4287,-17091],[4122,-4791],[220,-7392]],[[104847,237079],[-5550,-7595],[-12145,4090],[1704,5346],[-6869,-1461],[879,6398],[-2473,12417],[-5660,3973],[-3571,9728],[12748,12621],[-6649,10430],[-714,7275],[-4891,5843],[1099,12708],[-10001,3623],[-4616,5434]],[[58138,327909],[5056,4587],[11539,3564],[-4890,4090],[8023,7537],[-1979,5872],[5221,5756],[13463,1139],[5165,-7216],[11650,4178],[6209,-4558],[4946,-8910],[6759,1811],[-440,5668],[6924,-1023],[4011,-7420]],[[279976,766630],[2912,-10897],[275,-48322],[-35664,-350]],[[247499,707061],[-25057,29],[-440,11364],[-10770,234],[-5276,2980],[-2417,-6661],[-4287,1373]],[[566270,909228],[5990,-8209],[5550,-497],[5660,-4557],[10606,-3389],[7638,-5142],[8352,-15163],[24289,-14228],[3682,-6661],[13133,-7449],[5000,2045],[5495,-4850],[7089,1753],[9836,-8706],[7364,-409],[11045,-10751],[8188,613],[6319,-12299],[7638,-789],[4891,-5551],[5605,-12183],[-385,-3447]],[[729255,789359],[-11320,-818],[-7968,6369],[-7967,88]],[[702000,794998],[-13244,146],[1649,-3915],[-13628,88],[824,-16390],[-7253,0],[0,-4558],[-9067,205],[-220,11657],[-9012,58],[-55,-8180],[-9287,0],[2748,-7771],[-24453,175],[1593,-5960],[-6539,-87],[385,5200],[-8737,3184]],[[607704,768850],[-6540,7713],[1924,16769],[-15497,1257],[110,21940],[-7528,2396],[2803,18493],[-9232,3973],[-275,2483],[-9067,5551],[-9946,29],[-714,-4353],[-29894,29],[-165,12300],[-6429,5288],[0,8940],[-7144,58],[-109,-4645],[-10496,-584],[55,10634],[-12969,2746],[-1428,8560],[-3847,234],[-1978,10108]],[[501373,947646],[18684,-9670],[9506,-643]],[[181503,328902],[-2857,-3915],[-4396,-18025],[-4671,-2601],[5055,-9231],[-1044,-6106],[-9836,-4207],[-9067,2571],[-2418,-6282],[-9671,-6222],[4451,-1841],[-4836,-16682],[6430,-8910],[-11595,-6194],[-9617,-3330],[-2417,5667],[-11705,-8676]],[[113309,234918],[-8462,2161]],[[139795,342984],[25553,-16039],[-1704,4791],[-8133,9436],[14288,6428]],[[169799,347600],[2802,-11978],[8902,-6720]],[[79349,751350],[-494,9992],[12089,-5054],[1484,2658],[-6594,8706],[-7254,468],[330,5521],[-5001,6778],[6100,3009],[1648,4733],[-10550,497],[494,8589],[-2747,5697],[-8573,3710],[-17914,3448],[-7473,3476],[1154,10605],[-8957,8034],[-5056,-409],[2198,5902],[715,14900],[-1374,6631],[23684,-584],[-110,16185],[20662,205],[-110,4411],[-11760,58],[3132,3156],[-5495,3243],[-714,4586],[-13078,5317],[7088,9232],[-7528,351],[-2198,3856],[-6814,-2658],[3517,5814],[10880,29],[10606,15045],[94900,117]],[[182437,677670],[-329,-11598],[5440,-4996],[9067,1052],[-2528,-9933],[-440,-10167],[5441,-789],[1209,-9056],[4176,-731]],[[202055,594320],[604,-5434],[12419,2250],[110,-8590],[9122,-29],[440,-6778],[-22750,-818],[-10386,4704],[-3956,-7392],[-2363,-13935],[9287,-1607],[1209,-10839],[-25498,614],[3078,-8326],[-3407,-4003],[-11375,-1461],[4066,-6135],[-6319,1899],[-7584,-1051],[1759,-6340],[7144,-1490],[-1099,-4704],[-32092,-788],[4781,-6252],[-4506,-5025],[-16760,5112],[-3407,-3564],[-6704,-614],[-4396,2776],[-5331,-2659],[-2967,3389]],[[85174,507230],[0,3798],[-10276,4032],[-7803,17879],[-3187,1227],[1484,8385],[-5495,25768],[5385,4995],[-5275,7100],[-2858,-1549],[2638,17179],[8352,-292],[2143,6427],[-8297,25446],[12803,3681],[-3242,8969],[4122,2220],[-2858,14608],[6429,1811],[-7143,8940],[11594,234],[8957,2951],[-54,9640],[-15387,1636],[-824,4149],[4726,2396],[-1429,5872]],[[213595,382453],[1209,-5843],[-2748,-8122],[3352,-13322],[-4011,-3535],[-2913,-10167],[-4176,-1665],[1044,-4879],[-14397,702],[2638,-3945]],[[193593,331677],[-1649,-3973],[-10441,1198]],[[169799,347600],[12034,2600],[-8298,6924],[-55,5989],[-8132,11394],[3352,7800],[-2253,3126]],[[166447,385433],[3956,935],[660,5405],[10166,7245],[13517,526],[12255,-6953],[6594,-10138]],[[256786,545005],[-55,-3885],[8628,-5960]],[[265359,535160],[-6155,-4178],[-1154,-9904],[-4286,-7041],[-7693,-4324],[-4122,-5287],[-17199,-8297],[384,7712],[-10770,-6456]],[[214364,497385],[1099,6778],[-5495,14227],[1923,10109],[-3846,672],[7913,9933],[55,-5054],[8957,613],[-3737,6661],[8957,4090],[2418,4937],[11869,-2132],[1484,-2600],[10825,-614]],[[133256,448128],[11925,760],[4506,-5054],[7088,1081],[6320,-5434],[6539,3184]],[[169634,442665],[769,-1315],[-2363,-3885],[16705,-12124],[8243,-4353],[6319,-6048],[275,-438],[605,-4119],[7308,-3828],[7858,-584],[2583,-6836]],[[217936,399135],[-2198,-2162],[5440,-10634],[-7583,-3886]],[[166447,385433],[-1649,7567],[-8902,3301],[-17749,-1256],[-8078,-5931],[-9836,409],[-1484,5960],[-24453,-29]],[[94296,395454],[6374,3593],[8738,672],[-1209,10722],[6868,1899],[-5055,5872],[-4066,6223],[-4177,88],[-769,5521],[2967,10635],[-2088,6748],[6814,584]],[[108693,448011],[24563,117]],[[255467,581699],[-3132,-11657],[-3022,-1636],[11540,-7040],[-1814,-10196],[3132,-2162],[-5385,-4003]],[[214364,497385],[-2912,-7450],[2362,-8531],[-1923,-2366],[-10001,2600],[-4836,-2104],[3023,-5638],[-7638,-12241],[-7968,-1695],[-220,-4177],[-8023,-3302],[-6594,-9816]],[[108693,448011],[-5495,3506]],[[103198,451517],[-6154,9086],[1813,10810],[-3187,2015],[-1374,8151],[-3517,3389],[-4945,8794],[-660,13468]],[[229585,316573],[16486,-8297],[-9562,-5083],[-4341,-15981],[-12529,-5726],[9507,-555],[6594,-3067],[13628,8501],[2418,-11832]],[[251786,274533],[-9287,-8881],[-6594,6281],[-2143,-18084],[-3132,-2483],[-9947,2103],[2418,-6018],[-1429,-7362],[-12473,-1081],[1263,-2834],[-879,-4879],[-11100,-1636],[-1978,-23518],[-16540,-5113]],[[179965,201028],[-9892,9700],[-8682,-468],[385,6340],[-5990,-4120],[-9287,3915],[-824,8473],[9177,7157],[-2198,4645],[-9671,1432],[-5386,-4499],[-3846,3798],[-5111,-5142],[-2912,2892],[-12419,-233]],[[193593,331677],[11484,-5989],[9452,6749],[12199,-16390],[2857,526]],[[58138,327909],[-4506,16974],[-11649,6222],[-10881,59],[-3407,4966],[880,5347],[7088,4879],[-8682,5083],[-1209,11189],[-9012,6136]],[[16760,388764],[7583,3797],[-4835,4500],[6099,7625],[6320,-3477],[7748,88],[9122,-5814],[21980,-8969],[5110,-672],[5660,5551],[4451,-877],[8298,4938]],[[376030,168424],[-1374,-2220],[12749,-6077],[8847,-11569],[4231,-175],[10496,-9466],[21431,-6252],[6704,-3681],[1374,-4295],[6319,-3301],[4176,-8589],[8627,-7450]],[[459610,105349],[-1538,-1694],[3022,-10401],[-7528,-4353],[-2198,-8326],[4671,-8881],[-1979,-5201],[-15825,-3243],[-2199,-6398],[715,-35525],[15936,8063],[-12474,-10429],[-11870,-6778],[-8407,-12183],[-5056,3272],[-10880,964],[-22365,-2162],[-4396,11599],[-16485,2950],[4725,994],[275,4732],[-4341,2747],[-3462,-3769],[-9397,4441],[1099,6135],[-23683,15221],[-9012,4324],[714,2132],[-9232,5230],[3407,12387],[-5275,7508],[330,4441],[-7199,5346],[-12144,5084],[-7913,-614],[-10056,-5346],[-6155,8910],[-31102,1373],[-3462,-5404],[-4506,350],[-1374,5113],[-11320,4499],[-329,4703],[-7638,9788]],[[203704,116948],[-220,4557],[5550,8969],[20716,-467],[4506,5667],[7309,3652],[549,-9816],[15387,-6632],[-4232,12533],[8408,1578],[4726,12007],[7528,3272],[-6319,4499],[8297,9291],[8792,-59],[4341,-11832],[7694,-175],[164,10430],[-3242,2308],[3737,10283],[-4396,3010]],[[292999,180023],[10441,-234],[12089,-8297],[6044,2892],[10276,-1139],[11265,5405],[14452,-351],[7584,-2074],[10880,-7801]],[[259094,191533],[14672,-6894],[824,2132],[14672,-2337],[3737,-4411]],[[203704,116948],[-19508,24452],[2253,1520],[7308,7274],[-659,5346],[-15661,16536],[-5165,1899],[11539,7070],[1429,3185]],[[185240,184230],[4506,-1023],[-2693,9758],[8078,2483],[5330,-3447],[9232,3593],[-2363,-4294],[2198,-5843],[-9781,-4646],[-3901,-7625],[8847,-7917],[5000,10138],[8298,146],[6154,13146],[-4396,5756],[824,7304],[9287,-760],[3517,-3915],[5385,584],[4067,-3622],[10275,-29],[5990,-2484]],[[16760,388764],[-9232,6310],[-6264,17704],[385,8706],[-1649,14462],[9067,788],[4176,-3564],[2033,3623],[4451,-2542],[36433,1549],[11045,5112],[8023,-1899],[824,7012],[5660,1957],[9177,-4762],[5440,2717],[-330,4850],[7199,730]],[[737937,546729],[15662,-18026],[11374,-11803],[-4011,-1227]],[[760962,515673],[-9177,-1899],[-6429,2338],[-1484,3797],[-10166,-292],[-6099,-2366],[1209,6398],[-28905,-6456],[-9671,7741],[-8462,-12357],[-3737,7654],[-10001,-4996],[-9287,6661],[-6209,-7420],[-9892,-8356],[-9067,-2103],[825,-6106],[-13848,-6545],[-2583,-4557],[-1263,-3155],[-1814,-1636]],[[614902,482018],[-7363,1519],[-7529,6340],[-769,-5902],[-10496,2600],[-2692,-4937]],[[545389,660609],[3352,-818]],[[548741,659791],[12364,-3126],[27585,29],[-384,-8852],[8352,-29],[-55,-13936],[33136,-351],[-6539,-6222],[4506,-8706],[15331,1636],[165,-6895],[11704,-5755],[16486,-16273],[10660,-5609],[12584,1256],[4012,-5522],[-3243,-8384],[-11869,-12329],[12254,-11452],[4121,2892],[14343,-1987],[6704,3769],[3352,-5317],[9891,3330],[3736,-5229]],[[614902,482018],[6594,-2484],[-3187,-10196]],[[618309,469338],[-6209,-1168],[-8298,-7275],[-11155,-3067],[4726,-7801],[10990,-12621],[7253,-1782],[3572,-5463]],[[619188,430161],[1649,-8472],[-4946,-292],[-5660,-7070],[-9122,-4558],[605,2922],[-13628,-11570],[7309,-6923]],[[595395,394198],[-15442,-4821],[-8572,-10722]],[[571381,378655],[-6704,-5930],[-7968,3242],[-5495,7421],[-6155,-409],[-10056,11219],[2858,2220],[-6155,11949],[-2692,-2250],[-12419,5668],[4671,3739]],[[645455,432352],[-1704,-2249],[55,-26849],[-6044,1987],[-4561,-5493],[-8847,1373],[0,-3388],[-15387,-4529],[-6154,-6164],[-7418,7158]],[[619188,430161],[6814,964],[2253,3214],[10001,2366],[7199,-4353]],[[652104,438283],[-6649,-5931]],[[618309,469338],[8188,-4031],[-1319,-11336],[14672,-7946],[934,-4499],[11320,-3243]],[[607704,768850],[1044,-3243],[-10606,1023],[0,-3126],[-11650,-4821],[1924,-6836],[9671,-58],[-55,-8122],[-10715,4966],[-1099,-1986],[-6210,-5317],[-6099,-1490],[-11046,-6194],[-12089,-10079],[-494,-5405],[22255,-204],[769,-23460],[-7198,-88],[659,-15805],[-12804,-905],[10716,-4850],[-1594,-7421],[-14232,0],[-110,-5638]],[[430102,664290],[-9617,1285],[-110,10956],[5715,1285],[-6594,11014],[1704,4762],[-15716,3389],[-3847,4938],[605,6018],[-5990,9904],[4506,10342],[-1704,9466],[2693,555],[659,9787],[-29233,7479],[329,3067],[-7913,5639],[-4396,-2074],[-9396,5171],[-5166,-6106],[-3187,2016],[-4836,-5376],[-7473,497],[9012,9728],[-14837,9816],[24124,25271],[-12584,-379],[6429,9816],[4396,2541],[-13243,12767],[10441,117],[4835,3448],[990,10283],[3956,1140],[-1264,9086],[-10880,233]],[[392900,575652],[3407,-2133],[-6759,-13585],[8902,-1841],[1923,-19135],[-11430,1636],[-3242,-5610],[8353,-4908],[1648,-4762],[-8462,438],[-8188,-10897],[13518,-701],[4671,-3564],[3792,-12475],[4671,-5609],[6374,58],[12309,-7362],[6649,-7420],[6814,-2834],[-12144,-2484],[4945,-1314],[-55,-5726],[7968,-6019]],[[438564,459405],[-13957,1782],[-6265,-1986],[275,-6515]],[[418617,452686],[-9012,-877],[-9561,-4937],[-1594,2133],[-17310,1373],[-604,-3710],[-21761,-117],[-10276,1986]],[[348499,448537],[4616,7450],[-8242,3360],[-330,12504],[-5660,4850],[-11650,4002],[1869,4499],[-8023,526],[-769,8093]],[[314265,564229],[6649,7771],[18793,-1461],[165,6661],[6979,2629],[2748,-2746],[17034,-6369],[6649,1899],[7694,-6135],[11924,9174]],[[481151,461421],[-6759,-818],[-6814,7859],[-4176,-4149],[-12529,-1899],[-5055,-3038],[-2363,4090],[-4891,-4061]],[[392900,575652],[-2363,11393],[10001,322],[-2638,7859],[-8132,1051],[20442,877],[6978,-3155],[-1978,-3886],[6649,175],[2308,-3798],[10935,-2921],[2803,3272]],[[632432,287271],[-1814,-3068],[6979,-16156],[-3627,-7800],[-6154,1753],[-605,-5317],[-6429,2074],[55,-4090],[-9232,-964],[0,-29],[-549,-994],[-385,-672],[-3407,-7537],[1868,-6983],[6979,2834],[3242,-6018],[-1319,-8122],[-7088,-9465]],[[610946,216717],[-3792,-6165],[-6704,205],[-3132,3681],[-9946,-2454],[-715,-2571]],[[586657,209413],[-7198,7946],[-7364,3535]],[[572095,220894],[-7583,2542],[-3956,5171],[-10991,5522],[-5165,-3798]],[[544400,230331],[-2198,2308],[-55,13205],[-5275,4470],[3736,10254],[7144,3302],[-7199,5141]],[[540553,269011],[550,16624],[5110,-614],[6924,-6135],[3957,1753],[3736,-4850],[5111,2571],[10056,-10576],[7913,8560],[-2308,6954],[15606,7362],[3462,-4236],[-2033,-4938],[11814,-3506],[6429,3886],[4232,-730],[-4561,7742],[15881,-1607]],[[689306,291974],[12254,-15659],[-3462,-3389],[3572,-2863],[-2363,-6047]],[[699307,264016],[-659,438],[-31762,-14257],[-6210,-10371],[8738,-17091],[3956,-3681]],[[673370,219054],[6429,-8998],[-3736,-8911],[-8518,7245],[1594,-7070],[-3077,-10020],[3242,-935],[-1649,-9291],[1923,-7683],[-16705,2103],[-1868,6895],[6374,1490],[5166,8326],[-3627,4908],[-8133,-1197]],[[650785,195916],[-3242,9407],[-12968,3097],[-21102,9494],[-2527,-1197]],[[632432,287271],[879,6164]],[[633311,293435],[20057,-3915],[5990,6282],[1099,4995]],[[660457,300797],[4121,-6135],[3077,1841],[10441,-8005],[989,7070],[10221,-3594]],[[841300,505828],[13463,-4675],[4396,4763],[7254,-4938],[4671,-6748],[-1374,-5581],[6374,-6719],[7803,7800],[8628,-350],[275,-4441],[14671,4149],[20497,-7275],[2858,7187],[3626,-2162],[4616,3068],[5111,-2542],[-2363,-7684]],[[941806,479680],[-55,-5200],[-15002,-25358],[-6704,-8706],[-17199,-30238],[-10331,-22612],[8462,-2221],[-2582,-6982],[-8518,2162],[-3077,-14812],[10166,-1402],[-5990,-4704],[9397,-9349],[-2693,-13263],[2363,-8969],[4011,-4733]],[[904054,323293],[-47972,672],[-1483,-3097],[-12749,3009],[-6594,-4353],[-6869,847],[-6210,7392],[-2582,-6135],[-14837,-6749],[-11979,-9583],[-8902,4850],[-2858,-5697],[-12144,-1227],[-11265,5697],[-10606,1519],[-7748,-2775],[3957,-5551],[-3572,-2629],[-7748,6252],[-4286,-3331],[-8902,438],[-7089,-6047],[-110,-5902],[-6759,-1548],[-8133,4762],[-7308,-2133]],[[660457,300797],[5055,9583],[6319,0],[825,9787],[-7309,1840],[-7803,8443],[-769,11949],[6484,1870],[-7199,2863],[5496,7070]],[[661556,354202],[5660,2863],[23244,0],[9781,4178],[6704,-1841],[660,-6164],[3461,4003],[20003,5025],[-990,2658],[18354,5843],[-10550,3447],[-990,8473],[-4396,2804],[-1703,6369]],[[730794,391860],[7253,4178],[-12638,6398],[-6924,8268],[-4946,10167],[12529,7157],[934,2601]],[[727002,430629],[11100,-818],[13573,15513],[2583,6865],[4891,643],[-1429,8764],[1648,10781],[3188,7216],[-7749,-1549],[110,6545],[13189,2892],[5275,7216],[5825,-88],[-6430,14257]],[[772776,508866],[17530,6457],[13738,-5463],[0,-4616],[11429,-3068],[-8407,-8589],[12309,-5756],[3682,3506],[5989,-5434],[8573,8268],[3681,11657]],[[904054,323293],[990,-3477],[-3847,-38271],[7748,-2104],[2143,-8881],[3627,-4733],[-110,-14257],[2803,-5405],[4835,-1519],[1814,-9466],[-6100,-2220],[-769,-4528],[-11705,-7392],[55,-6193],[12474,-9641],[4451,-1081],[9507,-16740],[-28080,4616],[-12419,0],[-10606,-59],[-165,3857],[-6594,-526],[-2198,-5025],[-23959,4908],[-7638,555],[-7803,10459],[-7308,-6982],[-385,-6136],[5385,-5638],[-7693,-11072],[-18024,-8356],[-10605,-22116],[-880,-8384],[-12748,-11920],[-3352,6398],[-4561,-1841],[-22145,19867],[-10716,2571],[-8572,-614]],[[730904,151947],[26266,21531],[-3571,5551],[3681,8823]],[[757280,187852],[-7968,25797],[-14342,-672],[-10770,6077],[-11595,15338],[-6924,-1461],[1264,5726],[-8462,2951],[-1209,6632],[7968,2395],[-5935,13381]],[[760962,515673],[2308,-5375],[9506,3272],[0,-4704]],[[727002,430629],[-4011,8180],[-10826,3243],[-274,-5142],[-21101,-2630],[-5001,9349],[-11320,2513],[440,-2308],[-9946,-409],[-12859,-5142]],[[729255,789359],[3627,-9319],[-1978,-3886],[8242,-3798],[-1868,-2542],[10825,-12737],[5111,-2045],[7583,-12826],[-1703,-7128],[1373,-9817],[-3132,-3681],[5770,-15191],[-1594,-4441],[8408,-9203],[2363,-6456],[4891,-3302],[7363,-11160],[879,-9524],[13353,-11364],[11925,-6106],[2253,-4558],[8297,-3798],[12914,-1081],[9451,-5200],[-1538,-4119],[9616,-10372],[9452,-2892],[12144,-8618],[11704,-3711]],[[884986,600484],[-1428,-9553],[-24453,9232],[-6595,-5522],[-13408,2425],[-10990,-1314],[8792,-18055],[7144,-292],[-1594,-4646],[7309,-263],[5495,-9933],[-2803,-2220],[3298,-5931],[-6759,-818],[8462,-6369],[-3352,-2921],[5055,-4733],[-5165,-4850],[-4506,4237],[-1374,-4587],[4781,-4850],[-5880,-12854],[-5055,526],[-1594,-6106],[-5055,-3828],[5989,-1431]],[[737937,546729],[6265,321],[2747,9524],[25663,18756],[879,8560],[13353,88],[-11100,11481],[9891,4704],[-10880,9962],[-11815,4850],[-3022,-4353],[-7913,12066],[-11155,9290],[2143,4850],[-1374,30588],[-11265,1957],[-6209,6457],[9506,4440],[2803,14462],[-4012,847],[-4066,6807],[2693,6661],[5220,3594],[-6100,2015],[-494,9145],[-5111,11715],[3297,6018],[-4725,-263],[-1374,8940],[-4726,8911],[10880,15513],[-13298,292],[-12638,20071]],[[730794,391860],[-9342,1782],[1154,2571],[-7308,1987],[-23684,906],[3352,-5756],[-17914,-1402],[-7858,-6106],[-879,-6164],[-4836,847],[-11925,-7713],[10716,-10780],[-5495,-3068]],[[656775,358964],[-8078,-409],[-1649,-6719],[-4560,-2922],[-31927,-2016],[-7144,-5959]],[[603417,340939],[-7913,1460],[-10550,4733],[-6649,-2863]],[[578305,344269],[-1924,7245],[-6484,526],[-5989,4295],[439,4879],[6045,4966],[989,12475]],[[999999,553448],[-8792,-13468],[-7968,-8180],[-1099,-4587],[-18134,-28221],[-7418,-8648],[-6814,4557],[-7089,-13672],[-879,-1549]],[[884986,600484],[32422,-5054],[274,-5989],[6759,-964],[4067,-6456],[28629,-3769],[20827,-18318],[13188,-4090],[2088,4470],[6759,-6866]],[[383778,265155],[33685,-4704],[6814,3331],[5880,-1724]],[[430157,262058],[11704,-2921],[989,-5025]],[[442850,254112],[-2582,-5902],[8078,-3622],[6759,2541],[8077,-2687],[4012,-3944],[9012,496],[-2473,-3622],[1264,-6632],[4506,-438],[10331,-11102],[0,-4119],[10880,-1081],[5330,-3740]],[[506044,210260],[1868,-6047],[6430,2921],[5165,-8005]],[[519507,199129],[-3901,-6281],[-4232,3243],[-9122,-1140],[220,-7157],[7803,-2250],[-10111,-3097],[-5165,-6135],[-3737,-17908],[-4945,-2864],[4835,-9670],[-3901,-9787],[-5715,-1519],[-824,-5259],[4671,614],[-2034,-5200],[-4396,2162],[-19343,-21532]],[[376030,168424],[110,5434],[11595,4412],[3022,5025],[-5550,8005],[3956,15454],[-11814,12095],[-1374,7596],[4506,4032],[-2748,4353],[5770,1724],[-1099,5025],[-8132,7391],[6759,1870],[54,5930],[4616,2630],[-1923,5755]],[[251786,274533],[12254,-19457],[8462,-4470],[10276,-847],[5880,-8034],[-4122,175],[15167,-18026],[-21871,-11160],[-11155,-2863],[-3462,-2863],[0,-6369],[-4121,-9086]],[[185240,184230],[110,8910],[-5550,1402],[165,6486]],[[280690,397002],[-110,-4908],[10606,-9436],[6099,321],[3847,-4733],[4451,2571],[9232,-4411],[-6814,-789],[7583,-8648],[-2088,-2863],[7088,-11978],[-7583,-5230],[5715,-2512],[-6319,-2805],[3901,-4031],[-1483,-7333]],[[314815,330217],[-14617,-2162],[-6045,-12154],[-22145,18669],[-15826,6573],[-17530,-14315],[-5165,-2863],[-3902,-7392]],[[217936,399135],[6044,-438],[605,4528],[5770,2951],[10495,-2454],[2253,3622],[6430,994],[2747,-3097],[15222,-4441],[-330,-4032],[9781,-1606],[3737,1840]],[[449554,643927],[-29838,584],[-5220,-3213],[-9782,0],[-3462,-5551],[-1758,3652],[-11045,1607],[-7199,-5201],[-8737,1607],[-9067,-818],[-3737,5142],[-8847,-59],[-4176,-2746],[-2033,5989],[-17255,-3272],[-9122,1666],[-6209,-2425],[-11320,321],[-3297,-6018],[-7199,-88]],[[290251,635104],[-549,5814],[3956,8823],[-1099,9407],[-6209,-2337],[2253,4616],[-6155,11744],[-1044,7596],[-10001,-2337],[3132,8648],[-7033,6807],[-3737,-760],[-3627,5376],[-12639,8560]],[[374986,401910],[2088,-4440],[-5770,-2659],[2858,-3330],[-10111,-5464],[9012,-1665],[-1099,-4470],[9946,-10342],[-10056,-3447],[3352,-9466],[3077,847],[3847,-6047],[16979,1022],[3957,-6164],[6924,-4411]],[[409990,341874],[3901,-6077],[-3517,-3681],[-5770,4820],[-8242,-4236],[-2693,-10926],[-9616,5755],[-3352,-7947],[-7419,-10780],[-5330,-2804],[4396,-2980],[-2582,-5493]],[[369766,297525],[-4836,3652],[1264,4616],[-5166,12738],[-6374,-6281],[-13958,10283],[-3297,614],[-1263,11277],[-8848,-5405],[-12034,-614],[-439,1812]],[[280690,397002],[6374,643],[6924,-4207],[6264,2425],[10551,-468],[6649,2688],[2253,10050],[6594,-789],[1869,3564]],[[328168,410908],[7033,6428],[-3352,5054],[9232,-3301],[-3627,-3331],[989,-6690],[7694,1753],[-3847,-4733],[2418,-3038],[6374,3389],[5935,-1870],[385,3681],[12638,-1724],[4946,-4616]],[[730904,151947],[-6869,876],[-11760,-9962],[-5385,1198],[-10276,-5814],[-7803,16390],[-28245,-9553],[-4011,4323],[-5110,-4236],[-6869,3740],[1538,4294],[-7143,1870]],[[638971,155073],[879,2308],[-10001,2220],[17804,14929],[1594,5609],[-3243,9408],[4781,6369]],[[673370,219054],[3462,321],[5220,-6106],[2638,1695],[8462,-2659],[-2253,-4850],[-8627,-788],[14947,-3185],[769,-12212],[5001,-13585],[4945,5522],[5660,1344],[-2088,5551],[12804,2717],[1758,-5610],[19892,4178],[6814,-117],[4506,-3418]],[[661556,354202],[-4781,4762]],[[418617,452686],[659,-468],[-1099,-8706],[-4561,1315],[275,4704],[-5000,-2162],[3297,-4149],[-7693,-146],[-1044,-3184],[24343,-3711],[-7528,-6485],[-110,-5434],[8297,29],[5550,-3477]],[[434003,420812],[5166,-8355],[-8023,-8005],[-8957,7012],[0,-13322]],[[422189,398142],[-10386,10984],[-9287,-3768],[-15111,1665],[-440,-4266],[-11979,-847]],[[328168,410908],[-4012,2951],[-3462,-4353],[-549,8297],[7308,614],[825,3009],[-6979,7713],[4780,3301],[-8517,2892],[440,3535],[13408,4645],[1373,-2132],[6814,4995],[2803,-1928],[6099,4090]],[[473678,414005],[-6484,-5551],[1319,-12182],[-11156,-3155],[3847,-5376],[10111,-1899],[-3627,-2863],[12254,204],[2363,-2570],[-3901,-12855],[3132,-1461],[-5770,-6076],[-11375,-2922],[-8078,4937],[-11759,-7449]],[[444554,354787],[-7473,11043],[6209,-322],[110,10927],[-14727,8180],[879,3447],[-9946,-379],[7364,7917],[-4781,2542]],[[434003,420812],[6210,1169],[2967,4411],[3902,-3798],[7253,-1168],[3352,7917]],[[457687,429343],[19508,-4996],[1593,-6047],[-5110,-4295]],[[481481,414093],[-7803,-88]],[[457687,429343],[-1813,9758],[-3187,-1286],[-3407,7538],[824,4616],[-11540,9436]],[[369766,297525],[-5825,-5405],[7473,-1899],[7254,-5492],[3132,-6807],[1978,-12767]],[[265359,535160],[8847,2804],[3297,-4791],[-7693,-4441],[-3627,-6953],[3517,-6719],[11375,-1928],[989,6193]],[[525936,271465],[14617,-2454]],[[544400,230331],[-9836,-12913],[-1429,-6661],[-9946,-234],[-6374,9904],[-4561,-1227]],[[512254,219200],[-5276,1694],[2033,4120],[-4176,4557],[-8188,-1519],[-5495,8998],[2638,13293],[6264,58],[550,4792]],[[500604,255193],[7089,526],[6649,3622],[-55,7479],[-1814,10138]],[[512473,276958],[13463,-5493]],[[290251,635104],[-9341,-1052],[-14617,-6573],[-4396,2980],[-2748,-10313]],[[638971,155073],[-11540,876],[-2638,-3359],[-4286,2950],[-55,2542],[-9177,614],[-12199,21999],[3187,-11044],[-12803,439],[-12364,15483],[-8298,-2424]],[[568798,183149],[5056,8238],[8627,-584],[6429,2629],[-1923,5551],[6979,2454],[-6924,4207],[-385,3769]],[[423837,344561],[1814,-6602],[4835,-1841],[4177,3564],[12309,-5872],[-4836,-905],[2198,-11073],[3737,-1490],[-4122,-3944],[6540,-8355],[3791,-88],[11870,-6982]],[[466150,300973],[2912,-6837],[-8023,-2249],[-2198,-4178],[-5770,935],[5880,-7158],[-4011,468],[-4561,6515],[-4506,-556],[-1374,-5959],[-7583,-5580],[3462,-9378],[-7913,3388],[-2308,-8326]],[[409990,341874],[6924,-1228],[6923,3915]],[[508297,296707],[7748,1432],[9507,-9641],[-14397,-4470],[1318,-7070]],[[500604,255193],[-5550,2045],[-10606,-205],[-1044,-5814],[-16760,5639],[-12034,-3389],[-11760,643]],[[466150,300973],[9396,-2630],[7364,-4937],[14232,-205],[1264,7625],[9891,-4119]],[[444554,354787],[-7309,2892],[-2692,-12621],[-6979,2659],[-3737,-3156]],[[633311,293435],[3407,13088],[-5715,5347],[-440,5288],[-7913,15513],[-19233,8268]],[[572095,220894],[-6209,-12416],[-7968,-4295],[-12969,-10312]],[[544949,193871],[-1263,-410],[-18739,13118],[-5440,-7450]],[[506044,210260],[6210,8940]],[[568798,183149],[3187,-6106],[-15551,13906],[-4945,-1023],[-6540,3945]],[[578305,344269],[-5166,701],[-3187,-6252],[-19452,1023],[-2968,4791],[-5000,-6690],[-12254,1139],[-4177,8443],[-16100,-5755],[2747,-7070],[-12913,-2513],[-1924,-2892],[4891,-5054],[6979,1957],[3572,-3914],[-2198,-4441],[-12090,-1023],[-4561,-7245],[15826,-8355],[-2033,-4412]]],"transform":{"scale":[0.000005768327965773991,0.0000062251444604919904],"translate":[-109.07525356575945,25.55871705396735]},"objects":{"municipalities":{"type":"GeometryCollection","geometries":[{"arcs":[[0,1,2]],"type":"Polygon","properties":{"cvegeo":"08006","nombre":"Bachíniva"}},{"arcs":[[3,4,5,6,7,8,9,10,11]],"type":"Polygon","properties":{"cvegeo":"08019","nombre":"Chihuahua"}},{"arcs":[[12,-5,13]],"type":"Polygon","properties":{"cvegeo":"08004","nombre":"Aquiles Serdán"}},{"arcs":[[14,15,16,17]],"type":"Polygon","properties":{"cvegeo":"08037","nombre":"Juárez"}},{"arcs":[[18,19,20,21,22,23]],"type":"Polygon","properties":{"cvegeo":"08013","nombre":"Casas Grandes"}},{"arcs":[[24,25,-19,26,27]],"type":"Polygon","properties":{"cvegeo":"08050","nombre":"Nuevo Casas Grandes"}},{"arcs":[[28,29]],"type":"Polygon","properties":{"cvegeo":"08053","nombre":"Praxedis G. Guerrero"}},{"arcs":[[-17,30,31,-28,32,33]],"type":"Polygon","properties":{"cvegeo":"08005","nombre":"Ascensión"}},{"arcs":[[34,35,36,37]],"type":"Polygon","properties":{"cvegeo":"08025","nombre":"Gómez Farías"}},{"arcs":[[38,39,40]],"type":"Polygon","properties":{"cvegeo":"08020","nombre":"Chínipas"}},{"arcs":[[41,42,-20,-26]],"type":"Polygon","properties":{"cvegeo":"08023","nombre":"Galeana"}},{"arcs":[[-29,43,44,45,46,-15,47]],"type":"Polygon","properties":{"cvegeo":"08028","nombre":"Guadalupe"}},{"arcs":[[48,49,-39,50,51]],"type":"Polygon","properties":{"cvegeo":"08030","nombre":"Guazapares"}},{"arcs":[[-33,-27,-24,52]],"type":"Polygon","properties":{"cvegeo":"08035","nombre":"Janos"}},{"arcs":[[53,-37,54,55,-22]],"type":"Polygon","properties":{"cvegeo":"08040","nombre":"Madera"}},{"arcs":[[56,57,-52,58,59]],"type":"Polygon","properties":{"cvegeo":"08041","nombre":"Maguarichi"}},{"arcs":[[60,61,62]],"type":"Polygon","properties":{"cvegeo":"08043","nombre":"Matachí"}},{"arcs":[[63,64,65,-60,66,67,68]],"type":"Polygon","properties":{"cvegeo":"08051","nombre":"Ocampo"}},{"arcs":[[69,-63,70,-64,-69,71,72,-55,-36]],"type":"Polygon","properties":{"cvegeo":"08063","nombre":"Temósachic"}},{"arcs":[[73,74,75,-49,-58,76]],"type":"Polygon","properties":{"cvegeo":"08065","nombre":"Urique"}},{"arcs":[[-67,-59,-51,-41,77,78]],"type":"Polygon","properties":{"cvegeo":"08066","nombre":"Uruachi"}},{"arcs":[[79,80,81,82]],"type":"Polygon","properties":{"cvegeo":"08029","nombre":"Guadalupe y Calvo"}},{"arcs":[[83,-82,84,85]],"type":"Polygon","properties":{"cvegeo":"08046","nombre":"Morelos"}},{"arcs":[[-68,-79,86,-72]],"type":"Polygon","properties":{"cvegeo":"08047","nombre":"Moris"}},{"arcs":[[87,88,89,-14,-4,90,91]],"type":"Polygon","properties":{"cvegeo":"08002","nombre":"Aldama"}},{"arcs":[[92,93,94,95,96,-6,-13,-90]],"type":"Polygon","properties":{"cvegeo":"08055","nombre":"Rosales"}},{"arcs":[[97,-95,98]],"type":"Polygon","properties":{"cvegeo":"08021","nombre":"Delicias"}},{"arcs":[[99,-99,-94,100]],"type":"Polygon","properties":{"cvegeo":"08045","nombre":"Meoqui"}},{"arcs":[[-47,101,-91,-12,102,-31,-16]],"type":"Polygon","properties":{"cvegeo":"08001","nombre":"Ahumada"}},{"arcs":[[103,104,105,106,-3,107]],"type":"Polygon","properties":{"cvegeo":"08017","nombre":"Cuauhtémoc"}},{"arcs":[[-9,108,-104,109]],"type":"Polygon","properties":{"cvegeo":"08054","nombre":"Riva Palacio"}},{"arcs":[[110,111,112,113,114,115]],"type":"Polygon","properties":{"cvegeo":"08032","nombre":"Hidalgo del Parral"}},{"arcs":[[116,117,118,119,-111,120,121,122]],"type":"Polygon","properties":{"cvegeo":"08003","nombre":"Allende"}},{"arcs":[[123,124,125,-123,126,127,128,129,130]],"type":"Polygon","properties":{"cvegeo":"08011","nombre":"Camargo"}},{"arcs":[[131,132,133,-117,-126]],"type":"Polygon","properties":{"cvegeo":"08036","nombre":"Jiménez"}},{"arcs":[[134,-130,135,-101,-93,-89]],"type":"Polygon","properties":{"cvegeo":"08038","nombre":"Julimes"}},{"arcs":[[136,137,-131,-135,-88,138,-45]],"type":"Polygon","properties":{"cvegeo":"08052","nombre":"Ojinaga"}},{"arcs":[[-129,139,140,141,142,-96,-98,-100,-136]],"type":"Polygon","properties":{"cvegeo":"08062","nombre":"Saucillo"}},{"arcs":[[143,-124,-138,144]],"type":"Polygon","properties":{"cvegeo":"08042","nombre":"Manuel Benavides"}},{"arcs":[[145,146,147,148,149,-80,150]],"type":"Polygon","properties":{"cvegeo":"08007","nombre":"Balleza"}},{"arcs":[[151,-86,152,-75]],"type":"Polygon","properties":{"cvegeo":"08008","nombre":"Batopilas de Manuel Gómez Morín"}},{"arcs":[[153,154,-77,-57,-66,155]],"type":"Polygon","properties":{"cvegeo":"08009","nombre":"Bocoyna"}},{"arcs":[[-11,156,157,-42,-25,-32,-103]],"type":"Polygon","properties":{"cvegeo":"08010","nombre":"Buenaventura"}},{"arcs":[[158,159,160,-154,161,162]],"type":"Polygon","properties":{"cvegeo":"08012","nombre":"Carichí"}},{"arcs":[[-133,163,164,-119,165]],"type":"Polygon","properties":{"cvegeo":"08014","nombre":"Coronado"}},{"arcs":[[-139,-92,-102,-46]],"type":"Polygon","properties":{"cvegeo":"08015","nombre":"Coyame del Sotol"}},{"arcs":[[-128,166,-140]],"type":"Polygon","properties":{"cvegeo":"08016","nombre":"La Cruz"}},{"arcs":[[167,168,169,-163,170,-106]],"type":"Polygon","properties":{"cvegeo":"08018","nombre":"Cusihuiriachi"}},{"arcs":[[171,172,-169,173,174]],"type":"Polygon","properties":{"cvegeo":"08022","nombre":"Dr. Belisario Domínguez"}},{"arcs":[[-109,-8,175,-175,176]],"type":"Polygon","properties":{"cvegeo":"08024","nombre":"Santa Isabel"}},{"arcs":[[-177,-174,-168,-105]],"type":"Polygon","properties":{"cvegeo":"08026","nombre":"Gran Morelos"}},{"arcs":[[-161,177,-151,-83,-84,-152,-74,-155]],"type":"Polygon","properties":{"cvegeo":"08027","nombre":"Guachochi"}},{"arcs":[[-1,-107,-171,-162,-156,-65,-71,-62,178]],"type":"Polygon","properties":{"cvegeo":"08031","nombre":"Guerrero"}},{"arcs":[[179,-115,180,181,182,183]],"type":"Polygon","properties":{"cvegeo":"08033","nombre":"Huejotitán"}},{"arcs":[[-158,184,-38,-54,-21,-43]],"type":"Polygon","properties":{"cvegeo":"08034","nombre":"Ignacio Zaragoza"}},{"arcs":[[-166,-118,-134]],"type":"Polygon","properties":{"cvegeo":"08039","nombre":"López"}},{"arcs":[[-165,185,186,-112,-120]],"type":"Polygon","properties":{"cvegeo":"08044","nombre":"Matamoros"}},{"arcs":[[-10,-110,-108,-2,-179,-61,-70,-35,-185,-157]],"type":"Polygon","properties":{"cvegeo":"08048","nombre":"Namiquipa"}},{"arcs":[[187,188,-146,-178,-160,189]],"type":"Polygon","properties":{"cvegeo":"08049","nombre":"Nonoava"}},{"arcs":[[190,-183,191,-147,-189,192]],"type":"Polygon","properties":{"cvegeo":"08056","nombre":"Valle del Rosario"}},{"arcs":[[-173,193,-190,-159,-170]],"type":"Polygon","properties":{"cvegeo":"08057","nombre":"San Francisco de Borja"}},{"arcs":[[-167,-127,-122,194,-141]],"type":"Polygon","properties":{"cvegeo":"08058","nombre":"San Francisco de Conchos"}},{"arcs":[[195,196,-149,197,-181,-114]],"type":"Polygon","properties":{"cvegeo":"08059","nombre":"San Francisco del Oro"}},{"arcs":[[198,-196,-113,-187]],"type":"Polygon","properties":{"cvegeo":"08060","nombre":"Santa Bárbara"}},{"arcs":[[-7,-97,-143,199,-193,-188,-194,-172,-176]],"type":"Polygon","properties":{"cvegeo":"08061","nombre":"Satevó"}},{"arcs":[[-182,-198,-148,-192]],"type":"Polygon","properties":{"cvegeo":"08064","nombre":"El Tule"}},{"arcs":[[-195,-121,-116,-180,-184,-191,-200,-142]],"type":"Polygon","properties":{"cvegeo":"08067","nombre":"Valle de Zaragoza"}}]}}}