{"type":"Topology","arcs":[[[544347,827626],[22013,-28521],[6625,-35047]],[[572985,764058],[-22441,-28814],[6839,-4546],[-534,-23169]],[[556849,707529],[-27142,-4326],[-1603,-25515],[-11221,-11804],[-27890,7992],[-5877,-3593]],[[483116,670283],[-3954,16644],[-9511,-1100],[-1282,15543],[-9511,12245],[-10365,-9092],[-16457,7919],[-1282,27274],[-43599,12611],[3206,-17230],[-12182,9385],[427,15030],[-32058,11878],[-7694,22142]],[[338854,793532],[7373,5793],[20090,-11072],[748,-8944],[19235,0],[2565,-8725],[10151,4545],[12503,-8431],[8442,7698],[962,25589],[-8549,28741]],[[412374,828726],[19662,-1320],[7481,-36513],[38790,1320],[7694,7478],[13250,-19209],[10259,-514],[8015,10412],[18486,8725],[-6197,11584],[9938,147],[4595,16790]],[[761380,182051],[6305,-17963],[-11969,953],[-3312,-11291]],[[752404,153750],[-8977,3299],[-6411,-10484],[-13144,-73],[-641,-7406],[-13144,6966],[-16136,-16790]],[[693951,129262],[-17525,7918],[641,5352],[-16991,10485],[-748,11731]],[[659328,164748],[24151,27788],[-1496,15764],[15388,9238],[-5450,13197]],[[691921,230735],[6518,-12684],[10900,-22656],[2458,9532],[-8335,10265],[22227,9751],[-1390,6745]],[[724299,231688],[15281,-9238],[-10151,-10558],[18166,-9238],[3419,-14591],[10366,-6012]],[[752404,153750],[5129,-17010],[12609,1540],[1817,9091],[17632,-1833],[17846,-46777]],[[807437,98761],[-23616,-3153],[4060,-11731],[-8549,-11071],[16029,5645],[10366,-11071],[4915,5133],[11862,-22949],[0,-14737],[-3206,-34827],[-8442,10191],[-1710,23609],[-21372,15324],[-15494,22362],[-18167,9165],[-17845,15397],[-13251,28301],[-16136,9092],[-9510,-4326],[-3420,147]],[[412374,828726],[-11541,-3153],[-8228,29401],[-107,19649],[7053,14884],[2351,293],[8121,29181],[-10258,30355],[16242,7625],[7053,18843],[7908,-147],[-1283,20309],[6946,4033],[11434,-4106],[1390,-21629],[10365,-31820],[8656,5205],[45308,-146],[29387,2272],[24578,7039],[-2137,-22436],[6946,-12317],[534,-18403],[9617,-12684],[8870,5498],[8976,-10997],[-3313,-20823],[7801,-4399],[-55567,-19943],[-5129,-12684]],[[825817,241366],[6198,-10411]],[[832015,230955],[2992,-18550],[-5771,-32113],[-4488,-11731],[2565,-21410],[9510,-3592],[-18380,-26542],[-10258,-2346],[-748,-15910]],[[761380,182051],[5343,5133],[855,0]],[[767578,187184],[-321,220]],[[767257,187404],[321,-220]],[[767578,187184],[-321,220]],[[767257,187404],[34730,1173],[6091,9458],[-15067,30647],[-642,13711],[33448,-1027]],[[724299,231688],[-6304,14664],[12609,147],[37401,29181],[2992,25661]],[[770997,301341],[13999,-9751],[7908,-28814],[8228,3152],[21479,-14957],[3206,-9605]],[[648429,319011],[-13679,-24928],[2565,-4399]],[[637315,289684],[-1817,1613]],[[635498,291297],[-22013,4106],[-4595,-9459],[-26715,-2859],[-23616,15104],[-23082,-10778],[-17098,15837]],[[518379,303248],[4168,15543],[13571,4400],[1496,17083],[15388,4472],[8335,12391]],[[561337,357137],[8335,1540],[14533,-8945],[18915,-806],[15601,-11218],[10366,-16057],[5770,4546],[13572,-7186]],[[783393,552459],[-10793,-14077],[-16243,-4399],[11328,-29181],[-12824,-43332],[5771,-8725],[-7160,-26468],[8442,-2053],[-3954,-21556],[-12289,3226],[-213,-15323],[11861,-8505],[-9938,-4033],[13571,-8431],[-14853,-20163]],[[746099,349439],[-22548,-1833],[3954,20602],[-11541,1760],[-1389,21116],[-10045,13857]],[[704530,404941],[-8549,26762],[-15281,24855],[2565,5059],[-16777,25222],[-3954,13417],[-12503,4106],[-23402,-10925],[-12075,-21922],[-19663,7185],[-2137,-6672]],[[592754,472028],[-3847,15471],[16671,17889],[9510,-3959],[534,19430],[-14319,-3813]],[[601303,517046],[6732,19576],[7053,1027],[10579,17963],[13251,6452],[-13678,14811],[7373,15470],[-7159,18550],[-9725,9678],[-38149,5645]],[[577580,626218],[-4488,22583],[-8763,6745],[1817,13197],[-14640,27348],[5343,11438]],[[572985,764058],[9083,2640],[33127,40985],[1282,16570],[26822,-2053],[5878,-29401],[15708,-5719],[15174,3740],[4488,-10412],[535,-31160],[17632,-660],[3312,-19576],[13999,-9239],[15174,-17669],[4275,12537],[41141,18330],[7694,-4839],[-321,-9385],[19235,-8578],[214,-8359],[-1069,-27201],[-11113,-12611],[-12289,-53670],[427,-55869]],[[601303,517046],[-22441,953],[-30989,6232],[1603,-9018],[-13037,4399],[-962,-8285],[-19769,2420],[-3633,10484],[-11114,-5865]],[[500961,518366],[-2885,22582],[-7694,1540]],[[490382,542488],[15922,1613],[18273,9678],[2458,-8945],[12717,-5645],[9724,12317],[4595,-12024],[22761,3079],[9190,16424],[-5664,6672],[11969,20089],[-14747,40472]],[[659328,164748],[-22868,1393]],[[636460,166141],[2565,7919],[-16029,20309],[-5557,27788],[17311,4326],[-11968,15983],[7160,13124],[5556,35707]],[[637315,289684],[13358,2346],[12289,-26322],[8014,8285],[7908,-4325],[-7587,-10705],[20624,-28228]],[[746099,349439],[1923,-14297],[15923,-8945],[-2779,-15104],[9831,-9752]],[[648429,319011],[9510,8065],[9938,-7258],[5771,10851],[-13999,7772],[18273,16350],[1069,7112],[15174,3739],[-12182,14884],[3526,15837],[19021,8578]],[[483116,670283],[-9938,-10118],[-11541,5132],[-13572,-13710],[-2671,15323],[-15709,-7698],[2672,-10851],[-25433,-5059],[-10045,15177],[-427,-25589],[-17312,1320],[10473,-16643],[-14320,10044],[428,-9531]],[[375721,618080],[-5450,-953]],[[370271,617127],[-3633,4472],[-11327,45605],[-962,13637],[-8870,-73]],[[345479,680768],[-7800,34460],[-24578,64520],[19235,-28227],[8228,146],[0,18110],[-7908,18330],[6198,5425]],[[561337,357137],[-14319,14591],[5877,11218],[-748,16790],[-11113,9458],[855,23022],[-10366,220]],[[531523,432436],[6626,11291],[-10686,11438],[27783,4986],[4702,-9679],[10900,-1833],[21051,12025],[855,11364]],[[500961,518366],[-1710,-4912],[-30668,2712],[-19449,-13857],[-3313,36586],[-15922,-12097],[-3847,13637],[-16777,4912],[-26715,46191],[-12289,25589]],[[375721,618080],[4061,-11878],[26394,-11877],[321,-21996],[10899,-11071],[32593,3006],[18273,-15911],[2671,-8578],[19449,2713]],[[783393,552459],[12182,587],[11327,11071],[16457,-14517],[17525,7478],[6518,-5865],[-8762,-30867],[1068,-17597],[22334,-24269],[26288,1687],[22761,-8872],[21052,-733],[-3847,-9238],[14640,-19577],[-13465,-23242],[7587,-9238],[-5236,-11731],[10793,-8578],[11755,-6452],[1709,-14884],[16777,-10485],[7267,4253],[10152,-9898],[9724,-19943],[-14533,-6306],[6305,-19063],[-1283,-10631],[-18273,-14737],[-5022,-20603],[-14640,-73],[-18807,-7258],[-19449,8211],[-14212,-10118],[-6091,-12171],[-12183,-3006],[-9617,4913],[-20410,-6453],[-14533,3080],[-5236,-6379]],[[579397,123176],[-6839,4912],[-16884,-3372],[-2885,8651],[-13679,-4545],[-17097,-16644],[-10900,-24488],[-641,-21483],[-8122,3739],[-12716,-11951],[-3099,-17816],[-12503,-12611],[-10899,23095],[-17098,13125],[-11755,-10558],[-40607,14224],[8656,7405],[14426,35120],[8656,4179],[7908,18036],[15708,11585]],[[449027,143779],[10900,-11438],[-16563,-24635],[7266,-6672],[13999,7405],[13998,21629],[12076,9312],[9938,-2347],[35691,11951],[17418,-1319],[14533,6598],[2992,-9678],[11862,-3739],[-3740,-17670]],[[636460,166141],[-12182,1466],[-44881,-44431]],[[449027,143779],[12610,18623],[1496,11438],[15388,-3373],[9083,10265],[4274,17963],[-1710,32993],[5664,10265],[-7587,63788]],[[488245,305741],[16563,2639],[-5984,-11438],[19555,6306]],[[531523,432436],[-9724,11364],[-23830,-2053],[-30882,14591],[4701,-9751],[-24898,-6013],[-2244,-9238],[-17098,-4472],[3420,-15324],[-12289,2640]],[[418679,414180],[-28853,71266],[-25005,44578],[-10686,22509],[-5450,21849],[2244,56969],[-5450,49417]],[[488245,305741],[7053,19502],[10045,14444],[-3099,16937],[-12396,15544],[-10473,-6012],[-48942,35486],[-11754,12538]],[[154841,307280],[-7908,-16570],[-9190,9458],[17098,7112]],[[85168,359117],[19448,-4546],[5771,-9091],[-8870,-16424],[-36439,18623],[11968,11804],[8122,-366]],[[11541,439401],[26394,-4692],[13251,-10045],[-962,-9165],[10580,-12831],[-9084,-21629],[-4060,5866],[-28532,15617],[-8549,21996],[962,14883]],[[4702,472102],[4809,-15031],[-9511,3446],[4702,11585]]],"transform":{"scale":[0.000002966260748637933,0.0000024804915509261232],"translate":[-106.68747627631221,20.603558668964027]},"objects":{"municipalities":{"type":"GeometryCollection","geometries":[{"arcs":[[0,1,2,3,4,5]],"type":"Polygon","properties":{"cvegeo":"18001","nombre":"Acaponeta"}},{"arcs":[[6,7,8,9,10,11]],"type":"Polygon","properties":{"cvegeo":"18002","nombre":"Ahuacatlán"}},{"arcs":[[12,13,-8]],"type":"Polygon","properties":{"cvegeo":"18003","nombre":"Amatlán de Cañas"}},{"arcs":[[-6,14]],"type":"Polygon","properties":{"cvegeo":"18005","nombre":"Huajicori"}},{"arcs":[[15,16,-13,-7,17,18,19,20,21]],"type":"Polygon","properties":{"cvegeo":"18006","nombre":"Ixtlán del Río"}},{"arcs":[[-22,-21,-20,-19,-18,-12,22,23]],"type":"Polygon","properties":{"cvegeo":"18007","nombre":"Jala"}},{"arcs":[[24,25,26,27,28]],"type":"Polygon","properties":{"cvegeo":"18008","nombre":"Xalisco"}},{"arcs":[[29,30,31,32,33,34,-2,35]],"type":"Polygon","properties":{"cvegeo":"18009","nombre":"Del Nayar"}},{"arcs":[[36,37,38,-34]],"type":"Polygon","properties":{"cvegeo":"18011","nombre":"Ruiz"}},{"arcs":[[-10,39,40,-26,41]],"type":"Polygon","properties":{"cvegeo":"18013","nombre":"San Pedro Lagunillas"}},{"arcs":[[42,-23,-11,-42,-25,43,-31]],"type":"Polygon","properties":{"cvegeo":"18014","nombre":"Santa María del Oro"}},{"arcs":[[-4,44,45,46,47]],"type":"Polygon","properties":{"cvegeo":"18016","nombre":"Tecuala"}},{"arcs":[[-44,-29,48,49,-32]],"type":"Polygon","properties":{"cvegeo":"18017","nombre":"Tepic"}},{"arcs":[[-38,50,-46,51]],"type":"Polygon","properties":{"cvegeo":"18018","nombre":"Tuxpan"}},{"arcs":[[-16,-24,-43,-30,52]],"type":"Polygon","properties":{"cvegeo":"18019","nombre":"La Yesca"}},{"arcs":[[53,54]],"type":"Polygon","properties":{"cvegeo":"18020","nombre":"Bahía de Banderas"}},{"arcs":[[-27,-41,55,-55,56,57]],"type":"Polygon","properties":{"cvegeo":"18004","nombre":"Compostela"}},{"arcs":[[-51,-37,-33,-50,58,59,-47]],"type":"Polygon","properties":{"cvegeo":"18015","nombre":"Santiago Ixcuintla"}},{"arcs":[[[-49,-28,-58,60,-59]],[[61]],[[62]],[[63]],[[64]]],"type":"MultiPolygon","properties":{"cvegeo":"18012","nombre":"San Blas"}},{"arcs":[[-35,-39,-52,-45,-3]],"type":"Polygon","properties":{"cvegeo":"18010","nombre":"Rosamorada"}}]}}}