{"type":"Topology","arcs":[[[701372,466360],[10335,-12970],[8980,53],[5168,6116],[11183,-12444]],[[737038,447115],[-93528,-158],[-50830,-93483]],[[592680,353474],[-3728,3322],[5083,12285],[-9064,4482],[-4999,8594],[-12284,-2794],[-9742,3216],[-19993,20458],[-11776,3321]],[[526177,406358],[-4914,4060]],[[521263,410418],[-4744,19298]],[[516519,429716],[7710,-158],[9403,18717],[9065,-6169],[7116,29052],[22874,2531]],[[572687,473689],[21941,-369],[8303,6116],[5591,-8594],[8048,14711],[24822,-23938],[15419,8014],[6862,-8278],[14063,3217],[12792,10229],[10844,-8437]],[[532023,132447],[-85,-34957],[-8641,-6063]],[[523297,91427],[-5422,1740],[-5761,-13235]],[[512114,79932],[-4575,-14236],[-5760,5642]],[[501779,71338],[508,15080],[13893,46873],[5338,369]],[[521518,133660],[10505,-1213]],[[523297,91427],[932,-12338]],[[524229,79089],[-8642,-4060],[-3473,4903]],[[794645,447115],[-34988,0]],[[759657,447115],[-2033,9597],[-13640,11547],[3897,16028],[-7285,-580],[-6015,7962],[8980,17979],[14656,6802]],[[758217,516450],[7116,-4851],[-508,-8225],[10081,-2795],[1694,24782],[9489,-6855],[8980,9385],[8980,-4007],[-5761,-10545],[-5253,4745],[-2287,-15185],[8218,-1212],[-3897,-12233],[12961,-13867],[-12538,-13234],[-847,-15238]],[[758217,516450],[-9997,4587],[3389,11705],[-2287,10493],[-14233,-5378],[-12538,10439],[3897,5695],[-6439,5589],[3304,7487],[-7539,8172],[-12284,-5694],[-7201,4482],[-11776,-7277],[-4321,15186],[-4320,158]],[[675872,582094],[-2033,7698],[17706,1845],[-5083,9491],[-8218,-2584],[-85,6644],[-13216,-1266],[-34141,25203],[2966,14131],[-8472,-2162],[-25585,2162],[-2880,13498],[-7116,3585],[-21095,3269],[3304,5220],[-10589,3480],[-5422,-20933],[-19570,-9016]],[[536343,642359],[-9404,12180],[-20077,1476],[1440,8226],[-17621,17874],[1694,4640],[-14656,-159]],[[477719,686596],[8133,14184]],[[485852,700780],[25838,-580],[5253,14974],[20756,-10756],[5591,3427],[40749,4060],[4066,5114],[15757,-2478],[25924,13445],[10505,18507],[11437,-791],[-13979,5747],[3728,7013],[10674,-3744],[5083,10229],[8641,475],[-508,9174],[-11352,-9807],[-9997,-1160],[2372,13023]],[[646390,776652],[8980,7909],[14656,-9385],[1525,4376],[18638,369],[8218,-3322],[-9573,-22566],[10081,-2162],[18384,-12391],[2965,6117],[-14741,7909],[5506,9227],[10336,-4799],[14487,-20774],[6607,6117],[2034,10018],[20162,-4482],[-7963,-8805],[1694,-5167],[11098,10492]],[[769484,745333],[9065,-2584],[2457,-8647],[11098,-14077],[14486,-4060],[339,-7013],[14910,-15185],[-593,-6327],[15927,-4956],[6777,-5695],[-677,9438],[6946,-580],[-4405,-8699],[10759,-2057],[4490,-11494],[8726,1371],[7879,-7804],[13639,211],[424,-6643],[10420,-3585],[14571,-12127],[13894,-24307],[508,-13234]],[[931124,597279],[-9912,3638],[-3134,-9544],[7370,-23199],[-9573,-13814]],[[915875,554360],[-3219,-8542],[-1610,15396],[-10844,-23252],[5083,-13023],[-27956,-1846],[-3643,-18454],[6523,-15554],[-8471,-5694],[-8218,-17611],[-12453,-10018],[-1695,-8805]],[[849372,446957],[-54727,158]],[[528210,193926],[-10928,-20827],[-6100,-25677],[10844,-3797],[-508,-9965]],[[501779,71338],[-1695,-16661]],[[500084,54677],[-13724,-29738]],[[486360,24939],[-23975,22567],[-15249,17821]],[[447136,65327],[7201,1002],[6015,11283],[8302,2900],[-3473,7277],[2711,21459],[-11183,12865]],[[456709,122113],[15673,-2689],[17282,8489],[1356,5536],[-8133,12602],[3812,12074],[-3897,7803],[-9404,1635]],[[473398,167563],[2796,9438],[-6777,474],[8641,5431],[4490,11178]],[[482548,194084],[1864,9807],[13554,-4798],[-2711,-15343],[4914,5167],[22365,12654]],[[522534,201571],[5676,-7645]],[[248729,658968],[18299,211],[762,11125],[7540,158]],[[275330,670462],[7540,-1107]],[[282870,669355],[2626,-12918],[8980,-12970],[-5591,158],[6608,-21618],[-8472,-896]],[[287021,621111],[-8895,-5167],[-12284,5009],[-3897,-8331],[-11098,1582],[-8811,6538]],[[242036,620742],[-2456,21406]],[[239580,642148],[9149,16820]],[[282870,669355],[11606,949],[-5845,19034],[9234,-5167]],[[297865,684171],[4151,2004],[4829,3321],[14910,-10123]],[[321755,679373],[-12199,-3691],[5252,-6485],[-4829,-10914],[-8725,-1108],[338,-9279],[15673,-949],[21179,-12918],[2711,-9386]],[[341155,624643],[5083,-8014]],[[346238,616629],[-20417,-5009],[-9911,-19930],[7285,-27681],[13979,-211],[1016,-1160],[5761,-3902],[0,-12180],[-6184,7382],[338,-9543],[14741,3691],[-4744,-4799],[8218,-6538]],[[356320,536749],[931,-3532],[-17028,-16029],[0,-6960]],[[340223,510228],[-7624,3586],[508,18190],[-17960,16661],[-22535,4588],[-12961,-11811]],[[279651,541442],[3388,10862],[6778,5589],[-932,8172],[-12623,3427]],[[276262,569492],[11098,8700],[1694,21249],[4151,4165],[-8048,12338],[1864,5167]],[[222636,718706],[4744,-11230],[-84,-10756],[-5338,-7224],[8726,-6221],[6523,-17664],[11522,-6643]],[[239580,642148],[-8726,-8699],[-11437,3216],[1694,6591],[-3897,13181],[-9742,-1265],[-9404,20299],[-423,10124],[7709,10387],[-3982,16450]],[[201372,712432],[3728,9649]],[[205100,722081],[17536,-3375]],[[572687,473689],[-1271,9122],[-13301,15290],[7201,9280]],[[565316,507381],[10166,686],[5422,6116],[2033,-12707],[15504,2056],[11606,-4060],[932,-8014],[9234,4323],[7879,-8172],[11606,2373],[4151,12917],[11860,370],[14656,-4377],[2881,-10334],[30244,-15712],[-2118,-6486]],[[379871,228567],[-5083,-4798],[14910,211],[1949,-3533],[12538,-9438],[-3982,-13023]],[[400203,197986],[-9404,-11178],[-17197,-7329],[-6354,-10809],[14063,-26152]],[[381311,142518],[-5337,2056]],[[375974,144574],[-53033,58104]],[[322941,202678],[2033,4482],[10336,-6960],[-2457,7329],[11098,9860],[3219,11652],[8133,6960],[1864,13656],[7794,5273]],[[364961,254930],[4913,2583],[2881,-23937],[7116,-5009]],[[456624,258251],[-847,-10439],[-9912,-14500],[4151,-13603]],[[450016,219709],[-7709,-4324],[1949,-3796]],[[444256,211589],[-13640,7118],[5168,10071],[-19824,4165],[-2626,-24676],[-6608,-10387],[-6523,106]],[[379871,228567],[17452,3427],[10335,20932],[-3558,6169],[5507,8331],[10843,-106],[2288,9544]],[[422738,276864],[12538,-1477],[6862,-12496],[14486,-4640]],[[656726,851523],[-13809,15290],[-25415,3164],[-11183,5009],[4829,2742],[-678,18454],[-4405,17452],[11861,7223],[1524,6802]],[[619450,927659],[22196,-8489],[16096,-9069],[8557,-15501],[-4490,-1529],[6608,-9649],[847,-13287],[-3982,-11072],[-8556,-7540]],[[140461,484234],[3558,-26784],[7624,-16082],[-5167,-4640],[6438,-15870],[7116,10387],[2034,-5747],[14401,-3902],[339,-5694],[9743,1740],[15164,-17663],[9488,-1582],[12200,-18771]],[[223399,379626],[-13979,6749],[254,9069],[-16350,-15976],[-11860,-25414],[-4575,4798],[-9827,-10281]],[[167062,348571],[-50153,38384],[-22704,15133],[-35496,18770],[-21518,5536],[-9573,5589],[-17283,33850]],[[10335,465833],[1102,-211],[85,0],[0,-52],[2626,-3217],[593,-843],[2372,-1424],[593,-369],[1355,158],[254,-369],[85,53],[170,158],[169,0],[932,580]],[[20671,460297],[0,105]],[[20671,460402],[0,53]],[[20671,460455],[-169,106]],[[20502,460561],[0,52]],[[20502,460613],[0,-52]],[[20502,460561],[169,0]],[[20671,460561],[0,-106]],[[20671,460455],[85,0]],[[20756,460455],[0,106]],[[20756,460561],[-85,0]],[[20671,460561],[0,52]],[[20671,460613],[-169,0]],[[20502,460613],[169,53],[0,-53]],[[20671,460613],[85,-52]],[[20756,460455],[-85,-53]],[[20671,460297],[1017,264],[84,-528],[0,-105],[170,-53],[762,738],[0,-949],[170,-211],[254,-105],[169,105],[424,106],[0,-53],[169,-211],[170,0],[0,-158],[0,-369],[84,0],[85,-158],[85,-53]],[[24314,458557],[84,0],[-84,0]],[[24314,458557],[762,-580],[339,-105],[932,-264],[1101,-686]],[[27448,456922],[-169,211],[169,106],[0,-317]],[[27448,456922],[1102,-52],[423,-158],[339,-211],[85,0],[169,0],[1695,105],[0,106],[84,0],[1356,263],[2541,633],[254,-1055],[170,-369],[6269,-3532],[16859,738],[6777,21881],[14910,9385],[9743,-2425],[9064,3743],[-932,6275]],[[98356,492249],[17283,-7382],[24822,-633]],[[202219,801697],[1017,-8120],[25839,-1845],[-339,-12127],[9912,2109]],[[238648,781714],[-8218,-5642],[-5168,-22408],[-6608,-10545],[-15418,-5326],[1864,-15712]],[[201372,712432],[-8048,7171],[4660,3954],[-14826,10124],[-15080,17610],[-9742,-4218],[-10928,5325],[-1356,-738],[-4659,2584],[-2965,1054],[-932,1160],[-932,-949],[-10082,4640],[-11945,-3691],[7286,-4429],[-14063,-14447],[-12199,9016],[-9404,1477],[-254,-369],[-5845,2636]],[[80058,750342],[-7456,4798]],[[72602,755140],[1695,7803],[9149,2531],[6185,15185],[8387,6064],[29312,3005],[-424,8700],[15080,8331],[14317,21248]],[[156303,828007],[7709,1424],[8980,-5484],[-1864,-11705],[11098,-1423],[6354,-9649],[1355,9069],[12284,-8542]],[[272450,759622],[2626,5167],[-12708,5852]],[[262368,770641],[8218,1582],[-2457,12285],[-6099,6907]],[[262030,791415],[12199,5009]],[[274229,796424],[11182,-21617],[-12961,-15185]],[[236445,838341],[-8472,11653],[-932,9121],[-6607,3269]],[[220434,862384],[11182,8489],[10590,317],[762,-8436],[9404,-8542],[-15927,-15871]],[[254998,716281],[2287,-7909],[19401,-11705]],[[276686,696667],[-9828,2109],[1610,-12232],[7370,-5906],[-508,-10176]],[[222636,718706],[4490,-2214],[23551,7382],[4321,-7593]],[[246103,992670],[19654,-6960],[14317,-13128],[-10844,-10018],[4321,-8700]],[[273551,953864],[2711,-8858],[-23551,-5905],[-13470,4429],[-5168,5694],[-2796,-9912],[-12453,6959],[-6015,-2531]],[[212809,943740],[1948,16925],[-3812,10651],[2372,13603],[11437,5220],[4490,9860],[10759,-8963],[6100,1634]],[[236445,838341],[1440,-16714]],[[237885,821627],[-19061,-4165],[-3473,-5905],[-13640,-3691],[508,-6169]],[[156303,828007],[11606,17347],[7286,29790],[8387,-1371],[1270,10493],[8303,4587]],[[193155,888853],[14656,-20141],[-2711,-7962],[15334,1634]],[[242036,620742],[12538,-19403],[-11352,-14605]],[[243222,586734],[-6438,8330],[-11860,-2794],[5083,-16662],[-12115,-6959],[-18807,2109],[-19824,-7698],[2626,-10704],[-13893,7171]],[[167994,559527],[-4067,2162],[2372,17768],[5422,2584],[3728,18929],[-9743,8330],[-2456,10704],[-9489,4639],[9489,16240],[-3474,10018],[3135,9965],[-8896,11442]],[[154015,672308],[-9657,11652],[-13894,4429],[-6777,8700],[-16096,4640],[-9997,16608],[-16859,12549],[-7709,2478],[1101,13498],[5931,3480]],[[262368,770641],[-9403,370]],[[252965,771011],[-7032,-1371],[-932,8067]],[[245001,777707],[11268,9385],[423,5589]],[[256692,792681],[5338,-1266]],[[295577,938732],[-6607,-14447],[4320,-9544]],[[293290,914741],[-7794,-6116],[-6184,-23516],[-18553,791],[-4067,-7803],[-8725,1160],[-3559,9385],[-8217,-12180],[-8472,15343],[-10759,2320],[-254,12813],[-8556,1318]],[[208150,908256],[169,16609],[-8302,14763],[10166,-2742],[2626,6854]],[[273551,953864],[5507,5536],[14656,-105],[7285,-12233],[-5422,-8330]],[[289986,858377],[3812,-4060]],[[293798,854317],[-4998,-1581],[2880,-3902],[-6014,-18612],[6184,-580],[-2965,-5484]],[[288885,824158],[-10929,-4851],[-10505,1846],[-8387,9490]],[[259064,830643],[19824,25836],[11098,1898]],[[246865,811557],[9827,-18876]],[[245001,777707],[-6353,4007]],[[237885,821627],[8980,-10070]],[[288885,824158],[2711,-12812]],[[291596,811346],[-4660,-14342]],[[286936,797004],[-12707,-580]],[[246865,811557],[9658,1423],[-5337,8647],[-1525,12496],[9403,-3480]],[[252965,771011],[-4405,-16082],[12453,-10703],[7116,-13498]],[[268129,730728],[-3473,-8858],[-9658,-5589]],[[51593,532479],[30413,-12180],[10759,5167],[11945,-8700]],[[104710,516766],[6862,-7539],[-13216,-16978]],[[10335,465833],[-593,1055],[-1779,10545],[16266,10703],[4236,17400],[-4829,15554],[-13809,22567]],[[9827,543657],[8557,5167],[15164,-12760],[18045,-3585]],[[326499,807075],[4490,-12391],[-5591,-8119],[-13385,10703]],[[312013,797268],[-20078,-3691]],[[291935,793577],[-4999,3427]],[[291596,811346],[18892,-8805],[7116,5483],[5422,13129]],[[323026,821153],[3473,-14078]],[[450948,201676],[339,-9121],[9658,-1582],[-8048,-8331],[-11352,-26784],[4151,-2057]],[[445696,153801],[-6523,-2320],[-17028,-15817]],[[422145,135664],[-11691,-14025],[-12877,1212],[-6608,4957]],[[390969,127808],[-14995,16766]],[[381311,142518],[12453,-1002],[85,7118],[13301,2215],[2626,19508],[15334,-1318],[8726,12233],[-7117,5167],[6015,4271],[2796,18559],[8726,2320]],[[450016,219709],[8049,-4324],[-6693,-4534],[-424,-9175]],[[414097,774701],[-2711,-8805],[-11098,-11916],[-10590,7962],[-11860,1529],[-2457,8489],[-13894,8541]],[[361487,780501],[-7201,16240]],[[354286,796741],[16435,8700],[-423,9596]],[[370298,815037],[4913,1107],[170,0]],[[375381,816144],[12623,-3480],[18214,-22725],[11606,3585],[-4829,-7856],[1102,-10967]],[[462639,648792],[3389,-6274],[15927,-844],[7709,-8542]],[[489664,633132],[9488,-6063],[-1863,-19140],[-23975,1582],[1779,-9860]],[[475093,599651],[-3643,-3901]],[[471450,595750],[-13555,14288],[-3304,-4850],[-9065,5536]],[[445526,610724],[14995,1845],[-593,4587],[-25838,5062],[1016,26205]],[[435106,648423],[13470,2425],[2965,-4640],[11098,2584]],[[456709,122113],[-10081,-6116],[-7116,9807],[-18299,-2953],[932,12813]],[[445696,153801],[8895,-4534],[19231,10071],[-424,8225]],[[524229,79089],[6014,-21512]],[[530243,57577],[-6862,-5853],[-18044,-3322],[-5253,6275]],[[592680,353474],[-18214,-33533]],[[574466,319941],[-5083,2583],[-21180,-738],[-16180,-4534]],[[532023,317252],[-20671,20141]],[[511352,337393],[-5931,22936],[14487,20141],[2711,16450]],[[522619,396920],[3558,9438]],[[595560,787619],[44900,-158],[5930,-10809]],[[485852,700780],[-7879,2056],[1356,9385]],[[479329,712221],[17197,9122],[339,11599],[-21349,8331],[-8387,-4798]],[[467129,736475],[2203,8014]],[[469332,744489],[-5083,9386],[8472,6485],[13978,-6327],[18977,15554],[8132,-6854],[-3219,9437],[6777,7751]],[[517366,779921],[3304,4376],[9573,-7908],[17876,19455]],[[548119,795844],[18044,-12548],[15843,-5167],[19400,-791],[-5846,10281]],[[511352,337393],[-15419,-3533],[-10251,-7012]],[[485682,326848],[-21772,9701],[-7540,-10703],[-16858,-3058]],[[439512,322788],[-9658,9807],[9996,7856],[-7709,264],[1525,9068],[-7963,5431],[-12623,1318],[-6100,11073],[339,17136]],[[407319,384741],[7455,8594],[10759,369],[5846,11178],[10166,-9596],[26516,-17663],[4151,9490],[-4744,2531],[13047,20142]],[[480515,409786],[5167,1107],[9828,-8120],[4490,3322],[21518,-3427],[1101,-5748]],[[280921,729568],[5422,-2689],[2711,-16820]],[[289054,710059],[4490,-6327],[-6777,-5167]],[[286767,698565],[-10081,-1898]],[[268129,730728],[12792,-1160]],[[390715,593008],[-5507,-9069],[2372,-9754],[-14825,5536]],[[372755,579721],[-10759,2425],[9064,5062],[4236,8225]],[[375296,595433],[15419,-2425]],[[454591,711167],[-5337,-6538],[5252,-9913]],[[454506,694716],[-14147,-1845],[-6862,-9807]],[[433497,683064],[-13809,3691],[-8980,-8753],[-8811,1740]],[[401897,679742],[-9657,2056]],[[392240,681798],[5337,10862],[-8641,1476],[-6693,15712]],[[382243,709848],[-170,422]],[[382073,710270],[14741,-632],[-847,-4957],[25585,-1371],[847,27260],[4066,5905]],[[426465,736475],[10759,-6063],[-3388,-10177],[6014,-13866],[14741,4798]],[[553371,629863],[12877,-4956],[-3389,-4007]],[[562859,620900],[-9827,-4376],[-13639,1740],[-8557,-9544],[339,-24254],[-7116,-15870]],[[524059,568596],[-9912,580],[-15249,6432],[-3643,11653],[-8895,3322],[-2711,-7171]],[[483649,583412],[-2796,9754]],[[480853,593166],[-5760,6485]],[[489664,633132],[23212,-5536],[19994,-1371],[20501,3638]],[[401897,679742],[26347,-7223]],[[428244,672519],[85,-21829]],[[428329,650690],[847,-10914],[-12453,3111],[-4744,11652],[-8387,-8647],[-16774,844]],[[386818,646736],[-14487,5272],[-17536,-1845]],[[354795,650163],[-4321,5009],[4151,11072],[-4998,6064],[4405,12601]],[[354032,684909],[9658,-8383],[10166,-2215],[11691,5589],[1440,5905]],[[386987,685805],[5253,-4007]],[[382073,710270],[-338,106]],[[381735,710376],[17282,25361]],[[399017,735737],[9996,3902],[7964,9279],[4575,-4903]],[[421552,744015],[4913,-7540]],[[442985,467046],[-20586,-9385],[5676,-10124],[29397,-17557],[25499,-7066],[-2456,-13128]],[[407319,384741],[-12284,16714],[-16858,-9122],[-7201,-8278],[-6524,317],[-8895,-8436],[6608,-1371],[-8980,-9333],[-3219,-10440],[7370,-6854],[-7370,-18981]],[[349966,328957],[-12962,1423]],[[337004,330380],[-5422,7646],[-17282,-6907],[-8133,13761],[-17367,3427],[-762,7645],[-12538,-1107],[6438,9174],[-2880,11758],[-9150,9333]],[[269908,385110],[13894,3849],[-4575,12496],[5507,8067],[15588,738],[7201,10703],[931,10387],[10844,15555],[18384,41969],[847,1477],[85,-106],[423,158],[-169,-949],[169,53],[85,-211],[339,527],[169,-369],[254,-158]],[[339884,489296],[-84,-53],[84,0],[0,53]],[[339884,489296],[170,158],[-85,369],[339,369],[254,-105],[0,-264],[339,-369],[254,-211],[-2626,5642],[85,4798]],[[338614,499683],[18468,-3743],[13639,-16978],[8133,7961],[16859,-11125],[15588,-7012],[6354,-7593],[11521,6222],[13809,-369]],[[524059,568596],[-1101,-11969],[6523,475],[762,-10915],[10251,1582],[2542,-7803],[11691,-7962],[4913,-10176],[-4320,-10229],[9996,-4218]],[[516519,429716],[-10250,369],[-1271,14447],[14995,9438],[11098,13129],[3473,9174],[-6693,10914],[-6777,-2478],[-9912,12180],[-16435,6801],[-5083,-12707]],[[489664,490983],[1694,9755],[-4828,6432]],[[486530,507170],[2372,6169],[9403,580],[-10674,15818],[-170,15501],[4914,5378],[-6439,8542]],[[485936,559158],[2457,9649],[-4744,14605]],[[272450,759622],[2033,-6907],[15927,5905],[508,-3638]],[[290918,754982],[1271,-13129],[-11268,-12285]],[[621399,976483],[9319,-14658],[-2288,-12337]],[[628430,949488],[-9488,-3164],[-6693,8489],[-13131,3849],[-10759,-10282],[1779,-23304],[-5676,3427],[-1609,-10651],[4659,-7592],[-9573,-10335],[-9319,9227],[-4066,-3585],[2541,-12549],[-6269,-5694],[-12030,6116],[4660,13709],[-11860,13972],[-255,9227],[-7285,-6222],[-11268,3639],[-762,8963],[9149,369]],[[531175,937097],[5676,422],[-2456,12707],[5167,-4060],[8048,17663],[8642,-2900],[-3813,8173],[15165,6590],[7794,7382],[12707,-6011],[-1440,-11441],[8302,10703],[17028,-4903],[9404,5061]],[[542951,173837],[-1525,-13392],[-4913,-5431],[-3559,-4534],[3813,-11020]],[[536767,139460],[-4744,-7013]],[[528210,193926],[14741,-20089]],[[381735,710376],[-6439,580],[-6693,-8858],[-4913,9543],[-3389,-6011],[-7370,9227]],[[352931,714857],[-85,4799]],[[352846,719656],[508,8699],[8642,580],[6438,14078]],[[368434,743013],[10166,-3374],[11776,3480],[8641,-7382]],[[313707,750553],[6523,-1476],[-12623,-10757],[254,-6696],[8980,791],[7032,10493],[-1356,-11442],[8133,-6327],[10166,6696],[2965,-12338],[9065,159]],[[352931,714857],[-8302,-7961],[-424,-11494]],[[344205,695402],[-13301,-7171]],[[330904,688231],[-10335,422],[-1101,10229],[-30414,11177]],[[290918,754982],[22789,-4429]],[[531260,259095],[-2796,6749],[-11182,1740]],[[517282,267584],[-763,1423]],[[516519,269007],[5592,26152]],[[522111,295159],[10589,-8436],[8896,1477],[-1525,-16714],[-4152,527],[-4659,-12918]],[[439512,322788],[-11691,-13234],[-6524,5378],[-16858,3216],[-9827,-5905]],[[394612,312243],[-509,1001]],[[394103,313244],[19994,12866],[3219,9174],[-932,18559],[-25415,-8699],[-2965,-8120],[-21095,-7118],[932,-11284]],[[367841,318622],[-1017,4640],[-16858,5695]],[[472043,590793],[4913,-5536],[3897,7909]],[[485936,559158],[-7031,-3691]],[[478905,555467],[-847,8489],[-16774,3322],[-15588,-12180],[-1694,10387]],[[444002,565485],[5083,-1898],[931,18349],[5253,13761],[16774,-4904]],[[574466,319941],[-37191,-68333]],[[537275,251608],[-6015,7487]],[[522111,295159],[-3050,10809],[9912,-1212],[3050,12496]],[[348949,855161],[3812,-14236],[-9911,-4060],[18891,-1265],[8557,-20563]],[[354286,796741],[-4913,-3691],[-22874,14025]],[[323026,821153],[254,2056]],[[323280,823209],[-1271,9754],[5507,2426],[-9743,8858],[7964,16977]],[[325737,861224],[16265,-685],[6947,-5378]],[[675872,582094],[-11352,-1108],[-5761,12338],[-9573,-18190],[-15757,-5958],[847,10018],[-5930,6432],[-11014,-4640],[-7709,8858],[-16435,-5167],[-1186,14869],[-20332,-1898],[-8811,23252]],[[553371,629863],[-17028,12496]],[[375381,600917],[-85,-5484]],[[372755,579721],[-5931,-4113],[9828,-9596],[-5592,-6538]],[[371060,559474],[1525,-10492],[-16265,-12233]],[[346238,616629],[4829,3902]],[[351067,620531],[11183,-5167],[7455,-18929],[5676,4482]],[[364961,254930],[4744,13708],[17113,6907]],[[386818,275545],[35920,1319]],[[381311,707739],[2118,-10808],[-4575,-5800]],[[378854,691131],[-5422,9121],[7879,7487]],[[363012,768058],[-2118,-13287],[3304,-5167]],[[364198,749604],[-13809,1423],[-3049,6855]],[[347340,757882],[12622,17083],[3050,-6907]],[[394103,313244],[-9403,-3110],[-16859,8488]],[[915875,554360],[1440,-3375],[17706,2637],[-1017,-14816],[-4828,-5695],[12961,-2056],[1356,-16292],[13470,-1424],[593,-14130],[-17875,-3269],[-509,-20511],[9065,3322],[3727,-18454],[-9318,158],[-170,6116],[-14402,3691],[339,-9701],[-12284,105],[2542,14869],[-18638,-3058],[-4151,-5062],[-1186,-20352]],[[894696,447063],[-45324,-106]],[[931124,597279],[7879,-4904],[-5507,-3849],[254,-12338],[7201,739],[8896,-15238],[28803,-3691],[-2287,-9543],[16774,369],[5930,-9807],[932,-14974],[-11522,-17084],[4999,-5536],[-8472,-3111],[254,-18823],[7625,-6854],[-8387,-19983],[3981,-5589],[-93781,0]],[[386987,685805],[-8133,5326]],[[381311,707739],[932,2109]],[[477719,686596],[3558,-4270],[-6438,-9069],[-22196,4218]],[[452643,677475],[1863,17241]],[[454591,711167],[8048,7170]],[[462639,718337],[16690,-6116]],[[386818,646736],[-7540,-11706],[2033,-18032]],[[381311,616998],[-2457,-4956],[-13809,10018],[-13978,-1529]],[[341155,624643],[3219,7171],[-5506,9069],[6354,9913],[9573,-633]],[[381311,616998],[678,-12707],[12030,2215],[4828,-9596],[8133,-3691]],[[406980,593219],[-16265,-211]],[[469332,744489],[-16689,9544]],[[452643,754033],[1440,9438]],[[454083,763471],[5930,9069],[9912,527],[4659,5905]],[[474584,778972],[10166,1635],[763,8752],[10081,-211],[6523,-7540],[7625,7909],[7624,-9596]],[[243222,586734],[-1440,-7962],[11861,-7223],[5676,5536],[16943,-7593]],[[279651,541442],[-2711,-7434],[6608,-3533],[-3728,-8120],[8811,-12918],[-11437,-8699],[-5676,4956],[-22704,-1687],[-7964,-16187],[-20671,527],[-16858,-6116],[-7879,9438],[-3389,-4429],[1695,-14078],[-32532,9649],[-1186,-3480],[-19569,4903]],[[104710,516766],[15758,-5061],[3981,7909],[6439,-5062],[0,10281],[14232,18033],[10844,-1055],[-5337,9807],[9403,158],[7964,7751]],[[340223,510228],[3220,-843],[254,-106],[0,-843],[254,369],[254,52],[508,159],[-593,-2900],[-677,-3533],[254,-158],[0,-422],[-2796,-1054],[-508,685],[-2033,53],[254,-2004]],[[269908,385110],[-2880,5272],[-10759,-6485],[-13809,-211],[-6523,-6538],[-12538,2478]],[[478905,555467],[-4321,-4798],[-11860,5378],[-678,-8858],[-9742,-11652],[2202,-12549],[16520,-17769]],[[471026,505219],[-4151,-6907],[-5422,3744],[-9996,-14869],[-5507,-474],[-2965,-19667]],[[371060,559474],[8303,-2161],[3134,8752],[5676,-9122],[15334,8647],[1186,-2794]],[[404693,562796],[4320,-9702],[-10589,-7065],[7540,-2214],[11945,8014],[-5253,11072]],[[412656,562901],[4999,3533]],[[417655,566434],[10759,-9121],[11182,11810],[4406,-3638]],[[542951,173837],[12962,-17821],[-10420,-17558],[-8726,1002]],[[521263,410418],[-30074,18032],[-6947,6697],[-932,13128],[14826,13973],[-14656,6169],[5676,11230],[8302,4482],[-7794,6854]],[[466621,199673],[6184,-8331],[9743,2742]],[[450948,201676],[15673,-2003]],[[474584,778972],[-4235,10123],[847,12813],[-6862,738],[1609,27892]],[[465943,830538],[13809,738],[8557,-9543],[23805,-2215],[17960,-8752],[-1779,-7224],[6184,-6169],[6100,6591],[7540,-8120]],[[412656,562901],[-7963,-105]],[[406980,593219],[1525,896]],[[408505,594115],[8811,-10914],[339,-16767]],[[471450,595750],[593,-4957]],[[408505,594115],[7455,4271],[-3727,13709],[15249,-7751],[6015,5905],[12029,475]],[[452643,677475],[-2627,-5536],[339,-686],[2288,-7012],[20925,-3744],[-2796,-8963],[-8133,-2742]],[[435106,648423],[-6777,2267]],[[428244,672519],[5253,10545]],[[312013,797268],[3473,-18612]],[[315486,778656],[85,3269],[-18977,1687]],[[296594,783612],[-4659,9965]],[[530243,57577],[2542,-19509],[-6354,-7012],[-3388,-17664],[-11861,-13392],[-24822,24939]],[[293798,854317],[11607,-7856],[13470,-14605],[-3135,-7223],[7540,-1424]],[[471026,505219],[15504,1951]],[[462639,718337],[-84,14975],[4574,3163]],[[414097,774701],[15842,-3269]],[[429939,771432],[24144,-7961]],[[452643,754033],[-10929,-158],[-8217,-18402],[-4151,6907],[3049,11284],[-10843,-9649]],[[368434,743013],[-4236,6591]],[[363012,768058],[-1525,12443]],[[485682,326848],[0,-20511],[13216,-11388],[5761,2794]],[[504659,297743],[4575,-15712],[-4575,-10651]],[[504659,271380],[-14826,-1582],[-9234,-10492]],[[480599,259306],[-12368,5694],[-11607,-6749]],[[386818,275545],[-1271,10177],[6354,25782],[2711,739]],[[571755,784192],[4744,-2004],[10166,9491],[8895,-4060]],[[465943,830538],[2118,17189],[9997,-4271],[5083,4903],[-11945,8278],[-3643,10546],[-8472,-3849],[-15842,2583],[424,16240]],[[443663,882157],[11606,-1424],[22789,13867],[423,11178]],[[478481,905778],[7455,-3427],[3813,5747],[16096,-8015],[8133,-15343],[13639,-15132],[3389,5536],[8641,-6274],[-7709,-7804],[23551,-20879],[12623,-2004],[15418,9227],[5761,-7012],[-4066,-14605],[6523,527],[-10674,-10229],[508,-5642],[10335,-2056],[-7031,-5694],[593,-12602],[-11691,-369],[-2033,-5536]],[[395543,844405],[7879,422],[8726,-11284],[2711,-13392],[-6269,-3954],[8726,-12233],[17790,-9701],[-5167,-22831]],[[375381,816144],[15249,9438],[4913,18823]],[[315486,778656],[-2203,-14447]],[[313283,764209],[-5591,-7593],[5083,-3374]],[[312775,753242],[-1779,105],[-13131,7540],[-1271,22725]],[[347340,757882],[-19062,-3427],[-14995,9754]],[[517282,267584],[-2881,-15238]],[[514401,252346],[-6353,-3796],[-27449,10756]],[[504659,271380],[11860,-2373]],[[337004,330380],[9912,-11388],[-23297,1687],[1779,-13603],[-13385,4165],[847,-27576],[-10844,-7012],[-14910,8067],[-11861,-8173],[12877,-10334],[-16689,-12022]],[[271433,254191],[-56082,53043],[-48289,41337]],[[303287,883317],[84,-6855]],[[303371,876462],[-6184,-17399],[-7201,-686]],[[193155,888853],[14995,19403]],[[293290,914741],[-678,-19508],[10675,-11916]],[[312775,753242],[932,-2689]],[[628430,949488],[1356,-8647],[-10336,-13182]],[[656726,851523],[2711,-7329],[13809,-3638],[16350,-9016],[339,6380],[12792,-8806],[24145,-5167],[762,-8330],[8811,-10335],[-11098,-2214],[-3813,-14816],[3220,-9965],[19400,-7540],[1525,-8805],[6692,6538],[12369,-1108],[4744,-22039]],[[478481,905778],[-338,13392],[5845,3164],[14402,-6169],[11606,15027],[15842,12338],[5337,-6433]],[[286767,698565],[11098,-14394]],[[514401,252346],[424,-15343],[7370,-5905],[-9912,-10440],[3389,-9280]],[[515672,211378],[6862,-9807]],[[447136,65327],[-56167,62481]],[[537275,251608],[-21603,-40230]],[[759657,447115],[-22619,0]],[[322941,202678],[-51508,51513]],[[354032,684909],[-9827,10493]],[[303371,876462],[15927,-20932],[6439,5694]],[[321755,679373],[10590,2953],[-1441,5905]],[[395543,844405],[17452,13761],[-847,8120],[9149,7382],[8811,1265],[2626,6696],[10929,528]],[[51593,532479],[4066,21301],[9827,-316],[9150,13286],[7031,-3374],[7032,7065],[13216,1160],[4490,19034],[6353,-474],[15334,49826],[4490,3269],[-593,12232],[13724,2215],[8302,14605]],[[9827,543657],[-9827,15817],[1525,4060],[23551,63482],[47526,128124]],[[504659,297743],[17452,-2584]]],"transform":{"scale":[0.000003741583872293437,0.0000034493000040226435],"translate":[-94.13936270172732,14.532098361948284]},"objects":{"municipalities":{"type":"GeometryCollection","geometries":[{"arcs":[[0,1,2,3,4,5,6]],"type":"Polygon","properties":{"cvegeo":"07099","nombre":"La Trinitaria"}},{"arcs":[[7,8,9,10,11]],"type":"Polygon","properties":{"cvegeo":"07102","nombre":"Tuxtla Chico"}},{"arcs":[[12,13,-9]],"type":"Polygon","properties":{"cvegeo":"07055","nombre":"Metapa"}},{"arcs":[[14,15,16]],"type":"Polygon","properties":{"cvegeo":"07115","nombre":"Maravilla Tenejapa"}},{"arcs":[[-17,17,18,19,20,21,22,23,24,25,26]],"type":"Polygon","properties":{"cvegeo":"07059","nombre":"Ocosingo"}},{"arcs":[[27,-11,28,29,30,31,32,33,34,35]],"type":"Polygon","properties":{"cvegeo":"07089","nombre":"Tapachula"}},{"arcs":[[36,37,38,39,40,41]],"type":"Polygon","properties":{"cvegeo":"07101","nombre":"Tuxtla Gutiérrez"}},{"arcs":[[42,43,44,45,46,47,48,49,50,-39]],"type":"Polygon","properties":{"cvegeo":"07027","nombre":"Chiapa de Corzo"}},{"arcs":[[51,-42,52,53,54]],"type":"Polygon","properties":{"cvegeo":"07012","nombre":"Berriozábal"}},{"arcs":[[-7,55,56]],"type":"Polygon","properties":{"cvegeo":"07041","nombre":"La Independencia"}},{"arcs":[[57,58,59,60,61,62]],"type":"Polygon","properties":{"cvegeo":"07003","nombre":"Acapetahua"}},{"arcs":[[63,64,65,-58,66,67]],"type":"Polygon","properties":{"cvegeo":"07032","nombre":"Escuintla"}},{"arcs":[[68,69]],"type":"Polygon","properties":{"cvegeo":"07050","nombre":"La Libertad"}},{"arcs":[[70,71,72,73,74,75,76,77,78,79,80,81,82,83,84,85,86,87,-83,88,-75,89,90,91,92,93,94]],"type":"Polygon","properties":{"cvegeo":"07097","nombre":"Tonalá"}},{"arcs":[[95,96,-54,97,98,99,100]],"type":"Polygon","properties":{"cvegeo":"07092","nombre":"Tecpatán"}},{"arcs":[[101,102,103,104]],"type":"Polygon","properties":{"cvegeo":"07090","nombre":"Tapalapa"}},{"arcs":[[105,106]],"type":"Polygon","properties":{"cvegeo":"07088","nombre":"Sunuapa"}},{"arcs":[[107,108,-37,-52,109]],"type":"Polygon","properties":{"cvegeo":"07079","nombre":"San Fernando"}},{"arcs":[[110,111,112]],"type":"Polygon","properties":{"cvegeo":"07074","nombre":"Reforma"}},{"arcs":[[-106,113,114,-101,115,116]],"type":"Polygon","properties":{"cvegeo":"07062","nombre":"Ostuacán"}},{"arcs":[[-98,-53,-41,117,118,119,120]],"type":"Polygon","properties":{"cvegeo":"07061","nombre":"Ocozocoautla de Espinosa"}},{"arcs":[[-103,121,122,123,124]],"type":"Polygon","properties":{"cvegeo":"07060","nombre":"Ocotepec"}},{"arcs":[[125,126,127,-112,128]],"type":"Polygon","properties":{"cvegeo":"07048","nombre":"Juárez"}},{"arcs":[[129,130,131,132]],"type":"Polygon","properties":{"cvegeo":"07043","nombre":"Ixtacomitán"}},{"arcs":[[133,-124,134,-96,-115,135]],"type":"Polygon","properties":{"cvegeo":"07033","nombre":"Francisco León"}},{"arcs":[[-132,136,137,138,-104,-125,-134,139]],"type":"Polygon","properties":{"cvegeo":"07025","nombre":"Chapultenango"}},{"arcs":[[-135,-123,140,141,-110,-55,-97]],"type":"Polygon","properties":{"cvegeo":"07021","nombre":"Copainalá"}},{"arcs":[[142,143,-94,-93,-92,-91,-90,74,-89,82,-88,-87,-86,-85,-84,-83,-82,-81,-80,-79,-78,-77,-76,-75,-74,144,145]],"type":"Polygon","properties":{"cvegeo":"07009","nombre":"Arriaga"}},{"arcs":[[146,147,148,-138,149,150]],"type":"Polygon","properties":{"cvegeo":"07042","nombre":"Ixhuatán"}},{"arcs":[[151,152,153,154,-60,155,-65,156]],"type":"Polygon","properties":{"cvegeo":"07040","nombre":"Huixtla"}},{"arcs":[[157,158,159,160,161]],"type":"Polygon","properties":{"cvegeo":"07039","nombre":"Huitiupán"}},{"arcs":[[162,163,164,165,166,167]],"type":"Polygon","properties":{"cvegeo":"07038","nombre":"Huixtán"}},{"arcs":[[168,-153,169,-33]],"type":"Polygon","properties":{"cvegeo":"07037","nombre":"Huehuetán"}},{"arcs":[[170,171,-29,-10,-14]],"type":"Polygon","properties":{"cvegeo":"07035","nombre":"Frontera Hidalgo"}},{"arcs":[[172,173,174,175,176,-3]],"type":"Polygon","properties":{"cvegeo":"07034","nombre":"Frontera Comalapa"}},{"arcs":[[177,-22,178,179,180,181,182,183]],"type":"Polygon","properties":{"cvegeo":"07031","nombre":"Chilón"}},{"arcs":[[-176,184,185,186,187,188]],"type":"Polygon","properties":{"cvegeo":"07030","nombre":"Chicomuselo"}},{"arcs":[[189,190,191,-108,-142,192]],"type":"Polygon","properties":{"cvegeo":"07029","nombre":"Chicoasén"}},{"arcs":[[193,194,195]],"type":"Polygon","properties":{"cvegeo":"07028","nombre":"Chiapilla"}},{"arcs":[[196,197,198,199,200,201,202,203]],"type":"Polygon","properties":{"cvegeo":"07026","nombre":"Chenalhó"}},{"arcs":[[204,205,206,207,208,-164,209]],"type":"Polygon","properties":{"cvegeo":"07024","nombre":"Chanal"}},{"arcs":[[-200,210,211,212,213,214,215,216]],"type":"Polygon","properties":{"cvegeo":"07023","nombre":"Chamula"}},{"arcs":[[217,218,219,220,-203]],"type":"Polygon","properties":{"cvegeo":"07022","nombre":"Chalchihuitán"}},{"arcs":[[221,-188,222,223,224,225,226,227,228]],"type":"Polygon","properties":{"cvegeo":"07020","nombre":"La Concordia"}},{"arcs":[[229,-56,-6,230,231,232,233,-207]],"type":"Polygon","properties":{"cvegeo":"07019","nombre":"Comitán de Domínguez"}},{"arcs":[[234,235,-193,-141,-122,-102]],"type":"Polygon","properties":{"cvegeo":"07018","nombre":"Coapilla"}},{"arcs":[[236,237,238]],"type":"Polygon","properties":{"cvegeo":"07016","nombre":"Catazajá"}},{"arcs":[[239,240,-12,-28,241]],"type":"Polygon","properties":{"cvegeo":"07015","nombre":"Cacahoatán"}},{"arcs":[[-219,242,243,244,245]],"type":"Polygon","properties":{"cvegeo":"07014","nombre":"El Bosque"}},{"arcs":[[246,-244,247,248,249,-190,-236,250]],"type":"Polygon","properties":{"cvegeo":"07013","nombre":"Bochil"}},{"arcs":[[251,252,253,254]],"type":"Polygon","properties":{"cvegeo":"07010","nombre":"Bejucal de Ocampo"}},{"arcs":[[-187,255,256,257,258,-223]],"type":"Polygon","properties":{"cvegeo":"07008","nombre":"Ángel Albino Corzo"}},{"arcs":[[259,-208,-234,260,261,262]],"type":"Polygon","properties":{"cvegeo":"07007","nombre":"Amatenango del Valle"}},{"arcs":[[263,264,-255,265,-174]],"type":"Polygon","properties":{"cvegeo":"07006","nombre":"Amatenango de la Frontera"}},{"arcs":[[266,-160,267,-151,268,269,270]],"type":"Polygon","properties":{"cvegeo":"07005","nombre":"Amatán"}},{"arcs":[[271,-205,272,-19]],"type":"Polygon","properties":{"cvegeo":"07004","nombre":"Altamirano"}},{"arcs":[[273,-195,274,275,-47,276,277]],"type":"Polygon","properties":{"cvegeo":"07002","nombre":"Acala"}},{"arcs":[[-63,278,279,-67]],"type":"Polygon","properties":{"cvegeo":"07001","nombre":"Acacoyagua"}},{"arcs":[[280,281]],"type":"Polygon","properties":{"cvegeo":"07119","nombre":"Santiago el Pinar"}},{"arcs":[[282,283,284]],"type":"Polygon","properties":{"cvegeo":"07118","nombre":"San Andrés Duraznal"}},{"arcs":[[285,-258]],"type":"Polygon","properties":{"cvegeo":"07117","nombre":"Montecristo de Guerrero"}},{"arcs":[[286,287,-26]],"type":"Polygon","properties":{"cvegeo":"07116","nombre":"Marqués de Comillas"}},{"arcs":[[288,-287,-25]],"type":"Polygon","properties":{"cvegeo":"07114","nombre":"Benemérito de las Américas"}},{"arcs":[[-217,289,-281,290,-201]],"type":"Polygon","properties":{"cvegeo":"07113","nombre":"Aldama"}},{"arcs":[[-179,-21,291,292,-197,293,294]],"type":"Polygon","properties":{"cvegeo":"07112","nombre":"San Juan Cancuc"}},{"arcs":[[295,296,-277,-46,297,-214]],"type":"Polygon","properties":{"cvegeo":"07111","nombre":"Zinacantán"}},{"arcs":[[298,299,-196,-274,-278,-297]],"type":"Polygon","properties":{"cvegeo":"07110","nombre":"San Lucas"}},{"arcs":[[-182,300,301,302,303]],"type":"Polygon","properties":{"cvegeo":"07109","nombre":"Yajalón"}},{"arcs":[[304,-50,305,-95,-144,306,-119]],"type":"Polygon","properties":{"cvegeo":"07108","nombre":"Villaflores"}},{"arcs":[[307,-228,-227,-226,308,-71,-306,-49]],"type":"Polygon","properties":{"cvegeo":"07107","nombre":"Villa Corzo"}},{"arcs":[[309,310,-229,-308,-48,-276,311,312,313,314,-262]],"type":"Polygon","properties":{"cvegeo":"07106","nombre":"Venustiano Carranza"}},{"arcs":[[-240,315]],"type":"Polygon","properties":{"cvegeo":"07105","nombre":"Unión Juárez"}},{"arcs":[[-5,316,-231]],"type":"Polygon","properties":{"cvegeo":"07104","nombre":"Tzimol"}},{"arcs":[[317,-34,-170,-152,318]],"type":"Polygon","properties":{"cvegeo":"07103","nombre":"Tuzantán"}},{"arcs":[[-183,-304,319,320]],"type":"Polygon","properties":{"cvegeo":"07100","nombre":"Tumbalá"}},{"arcs":[[-314,321,-312,-275,-194,-300,322,323]],"type":"Polygon","properties":{"cvegeo":"07098","nombre":"Totolapa"}},{"arcs":[[-166,324,-263,-315,-324,325]],"type":"Polygon","properties":{"cvegeo":"07094","nombre":"Teopisca"}},{"arcs":[[-293,326,-168,327,-212,328,-198]],"type":"Polygon","properties":{"cvegeo":"07093","nombre":"Tenejapa"}},{"arcs":[[329,330,331,-148]],"type":"Polygon","properties":{"cvegeo":"07091","nombre":"Tapilula"}},{"arcs":[[332,-30,-172]],"type":"Polygon","properties":{"cvegeo":"07087","nombre":"Suchiate"}},{"arcs":[[-51,-305,-118,-40]],"type":"Polygon","properties":{"cvegeo":"07086","nombre":"Suchiapa"}},{"arcs":[[-269,-150,-137,-131,333]],"type":"Polygon","properties":{"cvegeo":"07084","nombre":"Solosuchiapa"}},{"arcs":[[-232,-317,-4,-177,-189,-222,-311,334]],"type":"Polygon","properties":{"cvegeo":"07083","nombre":"Socoltenango"}},{"arcs":[[-295,335,-180]],"type":"Polygon","properties":{"cvegeo":"07082","nombre":"Sitalá"}},{"arcs":[[-158,336,337,-302,338,-220,-246,339,-283,340]],"type":"Polygon","properties":{"cvegeo":"07081","nombre":"Simojovel"}},{"arcs":[[341,342,343,344,-68,-280,345,-256,-186]],"type":"Polygon","properties":{"cvegeo":"07080","nombre":"Siltepec"}},{"arcs":[[346,-184,-321,347,348,349]],"type":"Polygon","properties":{"cvegeo":"07077","nombre":"Salto de Agua"}},{"arcs":[[350,-337,-162,351]],"type":"Polygon","properties":{"cvegeo":"07076","nombre":"Sabanilla"}},{"arcs":[[-335,-310,-261,-233]],"type":"Polygon","properties":{"cvegeo":"07075","nombre":"Las Rosas"}},{"arcs":[[352,353,354,-331]],"type":"Polygon","properties":{"cvegeo":"07073","nombre":"Rayón"}},{"arcs":[[-159,-341,-285,355,-353,-330,-147,-268]],"type":"Polygon","properties":{"cvegeo":"07072","nombre":"Pueblo Nuevo Solistahuacán"}},{"arcs":[[-156,-59,-66]],"type":"Polygon","properties":{"cvegeo":"07071","nombre":"Villa Comaltitlán"}},{"arcs":[[-253,356,357,-344,358]],"type":"Polygon","properties":{"cvegeo":"07070","nombre":"El Porvenir"}},{"arcs":[[-309,-225,359,360,-72]],"type":"Polygon","properties":{"cvegeo":"07069","nombre":"Pijijiapan"}},{"arcs":[[361,362,-133,-140,-136,-114,-107,-117,363,-127,364]],"type":"Polygon","properties":{"cvegeo":"07068","nombre":"Pichucalco"}},{"arcs":[[-332,-355,365,-251,-235,-105,-139,-149]],"type":"Polygon","properties":{"cvegeo":"07067","nombre":"Pantepec"}},{"arcs":[[-181,-336,-294,-204,-221,-339,-301]],"type":"Polygon","properties":{"cvegeo":"07066","nombre":"Pantelhó"}},{"arcs":[[366,-69,367,-23,-178,-347,-350,368,-238]],"type":"Polygon","properties":{"cvegeo":"07065","nombre":"Palenque"}},{"arcs":[[-273,-210,-163,-327,-292,-20]],"type":"Polygon","properties":{"cvegeo":"07064","nombre":"Oxchuc"}},{"arcs":[[369,-43,-38,-109,-192]],"type":"Polygon","properties":{"cvegeo":"07063","nombre":"Osumacinta"}},{"arcs":[[-322,-313]],"type":"Polygon","properties":{"cvegeo":"07058","nombre":"Nicolás Ruíz"}},{"arcs":[[-358,370,371,-35,-318,-319,-157,-64,-345]],"type":"Polygon","properties":{"cvegeo":"07057","nombre":"Motozintla"}},{"arcs":[[-329,-211,-199]],"type":"Polygon","properties":{"cvegeo":"07056","nombre":"Mitontic"}},{"arcs":[[-32,372,-154,-169]],"type":"Polygon","properties":{"cvegeo":"07054","nombre":"Mazatán"}},{"arcs":[[-265,373,-371,-357,-252]],"type":"Polygon","properties":{"cvegeo":"07053","nombre":"Mazapa de Madero"}},{"arcs":[[-272,-18,-16,374,-1,-57,-230,-206]],"type":"Polygon","properties":{"cvegeo":"07052","nombre":"Las Margaritas"}},{"arcs":[[-259,-286,-257,-346,-279,-62,375,-360,-224]],"type":"Polygon","properties":{"cvegeo":"07051","nombre":"Mapastepec"}},{"arcs":[[-218,-202,-291,-282,-290,-216,376,-248,-243]],"type":"Polygon","properties":{"cvegeo":"07049","nombre":"Larráinzar"}},{"arcs":[[-284,-340,-245,-247,-366,-354,-356]],"type":"Polygon","properties":{"cvegeo":"07047","nombre":"Jitotol"}},{"arcs":[[-270,-334,-130,-363,377]],"type":"Polygon","properties":{"cvegeo":"07045","nombre":"Ixtapangajoya"}},{"arcs":[[-215,-298,-45,378,-249,-377]],"type":"Polygon","properties":{"cvegeo":"07044","nombre":"Ixtapa"}},{"arcs":[[-348,-320,-303,-338,-351,379]],"type":"Polygon","properties":{"cvegeo":"07096","nombre":"Tila"}},{"arcs":[[-379,-44,-370,-191,-250]],"type":"Polygon","properties":{"cvegeo":"07085","nombre":"Soyaló"}},{"arcs":[[-307,-143,380,-120]],"type":"Polygon","properties":{"cvegeo":"07046","nombre":"Jiquipilas"}},{"arcs":[[-381,-146,381,-99,-121]],"type":"Polygon","properties":{"cvegeo":"07017","nombre":"Cintalapa de Figueroa"}},{"arcs":[[-254,-359,-343,382]],"type":"Polygon","properties":{"cvegeo":"07036","nombre":"La Grandeza"}},{"arcs":[[-266,-383,-342,-185,-175]],"type":"Polygon","properties":{"cvegeo":"07011","nombre":"Bella Vista"}},{"arcs":[[[-325,-165,-209,-260]],[[-328,-167,-326,-323,-299,-296,-213]]],"type":"MultiPolygon","properties":{"cvegeo":"07078","nombre":"San Cristóbal de las Casas"}}]}}}