{"type":"Topology","arcs":[[[437103,875561],[4434,-7073],[-6955,-10241],[6955,-5378],[-2956,-15619]],[[438581,837250],[-10258,4936],[-13649,-14735],[-11649,-3095]],[[403025,824356],[-17039,19672],[-10693,-8178]],[[375293,835850],[-5738,5083]],[[369555,840933],[-4520,21145],[9563,12157]],[[374598,874235],[3564,13188]],[[378162,887423],[11562,1326],[7389,-7957],[17126,3536],[22864,-8767]],[[438581,837250],[8519,-15988]],[[447100,821262],[3304,-21440]],[[450404,799822],[-25298,-6409],[7303,-5968],[-13997,-18345]],[[418412,769100],[-3216,-2137],[-15562,-4642]],[[399634,762321],[-3477,-11346],[-12344,-6925],[-13910,24534]],[[369903,768584],[2260,10904],[-7389,10978],[15300,8030]],[[380074,798496],[6433,8694],[2435,-8104],[12866,-2579],[7476,20408],[-6259,7441]],[[440580,110734],[-8345,-10019],[-6173,-41553],[3043,-29176],[9737,-8031],[173,-12009],[-15039,-9946],[-32426,21955],[-49292,20408],[-32774,11641],[-29905,5158],[-19299,9504]],[[260280,68666],[-3565,20703],[4782,6262]],[[261497,95631],[23298,442],[-2695,-10609],[12953,-7442],[6520,11347],[15474,8030],[1217,-14440],[10693,5157],[10954,-17314],[20603,11494],[-1999,18419],[8172,-1253],[20081,6778],[-1565,17682],[14692,3463],[5390,-7294],[261,15030],[39468,-4642],[-4434,-19745]],[[53464,311795],[9215,-16798],[11736,-9578],[7129,3242],[3999,-12599],[8606,9873],[11736,-15988],[-6607,-11861],[-434,-12967],[8780,-7663],[11562,4126],[87,9210]],[[119273,250792],[11215,-3537],[10779,4200],[3999,-5526],[-7389,-13482],[-1913,-30650],[9650,5526],[8867,-7957],[16083,1105],[2347,-12230],[8346,369],[9128,-19893],[13301,-810],[18604,5452],[7911,-9873],[11736,5968]],[[241937,169454],[1999,-8252],[16344,-3094],[9215,1694],[4868,-17019],[-2608,-12304],[-11910,-4936],[1652,-29912]],[[260280,68666],[-53986,34996],[-21212,9283],[-14170,-295],[-26254,15472],[-23472,7220],[-53725,32344],[-10432,21660],[86,9062],[-13735,39048],[-13649,19525],[-22081,19081],[6607,11052]],[[14257,287114],[9041,1694],[8259,295],[782,10830],[21125,11862]],[[509606,287040],[6520,-26155]],[[516126,260885],[-6433,-8251],[-2000,-25124],[7216,-12598],[-7564,-14662],[7216,-21734],[-87,-27481],[-9563,-4568],[-2086,-11862],[-6694,-6704],[-11041,737],[-2434,-10536],[-16430,442],[-5564,-5378],[-20082,-2432]],[[241937,169454],[260,16282],[8259,12820]],[[250456,198556],[3130,-2726],[10258,-7441],[8433,3831],[14604,-9283],[5477,-12304],[15648,6336],[6868,-8326],[11997,5821],[10171,-10020],[1391,12009],[12692,21366],[22777,-442],[7216,6336],[173,20187],[5651,9062],[12084,74],[3564,17535],[-4520,8767],[5650,17093],[9998,-2063],[4260,13704],[12953,2284],[-4173,18787]],[[426758,309143],[23559,3610],[4433,-12525],[13127,-12451],[22082,12156],[4259,-7515],[15388,-5378]],[[414239,368157],[4173,-16282],[-3303,-6999],[11649,-35733]],[[250456,198556],[-7389,8030],[-261,13778],[-13996,9725],[19299,17019]],[[248109,247108],[10693,-12304],[4433,6778],[19908,9873],[-7215,8694],[4086,7809],[608,29618],[17735,8251],[7128,8547],[14953,4199],[1478,9799]],[[321916,328372],[18604,-3168],[9562,6189],[6520,-8989],[7477,3832],[18343,-4568],[16430,9799],[11562,12819],[-8085,7589],[-3825,17534],[7564,7589],[8171,-8841]],[[808397,368599],[-1826,-31901],[6520,-5747],[-2955,-18124],[5998,-3021],[2956,-18935],[-3651,-29396],[5563,-17388],[29384,-24460],[12779,-17461],[-14257,-27702],[-11301,16429],[-1043,8989],[-8172,-3831],[-5303,11051],[-10693,4494],[-4781,15914],[-8607,-1179]],[[799008,226331],[-5651,5895],[5216,30059],[-7389,47005],[3825,7073],[-3999,39785],[1652,10388]],[[792662,366536],[15735,2063]],[[45379,387534],[-1651,-8620],[15300,-11788],[2173,-32860],[-7737,-22471]],[[14257,287114],[-14257,24165],[10780,29029],[16604,11198],[3738,17388],[-4433,16577],[5737,10535],[10519,-6925],[2434,-1547]],[[780926,382818],[11736,-16282]],[[799008,226331],[-13475,7221],[-12953,-18861],[-12518,3315],[-2434,11936],[-7911,3315],[-1391,13851],[-21734,-7957],[-27210,4715],[-6781,7736],[-18777,3242],[-22777,-10683],[-1478,-7515],[-11388,4421],[-7390,-7810],[-11910,-442]],[[618881,232815],[-1043,9504],[9476,18272],[-2347,20113],[7215,24608],[870,15472]],[[633052,320784],[23298,-3537],[19038,8547],[9041,10535],[261,18051],[7477,9577]],[[692167,363957],[18864,3905],[2521,6189],[18778,14735],[15822,-23281],[10171,12377],[11215,-5378],[11388,10314]],[[586020,404258],[16692,-21734],[8606,-37206],[21734,-24534]],[[618881,232815],[-5476,-1326],[-23733,15987],[-4782,19451],[-9215,11272],[-17647,-5673],[-2869,8841],[-15996,-2579],[-19647,-11935],[-3390,-5968]],[[509606,287040],[27036,36396],[2521,12598],[12692,-4862],[4782,11125],[3216,23208],[17039,18124],[4086,17461],[-3390,14514],[5303,5010]],[[582891,420614],[7128,-3978],[-3999,-12378]],[[93802,425992],[4172,-11125],[13214,-10830],[-3477,-6704],[10171,-23503],[-5564,-2726],[10519,-24239],[5738,-4052],[7389,-20630],[-6259,-6041],[5129,-16945],[-15561,-1621],[869,-5379],[1565,-14956],[-6781,-18934],[4347,-7515]],[[45379,387534],[3739,13630],[19212,23871],[1391,6115],[17300,736],[6781,-5894]],[[224985,423193],[10953,-15767]],[[235938,407426],[-15387,-16061],[3477,-14367],[-3651,-18124],[9650,-13188],[-6086,-8546],[7303,-22545],[-3391,-48700],[7911,-3094],[12345,-15693]],[[93802,425992],[5129,5231],[12431,-2652],[22864,16577],[6781,3831],[5216,-22471],[8519,-13040],[13388,-2432],[21907,41259]],[[190037,452295],[3043,-11273],[-87,0],[0,-147],[15909,-17977],[6607,8031],[9476,-7736]],[[294705,463641],[18691,-5010]],[[313396,458631],[-5737,-50615],[-8520,-26450],[11215,-26081],[3825,-19819],[7737,-7294]],[[235938,407426],[13301,9578],[3304,-11272],[7997,16871],[12693,6705],[11910,14882],[-783,11788],[10345,7663]],[[499434,468945],[14779,-4199],[3564,-13557],[9824,5821]],[[527601,457010],[16430,-20703],[9911,442],[5216,-17682],[16430,10020]],[[575588,429087],[7303,-8473]],[[414239,368157],[8346,15693]],[[422585,383850],[8693,-147]],[[431278,383703],[12084,-15104],[8172,7294],[6172,-6189],[2347,18345],[-6085,10094],[7476,10536],[-521,35143],[3129,8546]],[[464052,452368],[11476,11641],[7302,-8546],[16604,13482]],[[453012,483607],[11040,-31239]],[[431278,383703],[-7911,15913],[-4085,18125],[3651,28881],[12518,31017],[17561,5968]],[[580631,510719],[12779,2284],[5998,-10241],[8867,-15766],[0,-1695],[6173,-11714],[4433,10535],[26341,11641],[14692,-6189]],[[659914,489574],[3043,-29986],[5216,-1105],[7563,-34112],[21125,-12819]],[[696861,411552],[-9824,-35438],[5130,-12157]],[[575588,429087],[2087,21292],[5303,3536],[-4521,16577],[4955,18272],[-5998,16503],[3217,5452]],[[735199,516171],[434,-515]],[[735633,515656],[8955,-14220],[1999,-19892],[6955,-9578],[11997,5084],[11562,-12820],[11388,-19598],[1652,-13998],[-11301,-38164],[2086,-9652]],[[696861,411552],[9824,11051],[-5303,15030],[-1739,4789],[16604,8104],[10780,15546],[-8780,18861],[10606,22987]],[[728853,507920],[6346,8251]],[[264626,538642],[-3390,-19376],[5564,-14441],[11997,-15398],[260,-11714],[7651,1547],[7997,-15619]],[[190037,452295],[5477,8546],[9041,-147],[-6433,10535],[-956,21661],[10606,-5010],[5477,21882],[12431,2283],[8520,10610],[16256,0],[14170,15987]],[[418673,526633],[-1652,-12746],[-12692,-33080],[-4434,-26892],[-17560,-49731],[12518,-9946],[12692,-3389],[3217,7441],[11823,-14440]],[[313396,458631],[7303,-5379],[521,-12377],[12866,-3979],[4521,20408],[-6346,5968],[5998,33523],[18952,-295],[6172,15693]],[[363383,512193],[12432,1105],[6780,12377],[16866,-5009],[7824,10977],[11388,-5010]],[[423541,549399],[4869,3463],[14083,-32418],[9389,-6188]],[[451882,514256],[1130,-14809],[0,-15840]],[[418673,526633],[782,884],[4086,19966],[0,1916]],[[659914,489574],[8954,16798],[-5216,21514]],[[663652,527886],[23125,-2947],[6433,4641],[12866,-16061],[15996,2358],[6781,-7957]],[[516213,553820],[14170,-2063],[-8085,-6115],[-3825,-7515],[12605,-12304],[-3129,-19745],[10432,-38975],[-10780,-10093]],[[499434,468945],[-9128,19598],[11476,37059],[-11389,19008]],[[490393,544610],[2000,1842]],[[492393,546452],[14257,442],[9563,6926]],[[451882,514256],[1651,22323],[7651,-6483],[-6955,19598],[12431,0],[10519,-7957],[13214,2873]],[[592280,560082],[4433,-19377],[-10084,-5746],[-5998,-24240]],[[516213,553820],[10432,10388]],[[526645,564208],[10606,-4642],[11301,2210],[14953,-5894],[3303,8105],[15213,-8105],[10259,4200]],[[921585,567523],[16430,590]],[[938015,568113],[-521,-22766],[-5043,-14072],[-9475,-13778],[3042,-15545],[-7737,-4715],[-5303,-27555],[-695,-4715],[-18517,-12672]],[[893766,452295],[-261,41405],[7824,2653],[1391,12598],[-9302,17756],[-695,1621],[3738,9504]],[[896461,537832],[7215,9357],[17213,2357],[696,17977]],[[818568,555956],[6346,-32270],[-4085,-13703],[5302,-8547],[7129,-56877],[10606,-1106],[7650,39491],[11128,-5084],[174,-10757],[9736,-4199],[7911,-19377]],[[880465,443527],[-4347,-29691],[-19125,-20335],[-2521,-8104],[-22777,-28881],[522,11641],[-12258,17608],[-7911,-3241],[-3651,-13925]],[[735633,515656],[6694,11198],[1739,22913],[5825,30502]],[[749891,580269],[16952,-8031],[-3130,-13703],[10519,-15472],[10606,-4126],[-9650,-6999],[2608,-10830],[9650,-8768],[-1739,15988],[11128,3978],[1043,11494],[14083,3904],[6607,8252]],[[897852,571944],[4694,7515],[13823,-811],[5216,-11125]],[[896461,537832],[-17300,810],[-2173,22766]],[[876988,561408],[10866,9504],[9998,1032]],[[529253,589036],[5303,-8767],[-7911,-16061]],[[492393,546452],[-12345,23650],[-782,810],[-1565,2800],[1304,8767],[10432,7294]],[[489437,589773],[435,-516],[6781,-1768],[24428,8252],[8172,-6705]],[[344084,605024],[-4434,-29102],[9476,-5673],[-2260,-12009],[5563,-9062],[3391,-23208],[7563,-13777]],[[264626,538642],[5303,4200],[22777,-17240],[8954,20040],[0,13187],[7390,11347],[2694,16798],[15562,27849]],[[327306,614823],[5824,-8252],[10954,-1547]],[[629922,606792],[16170,811],[7302,-6189]],[[653394,601414],[4434,-30207],[-783,-16872],[4695,-4126],[-6346,-15471],[8258,-6852]],[[592280,560082],[2521,17314],[5824,5157],[9650,22471]],[[610275,605024],[19647,1768]],[[858732,618212],[18169,-28439],[87,-28365]],[[893766,452295],[-13301,-8768]],[[818568,555956],[-956,31312],[-5477,12304]],[[812135,599572],[15648,3242],[7129,10977],[23646,-6704],[174,11125]],[[529253,589036],[-5738,19082]],[[523515,608118],[0,10094],[7650,9578],[-1043,9504]],[[530122,637294],[12866,-1768],[11389,-10683],[15300,-6557],[13996,3536],[26602,-16798]],[[493088,644809],[8607,-1032],[7128,-28659],[14692,-7000]],[[489437,589773],[-6694,29470],[7129,6926],[-8954,12230],[12170,6410]],[[420412,558314],[-15822,29102],[608,16945],[-5911,12893],[8258,21882]],[[407545,639136],[13562,-12746],[22516,5231],[5390,-39195],[-17909,-5821],[-10692,-28291]],[[383291,654976],[3999,-10683],[13475,516],[6780,-5673]],[[420412,558314],[3129,-8915]],[[344084,605024],[18430,15251],[21907,-7147],[-435,18272],[-4868,8546],[4173,15030]],[[904285,647609],[6346,-27039],[-11127,-7442],[-7042,-7809],[608,-30576],[4782,-2799]],[[858732,618212],[-5043,4863],[12171,20481]],[[865860,643556],[5825,6926],[15822,-5526],[16778,2653]],[[718942,657555],[19386,-18419],[-8258,-21661],[14083,-3389],[-609,-20187],[6347,-13630]],[[653394,601414],[19908,11641],[5303,14956]],[[678605,628011],[5824,2873],[1304,2505],[522,0],[13996,-10535],[4521,27923],[14170,6778]],[[629922,606792],[3999,16651]],[[633921,623443],[14431,10536],[-3912,6704],[14170,18419],[8346,-6778],[10693,442],[956,-24755]],[[960096,660575],[2695,4642]],[[962791,665217],[8433,-10536],[-1391,-13114],[6520,-2652],[-6259,0],[1478,-18861],[-11476,-17314],[-15387,-3389],[-5303,-13262],[1652,-14366],[-3043,-3610]],[[904285,647609],[7042,4788],[12170,1769]],[[923497,654166],[261,-1253],[28775,2284],[7563,5378]],[[621924,673027],[11215,-9283],[5389,-15841]],[[638528,647903],[-2521,-16061]],[[636007,631842],[-10084,-442],[-11301,9504],[3651,13483],[-6781,13924]],[[611492,668311],[10432,4716]],[[606537,670080],[4955,-1769]],[[636007,631842],[-2086,-8399]],[[530122,637294],[7129,11420],[-4434,14735],[6868,5673]],[[539685,669122],[1912,-7736],[19734,-8841],[11910,30870]],[[573241,683415],[2782,-14514],[30514,1179]],[[369468,672511],[13823,-17535]],[[327306,614823],[-6607,4936],[7128,12451],[-9215,8768],[1130,5378]],[[319742,646356],[19039,20114],[17039,8104],[13648,-2063]],[[528731,680247],[10084,-74],[870,-11051]],[[493088,644809],[696,22471]],[[493784,667280],[21125,-1253],[13822,14220]],[[431887,689383],[9997,3978],[8259,-13630],[15040,-1621],[5824,-8988],[12605,4420]],[[483612,673542],[10172,-6262]],[[369468,672511],[609,221],[14344,-2431],[3477,5820],[9737,-11493],[6781,2431],[-4086,12893]],[[400330,679952],[1478,7957],[21038,3684],[695,-17093],[8346,14883]],[[647917,676121],[-3390,-27407],[-5999,-811]],[[621924,673027],[10954,14293]],[[632878,687320],[7737,8104],[9649,-4494],[-2347,-14809]],[[927844,699108],[9476,-20924],[14605,589],[0,148],[5563,2431]],[[957488,681352],[5303,-16135]],[[923497,654166],[-2521,10535],[-12866,22103],[2347,6852]],[[910457,693656],[17387,5452]],[[899156,700139],[11301,-6483]],[[865860,643556],[-2956,12378],[8172,12377],[-4260,18640],[24950,10757]],[[891766,697708],[7390,2431]],[[613405,698371],[14170,737]],[[627575,699108],[2695,-4936],[2521,-6852],[87,0]],[[573241,683415],[1565,18492]],[[574806,701907],[8259,5747],[30340,-9283]],[[771885,710749],[10606,-2211]],[[782491,708538],[10432,-24976]],[[792923,683562],[-2174,-43910],[4608,-13483],[11301,-6410],[5477,-20187]],[[718942,657555],[-4260,11051],[6868,8989],[11389,-6116]],[[732939,671479],[8954,-13040],[17039,10830],[15909,22913],[-2956,18567]],[[932625,704781],[5390,5820],[14431,-3094]],[[952446,707507],[5042,-26155]],[[927844,699108],[4781,5673]],[[916021,724084],[6955,-2431],[9649,-16872]],[[899156,700139],[7824,5084],[9041,18861]],[[546900,720989],[10345,3021],[11215,-11272]],[[568460,712738],[1565,-7441],[4781,-3390]],[[528731,680247],[3738,20040],[-2434,13261],[1043,6042]],[[531078,719590],[15822,1399]],[[441450,739629],[2695,-14735],[7737,-5010],[22255,8620],[10345,-16503],[0,-11125]],[[484482,700876],[-6259,-18124],[5389,-9210]],[[431887,689383],[782,2431],[3825,13704],[-7476,5599],[-1391,18935]],[[427627,730052],[13823,9577]],[[509606,743018],[24689,-4125],[-1652,-9578],[-1565,-9725]],[[484482,700876],[10345,11125],[14779,31017]],[[611927,754586],[4781,-36249],[12779,15104],[11041,-14220],[-11301,-3831],[-1652,-16282]],[[568460,712738],[6433,14735],[11475,-1179],[9824,8694],[-3391,10830],[19126,8768]],[[904633,756427],[-2348,-6778],[13736,-25565]],[[891766,697708],[-4868,14514],[2087,18640],[-7738,21219]],[[881247,752081],[5130,6925],[18256,-2579]],[[731374,762321],[3390,-4125],[15561,73]],[[750325,758269],[1652,-17092],[15126,-14736],[4782,-15692]],[[732939,671479],[5476,7294],[-8780,17904],[-1913,13261],[-4346,3905],[2782,25050]],[[726158,738893],[4955,4862],[261,18566]],[[476571,776909],[12431,-18640],[6086,1400],[14518,-16651]],[[441450,739629],[5390,10020],[11127,-2063],[2260,-8693],[16170,4641],[-2434,5379],[2608,27996]],[[364426,765195],[5477,3389]],[[399634,762321],[2956,-25565],[-4868,-40227],[-5042,-8841],[7650,-7736]],[[319742,646356],[-2868,6999]],[[316874,653355],[-2348,24682],[8346,9135],[30253,3758],[-3651,10977],[5737,25345]],[[355211,727252],[6520,5894],[5825,24092],[-3130,7957]],[[418412,769100],[9215,-39048]],[[950968,774994],[-5476,-20114],[9649,-12598],[-869,-19303]],[[954272,722979],[-1826,-15472]],[[904633,756427],[7911,10315],[15995,2579],[11215,-6189],[-348,9504],[11562,2358]],[[762496,785603],[10954,-1842],[20342,-5673],[12084,-29912],[6172,-5158],[870,-1620]],[[812918,741398],[-9824,-17535],[-174,-15251],[10867,-21071],[-3564,-6336],[-17300,2357]],[[782491,708538],[-1739,27997],[3477,16503],[-6520,6189],[-434,1326],[-14779,25050]],[[310527,790245],[12954,-13115],[6867,-29838],[-7998,-11273],[13388,-7146],[14953,1473],[4520,-3094]],[[316874,653355],[-20517,-16650],[-8780,10535],[-7129,-6041],[-261,41332]],[[280187,682531],[5825,1326],[8954,19598],[1217,27775],[22951,8473],[-2260,24313],[-9563,14883],[3216,11346]],[[680431,787961],[-6173,-6263],[10780,-20113],[2869,-15472],[19908,-4421],[11997,9578],[6346,-12377]],[[611927,754586],[2434,9872]],[[614361,764458],[19386,7957]],[[633747,772415],[13823,2431],[23298,12746]],[[670868,787592],[9563,369]],[[982786,781919],[5564,-147]],[[988350,781772],[-2869,-32859],[-1391,-14883],[-11127,-11346],[-18691,295]],[[950968,774994],[16257,2799],[0,13778]],[[967225,791571],[15561,-9652]],[[860992,788697],[3825,-13114],[-3217,-10020],[11041,-3684],[8606,-9798]],[[812918,741398],[18430,-4568],[1825,14366],[-4955,9505],[29557,11493],[3217,16503]],[[757541,792381],[4955,-6778]],[[750325,758269],[1304,3610],[-3303,9284],[9215,21218]],[[711031,801517],[956,-368],[13301,-4200]],[[725288,796949],[6955,-4715],[-869,-29913]],[[680431,787961],[20777,2726],[9823,10830]],[[308876,796507],[10606,7736]],[[319482,804243],[14344,-12893],[-2956,-24461],[18082,-7883],[15474,6189]],[[310527,790245],[-1651,6262]],[[293141,804980],[15735,-8473]],[[280187,682531],[-15995,10609],[-5042,14514],[3390,15988],[-8259,15766],[-2434,14957],[6955,14145],[13648,590],[3652,34332]],[[276102,803432],[16169,-5673],[870,7221]],[[450404,799822],[23124,-1252],[4782,-17167]],[[478310,781403],[-1739,-4494]],[[587238,803211],[3825,-11419],[19994,-3168],[3304,-24166]],[[546900,720989],[6173,43469],[7302,6115],[-4434,8841],[2348,21661]],[[558289,801075],[13909,-2579],[15040,4715]],[[855167,827009],[3739,-6484],[3998,-14514],[-1912,-17314]],[[757541,792381],[6607,6263],[-2000,17755]],[[762148,816399],[3130,12820],[10606,-147],[20081,-11125],[3043,17682],[8954,-9210],[3304,-16208],[9041,-1105],[8346,11567],[15387,9356],[11127,-3020]],[[633052,826714],[3564,-18345],[6781,-6852],[-9824,-2210],[-3912,-10020],[4086,-16872]],[[587238,803211],[-1739,11641],[15126,8473]],[[600625,823325],[2782,-3316],[29645,6705]],[[750064,825388],[12084,-8989]],[[725288,796949],[17126,13483],[3391,22618]],[[745805,833050],[4259,-7662]],[[651655,831282],[12519,-7147],[7563,6336]],[[671737,830471],[-2695,-33227],[1826,-9652]],[[633052,826714],[18603,4568]],[[694079,828777],[16952,1547],[2695,-2873],[-2695,-25934]],[[671737,830471],[6868,5231],[15474,-6925]],[[596192,838723],[4433,-15398]],[[558289,801075],[-8955,-2063],[-13735,7220],[-15735,-5894],[-8694,7957],[-1738,15546]],[[509432,823841],[10258,-9210],[15474,2579],[9041,7220],[12519,-4715],[2434,10093],[14605,6042]],[[573763,835850],[13475,-9725],[8954,12598]],[[493871,830324],[2955,-7220],[-1912,-13483],[5824,-4273],[957,-18787],[-15996,-7147],[-7389,1989]],[[447100,821262],[11128,-6115],[4694,11051],[21473,10610],[9476,-6484]],[[495175,831282],[6867,-811]],[[502042,830471],[7390,-6630]],[[493871,830324],[1304,958]],[[375293,835850],[1391,-32565],[3390,-4789]],[[319482,804243],[17039,4568],[-3043,18934],[10519,8252]],[[343997,835997],[19299,737],[6259,4199]],[[946969,845649],[3217,-11567],[-10867,-30134],[5477,-6557],[17387,8104],[-2608,-11346],[7650,-2578]],[[855167,827009],[4956,11714],[12083,2284],[-9562,-10167],[17995,-295],[-2434,-17314],[6607,14220],[17387,9946],[23472,2947]],[[925671,840344],[6607,4568]],[[932278,844912],[14691,737]],[[660870,857363],[9998,1621],[14692,-1547],[9649,-10094]],[[695209,847343],[-1130,-18566]],[[651655,831282],[7564,5452],[869,1179],[782,19450]],[[640528,862594],[20342,-5231]],[[596192,838723],[13996,10757],[9215,958],[4694,9062],[8781,-3316],[7650,6410]],[[714595,869004],[29645,-25639],[1565,-10315]],[[695209,847343],[435,7515],[11214,5747],[-9823,6925],[6172,16504],[11388,-15030]],[[747717,877476],[5216,-6851],[-5911,-7736],[12084,-16356],[-9042,-21145]],[[714595,869004],[14258,8988],[18864,-516]],[[987394,862373],[-4173,4052],[-609,-19082],[10780,-516],[-4260,-9798],[261,-26597],[10606,-22766],[-11649,-5894]],[[932278,844912],[695,13040],[19908,3390],[-1739,9209],[11823,-8399],[6955,12967]],[[969920,875119],[17474,-12746]],[[293575,864215],[870,-37796],[-5912,-6631],[4608,-14808]],[[276102,803432],[-14518,21219],[-26950,9946]],[[234634,834597],[4608,11494],[-3652,17534]],[[235590,863625],[3999,1032]],[[239589,864657],[11997,-12893],[3912,7515],[16605,-13704],[7563,74],[435,14440],[13474,4126]],[[439711,885581],[10519,-10978],[-261,-11935],[24863,3536]],[[474832,866204],[8172,-7220],[1304,-11641],[10867,-16061]],[[437103,875561],[2608,10020]],[[310267,876445],[22602,1179]],[[332869,877624],[11736,-13556],[-5129,-25787],[4521,-2284]],[[293575,864215],[-1999,13851]],[[291576,878066],[3999,5083],[14692,-6704]],[[222724,873498],[13040,-1400],[-174,-8473]],[[234634,834597],[-7302,-2063],[-11562,10462],[-11650,-5157],[-5998,-9799],[-9476,14956],[7998,20556],[-2782,7588],[-347,28587],[9215,-4274],[14952,1990]],[[217682,897443],[-2695,-19746],[7737,-4199]],[[239589,864657],[3652,16503],[19125,-1031]],[[262366,880129],[24168,1842],[5042,-3905]],[[555941,869741],[11997,-14883],[-1912,-12819],[7737,-6189]],[[502042,830471],[19387,37575],[-1565,11862],[8346,8546]],[[528210,888454],[9128,-14440],[-5912,-8252],[11910,-6262],[12605,10241]],[[356428,888012],[4347,-8620],[13823,-5157]],[[332869,877624],[13388,13409],[10171,-3021]],[[261497,900095],[869,-19966]],[[217682,897443],[5390,2136],[-8085,14072],[21560,-5378],[16169,-20924],[-869,12672],[9650,74]],[[532469,930597],[4608,-20040],[-11128,-15325],[2261,-6778]],[[474832,866204],[10867,15914],[-2087,6336]],[[483612,888454],[4521,7294],[-4607,10462],[5216,11935]],[[488742,918145],[11301,4937]],[[500043,923082],[21907,12377],[10519,-4862]],[[573241,940911],[4086,-14367],[-1478,-13261]],[[575849,913283],[-19908,-43542]],[[532469,930597],[9911,-4421],[9041,3905],[9215,-7957],[2173,10757],[10432,8030]],[[355820,933912],[16256,1252],[4956,-9283]],[[377032,925881],[-3130,-12082],[4260,-26376]],[[356428,888012],[-9302,14662],[8259,17019]],[[355385,919693],[0,147],[435,14072]],[[438668,939143],[10693,-12599],[3912,6263]],[[453273,932807],[9302,-11567],[-1739,-8989],[17647,-21439],[5129,-2358]],[[439711,885581],[-4521,1915],[-3912,25418],[4260,3684],[3130,22545]],[[322437,927944],[-1304,-24018],[-8085,-221],[-2781,-27260]],[[261497,900095],[14778,11641],[13997,2063],[-870,14366]],[[289402,928165],[33035,-221]],[[328175,933396],[27210,-13703]],[[322437,927944],[5738,5526]],[[328175,933470],[0,-74]],[[925671,840344],[1304,30281],[-8694,6483],[2434,19893],[6868,21292],[174,14882],[8693,13336],[-7476,14735],[11910,-1253],[12779,-7220],[21734,-25271],[-2869,-11788],[-12084,-13262],[10519,-5451],[-1043,-21882]],[[473789,944816],[9215,-6336],[5738,-20335]],[[453273,932807],[20516,12009]],[[428583,943490],[10085,-4347]],[[377032,925881],[87,0],[5737,-5378],[11041,5378],[6172,-5967],[11562,18566]],[[411631,938480],[16952,5010]],[[617230,959993],[7911,-6410]],[[625141,953583],[10606,1990],[6780,-10536],[9302,221],[-521,-21587],[-15648,2431],[-609,-15545],[9128,-13335],[-5303,-3021],[1652,-31607]],[[575849,913283],[14257,-7294],[6781,7146],[-2434,17388],[9650,12156],[10432,4716],[2695,12598]],[[333391,956088],[-5216,-22618]],[[289402,928165],[-608,2137],[1652,5968],[14170,1178],[4434,15841],[5476,-4126],[18865,6925]],[[491350,983422],[-3739,-15104],[6955,-3389],[-4607,-10830],[3216,-17682],[8781,-4863],[-1913,-8472]],[[473789,944816],[10171,15914],[1217,19671],[6173,3021]],[[375554,977307],[-18169,-13409],[-1565,-29986]],[[333391,956088],[-2434,7810],[27123,18640],[17474,-5231]],[[596279,974213],[11127,4862],[6259,-8473],[11041,4863],[87,0],[4086,-13704],[-3738,-8178]],[[573241,940911],[6086,11641],[-435,14735],[17387,6926]],[[394940,987695],[-5738,-10462],[1913,-19524],[16083,-3020],[4433,-16209]],[[375554,977307],[5911,2652],[0,148],[13475,7588]],[[394940,987695],[12171,-7367],[9302,6336],[10866,1694]],[[427279,988358],[17474,-20850],[-16170,-24018]],[[427279,988358],[22951,11641],[23472,-1916],[-3999,-12966],[9650,5378],[11997,-7073]]],"transform":{"scale":[0.0000036461741175018246,0.0000024684882924496123],"translate":[-103.73801820140095,17.915558928438845]},"objects":{"municipalities":{"type":"GeometryCollection","geometries":[{"arcs":[[0,1,2,3,4,5,6]],"type":"Polygon","properties":{"cvegeo":"16108","nombre":"Zamora"}},{"arcs":[[7,8,9,10,11,12,13,-2]],"type":"Polygon","properties":{"cvegeo":"16085","nombre":"Tangancícuaro"}},{"arcs":[[14,15,16]],"type":"Polygon","properties":{"cvegeo":"16052","nombre":"Lázaro Cárdenas"}},{"arcs":[[17,18,19,-16,20,21]],"type":"Polygon","properties":{"cvegeo":"16008","nombre":"Aquila"}},{"arcs":[[22,23,-17,-20,24,25,26]],"type":"Polygon","properties":{"cvegeo":"16010","nombre":"Arteaga"}},{"arcs":[[27,-26,28,29,30]],"type":"Polygon","properties":{"cvegeo":"16096","nombre":"Tumbiscatío"}},{"arcs":[[31,32,33]],"type":"Polygon","properties":{"cvegeo":"16077","nombre":"San Lucas"}},{"arcs":[[34,-22,35]],"type":"Polygon","properties":{"cvegeo":"16014","nombre":"Coahuayana"}},{"arcs":[[36,-33,37,38,39,40]],"type":"Polygon","properties":{"cvegeo":"16038","nombre":"Huetamo"}},{"arcs":[[41,-39,42,-23,43,44]],"type":"Polygon","properties":{"cvegeo":"16029","nombre":"Churumuco"}},{"arcs":[[45,-18,-35,46]],"type":"Polygon","properties":{"cvegeo":"16026","nombre":"Chinicuila"}},{"arcs":[[47,48,-29,-25,-19,-46,49,50]],"type":"Polygon","properties":{"cvegeo":"16015","nombre":"Coalcomán de Vázquez Pallares"}},{"arcs":[[51,52,-30,-49,53]],"type":"Polygon","properties":{"cvegeo":"16002","nombre":"Aguililla"}},{"arcs":[[54,55,56,-44,-27,-28,57,58,59,60]],"type":"Polygon","properties":{"cvegeo":"16035","nombre":"La Huacana"}},{"arcs":[[61,-60,62]],"type":"Polygon","properties":{"cvegeo":"16055","nombre":"Múgica"}},{"arcs":[[63,64,65,-40,-42,-45,-57,66]],"type":"Polygon","properties":{"cvegeo":"16097","nombre":"Turicato"}},{"arcs":[[67,68,-41,-66,69,70]],"type":"Polygon","properties":{"cvegeo":"16013","nombre":"Carácuaro"}},{"arcs":[[71,-54,-48,-51,72]],"type":"Polygon","properties":{"cvegeo":"16089","nombre":"Tepalcatepec"}},{"arcs":[[73,-58,-31,-53,74,75]],"type":"Polygon","properties":{"cvegeo":"16006","nombre":"Apatzingán"}},{"arcs":[[76,77,-63,-59,-74,78]],"type":"Polygon","properties":{"cvegeo":"16064","nombre":"Parácuaro"}},{"arcs":[[-70,-65,79,80]],"type":"Polygon","properties":{"cvegeo":"16057","nombre":"Nocupétaro"}},{"arcs":[[81,-55,82,83,84]],"type":"Polygon","properties":{"cvegeo":"16059","nombre":"Nuevo Urecho"}},{"arcs":[[-83,-61,-62,-78,85]],"type":"Polygon","properties":{"cvegeo":"16033","nombre":"Gabriel Zamora"}},{"arcs":[[86,-67,-56,-82,87,88]],"type":"Polygon","properties":{"cvegeo":"16009","nombre":"Ario"}},{"arcs":[[89,90,91,92]],"type":"Polygon","properties":{"cvegeo":"16081","nombre":"Susupuato"}},{"arcs":[[93,94,-34,-37,-69,95,96]],"type":"Polygon","properties":{"cvegeo":"16092","nombre":"Tiquicheo de Nicolás Romero"}},{"arcs":[[97,-93,98,99]],"type":"Polygon","properties":{"cvegeo":"16046","nombre":"Juárez"}},{"arcs":[[100,-88,-85,101,102]],"type":"Polygon","properties":{"cvegeo":"16087","nombre":"Taretan"}},{"arcs":[[103,-75,-52,-72,104,105]],"type":"Polygon","properties":{"cvegeo":"16012","nombre":"Buenavista"}},{"arcs":[[106,107,-80,-64,-87,108,109]],"type":"Polygon","properties":{"cvegeo":"16082","nombre":"Tacámbaro"}},{"arcs":[[110,-99,-92,111,-94,112,113]],"type":"Polygon","properties":{"cvegeo":"16099","nombre":"Tuzantla"}},{"arcs":[[-109,-89,-101,114,115,116]],"type":"Polygon","properties":{"cvegeo":"16079","nombre":"Salvador Escalante"}},{"arcs":[[117,-115,-103,118]],"type":"Polygon","properties":{"cvegeo":"16111","nombre":"Ziracuaretiro"}},{"arcs":[[119,120]],"type":"Polygon","properties":{"cvegeo":"16058","nombre":"Nuevo Parangaricutiro"}},{"arcs":[[121,-120,122,-79,-76,-104,123]],"type":"Polygon","properties":{"cvegeo":"16083","nombre":"Tancítaro"}},{"arcs":[[124,-100,-111,125,126]],"type":"Polygon","properties":{"cvegeo":"16047","nombre":"Jungapeo"}},{"arcs":[[127,-96,-68,-71,-81,-108,128,129]],"type":"Polygon","properties":{"cvegeo":"16049","nombre":"Madero"}},{"arcs":[[-129,-107,130,131]],"type":"Polygon","properties":{"cvegeo":"16001","nombre":"Acuitzio"}},{"arcs":[[132,133,-90,-98,-125,134,135]],"type":"Polygon","properties":{"cvegeo":"16112","nombre":"Zitácuaro"}},{"arcs":[[136,137,138,139]],"type":"Polygon","properties":{"cvegeo":"16039","nombre":"Huiramba"}},{"arcs":[[140,-139,141,-131,-110,-117,142,143,144]],"type":"Polygon","properties":{"cvegeo":"16066","nombre":"Pátzcuaro"}},{"arcs":[[145,-124,-106,146,147]],"type":"Polygon","properties":{"cvegeo":"16068","nombre":"Peribán"}},{"arcs":[[148,-143,-116,-118,149,150]],"type":"Polygon","properties":{"cvegeo":"16090","nombre":"Tingambato"}},{"arcs":[[151,152,-150,-119,-102,-84,-86,-77,-123,-121,-122,-146,153,154]],"type":"Polygon","properties":{"cvegeo":"16102","nombre":"Uruapan"}},{"arcs":[[155,-137,156,157]],"type":"Polygon","properties":{"cvegeo":"16048","nombre":"Lagunillas"}},{"arcs":[[158,159,-133,-136,160,161]],"type":"Polygon","properties":{"cvegeo":"16061","nombre":"Ocampo"}},{"arcs":[[162,-161,-135,-127,163,164]],"type":"Polygon","properties":{"cvegeo":"16098","nombre":"Tuxpan"}},{"arcs":[[165,166,-157,-140,-141,-145,167,168]],"type":"Polygon","properties":{"cvegeo":"16100","nombre":"Tzintzuntzan"}},{"arcs":[[169,170,171,-113,-97,-128,172,173]],"type":"Polygon","properties":{"cvegeo":"16101","nombre":"Tzitzio"}},{"arcs":[[174,175,-159,176]],"type":"Polygon","properties":{"cvegeo":"16005","nombre":"Angangueo"}},{"arcs":[[177,-177,-162,-163,178]],"type":"Polygon","properties":{"cvegeo":"16007","nombre":"Aporo"}},{"arcs":[[179,180,-168,-144,-149,181,182]],"type":"Polygon","properties":{"cvegeo":"16032","nombre":"Erongarícuaro"}},{"arcs":[[183,184,-152,185,186]],"type":"Polygon","properties":{"cvegeo":"16065","nombre":"Paracho"}},{"arcs":[[187,-182,-151,-153,-185,188]],"type":"Polygon","properties":{"cvegeo":"16056","nombre":"Nahuatzen"}},{"arcs":[[189,-166,-169,-181,190]],"type":"Polygon","properties":{"cvegeo":"16073","nombre":"Quiroga"}},{"arcs":[[191,-179,-165,192,193]],"type":"Polygon","properties":{"cvegeo":"16041","nombre":"Irimbo"}},{"arcs":[[194,195,-174,196,197]],"type":"Polygon","properties":{"cvegeo":"16022","nombre":"Charo"}},{"arcs":[[198,-189,-184,199]],"type":"Polygon","properties":{"cvegeo":"16024","nombre":"Cherán"}},{"arcs":[[200,-12,201,-154,-148,202,203,204]],"type":"Polygon","properties":{"cvegeo":"16075","nombre":"Los Reyes"}},{"arcs":[[205,-186,-155,-202,-11]],"type":"Polygon","properties":{"cvegeo":"16021","nombre":"Charapan"}},{"arcs":[[206,207,-175,-178,-192,208]],"type":"Polygon","properties":{"cvegeo":"16080","nombre":"Senguio"}},{"arcs":[[209,210,-171,211]],"type":"Polygon","properties":{"cvegeo":"16072","nombre":"Queréndaro"}},{"arcs":[[212,-204,213,214]],"type":"Polygon","properties":{"cvegeo":"16095","nombre":"Tocumbo"}},{"arcs":[[215,-197,-173,-130,-132,-142,-138,-156,-158,-167,-190,216,217,218,219]],"type":"Polygon","properties":{"cvegeo":"16053","nombre":"Morelia"}},{"arcs":[[220,221,-207,222,223]],"type":"Polygon","properties":{"cvegeo":"16093","nombre":"Tlalpujahua"}},{"arcs":[[224,-193,-164,-126,-114,-172,-211,225]],"type":"Polygon","properties":{"cvegeo":"16034","nombre":"Hidalgo"}},{"arcs":[[226,-212,-170,-196,227]],"type":"Polygon","properties":{"cvegeo":"16040","nombre":"Indaparapeo"}},{"arcs":[[228,229,-198,-216,230]],"type":"Polygon","properties":{"cvegeo":"16088","nombre":"Tarímbaro"}},{"arcs":[[231,232,-205,-213,233]],"type":"Polygon","properties":{"cvegeo":"16091","nombre":"Tingüindín"}},{"arcs":[[234,-234,-215,235,236]],"type":"Polygon","properties":{"cvegeo":"16019","nombre":"Cotija"}},{"arcs":[[237,238,-200,-187,-206,-10]],"type":"Polygon","properties":{"cvegeo":"16025","nombre":"Chilchota"}},{"arcs":[[239,-217,-191,-180,240,241]],"type":"Polygon","properties":{"cvegeo":"16016","nombre":"Coeneo"}},{"arcs":[[242,-226,-210,-227,243,244]],"type":"Polygon","properties":{"cvegeo":"16110","nombre":"Zinapécuaro"}},{"arcs":[[245,-218,-240,246,247]],"type":"Polygon","properties":{"cvegeo":"16037","nombre":"Huaniqueo"}},{"arcs":[[248,-244,-228,-195,-230,249,250]],"type":"Polygon","properties":{"cvegeo":"16003","nombre":"Álvaro Obregón"}},{"arcs":[[251,252,-219,-246,253]],"type":"Polygon","properties":{"cvegeo":"16027","nombre":"Chucándiro"}},{"arcs":[[254,-231,-220,-253,255]],"type":"Polygon","properties":{"cvegeo":"16018","nombre":"Copándaro"}},{"arcs":[[256,-247,-242,257,258,259]],"type":"Polygon","properties":{"cvegeo":"16044","nombre":"Jiménez"}},{"arcs":[[260,-238,-9,261]],"type":"Polygon","properties":{"cvegeo":"16070","nombre":"Purépero"}},{"arcs":[[262,263,-258,-241,-183,-188,-199,-239,-261,264]],"type":"Polygon","properties":{"cvegeo":"16107","nombre":"Zacapu"}},{"arcs":[[-4,265,-13,-201,-233,266,267]],"type":"Polygon","properties":{"cvegeo":"16084","nombre":"Tangamandapio"}},{"arcs":[[-14,-266,-3]],"type":"Polygon","properties":{"cvegeo":"16043","nombre":"Jacona"}},{"arcs":[[268,-223,-209,-194,-225,-243,269,270,271]],"type":"Polygon","properties":{"cvegeo":"16050","nombre":"Maravatío"}},{"arcs":[[272,273,-256,-252,274]],"type":"Polygon","properties":{"cvegeo":"16036","nombre":"Huandacareo"}},{"arcs":[[275,-275,-254,-248,-257,276]],"type":"Polygon","properties":{"cvegeo":"16054","nombre":"Morelos"}},{"arcs":[[277,-250,-229,-255,-274,278]],"type":"Polygon","properties":{"cvegeo":"16020","nombre":"Cuitzeo"}},{"arcs":[[279,-251,-278,280]],"type":"Polygon","properties":{"cvegeo":"16078","nombre":"Santa Ana Maya"}},{"arcs":[[281,-221,-224,-269,-272,282,283]],"type":"Polygon","properties":{"cvegeo":"16017","nombre":"Contepec"}},{"arcs":[[284,-237,285,286,287,288]],"type":"Polygon","properties":{"cvegeo":"16045","nombre":"Jiquilpan"}},{"arcs":[[289,290,-265,-262,-8,-1,291]],"type":"Polygon","properties":{"cvegeo":"16094","nombre":"Tlazazalca"}},{"arcs":[[292,293,-267,-232,-235,-285,294,295]],"type":"Polygon","properties":{"cvegeo":"16104","nombre":"Villamar"}},{"arcs":[[296,-287,297,298]],"type":"Polygon","properties":{"cvegeo":"16051","nombre":"Marcos Castellanos"}},{"arcs":[[-295,-289,299,300]],"type":"Polygon","properties":{"cvegeo":"16076","nombre":"Sahuayo"}},{"arcs":[[301,-259,-264,302,303]],"type":"Polygon","properties":{"cvegeo":"16063","nombre":"Panindícuaro"}},{"arcs":[[304,-5,-268,-294,305]],"type":"Polygon","properties":{"cvegeo":"16023","nombre":"Chavinda"}},{"arcs":[[306,-300,-288,-297,-299,307]],"type":"Polygon","properties":{"cvegeo":"16074","nombre":"Cojumatlán de Régules"}},{"arcs":[[308,-303,-263,-291,309,310,311,312]],"type":"Polygon","properties":{"cvegeo":"16067","nombre":"Penjamillo"}},{"arcs":[[313,314,-304,-309,315]],"type":"Polygon","properties":{"cvegeo":"16004","nombre":"Angamacutiro"}},{"arcs":[[316,317,-6,-305,318,319]],"type":"Polygon","properties":{"cvegeo":"16042","nombre":"Ixtlán"}},{"arcs":[[320,321,-310,-290,322]],"type":"Polygon","properties":{"cvegeo":"16028","nombre":"Churintzio"}},{"arcs":[[323,-296,-301,-307,324,325]],"type":"Polygon","properties":{"cvegeo":"16103","nombre":"Venustiano Carranza"}},{"arcs":[[326,-319,-306,-293,-324,327,328]],"type":"Polygon","properties":{"cvegeo":"16062","nombre":"Pajacuarán"}},{"arcs":[[-283,-271,329]],"type":"Polygon","properties":{"cvegeo":"16031","nombre":"Epitacio Huerta"}},{"arcs":[[330,-311,-322,331]],"type":"Polygon","properties":{"cvegeo":"16109","nombre":"Zináparo"}},{"arcs":[[332,-323,-292,-7,-318,333,334]],"type":"Polygon","properties":{"cvegeo":"16030","nombre":"Ecuandureo"}},{"arcs":[[335,336,-277,-260,-302,-315,337]],"type":"Polygon","properties":{"cvegeo":"16071","nombre":"Puruándiro"}},{"arcs":[[338,-328,-326,339]],"type":"Polygon","properties":{"cvegeo":"16011","nombre":"Briseñas"}},{"arcs":[[340,-312,-331,341]],"type":"Polygon","properties":{"cvegeo":"16060","nombre":"Numarán"}},{"arcs":[[342,-320,-327,-329,-339,343]],"type":"Polygon","properties":{"cvegeo":"16105","nombre":"Vista Hermosa"}},{"arcs":[[344,-336,-338,-314,345]],"type":"Polygon","properties":{"cvegeo":"16113","nombre":"José Sixto Verduzco"}},{"arcs":[[346,-334,-317,-343,347]],"type":"Polygon","properties":{"cvegeo":"16086","nombre":"Tanhuato"}},{"arcs":[[348,349,-335,-347]],"type":"Polygon","properties":{"cvegeo":"16106","nombre":"Yurécuaro"}},{"arcs":[[-342,-332,-321,-333,-350,350]],"type":"Polygon","properties":{"cvegeo":"16069","nombre":"La Piedad"}}]}}}