{"type":"Topology","arcs":[[[700862,436599],[4790,1747],[-11257,32547],[-1357,4423],[16925,-983],[8861,-23154],[14290,1966],[3034,-12342],[11017,1748],[6147,-13925],[8303,-22608],[2315,-13052],[7824,-17202]],[[771754,375764],[6227,-20314],[-4231,-13489],[-13332,-4587],[-3673,14144],[-11496,-1202],[8143,-23263],[5908,-30581]],[[759300,296472],[-7904,-437],[-1117,22171]],[[750279,318206],[-11576,23810],[-2236,12997],[6547,1747],[-7584,22335],[-7185,-3986],[-10379,23372],[-6307,3659],[-5428,23646],[-8064,55],[2795,10758]],[[885597,65476],[3513,-16437]],[[889110,49039],[-799,-6226],[-21874,-6061],[-6706,5679],[-15089,109]],[[844642,42540],[-638,2622]],[[844004,45162],[3113,7099],[16446,218]],[[863563,52479],[160,9830],[8302,3932],[4551,-6663],[9021,5898]],[[349433,407110],[-9341,17966],[3353,-328],[10938,17038],[-1517,6936],[-12614,-273]],[[340252,448449],[2315,15509],[29698,17857],[-6386,6935]],[[365879,488750],[1995,7099]],[[367874,495849],[8303,3168],[15408,-15400],[7983,-3058],[-5269,-7591],[16287,-12997],[1277,-24683],[-12055,1201],[-1437,-8628],[-11736,109],[1437,-17038],[-8143,-7263],[-8302,5134],[-16127,16655],[-4311,-5078],[5349,-7536],[-7105,-5734]],[[452259,243611],[479,-2349]],[[452738,241262],[-13173,-15891],[-19958,-546],[-9181,6662],[-11656,-6935],[-559,-6444],[-18840,-1037]],[[379371,217071],[-3353,15017],[-5589,7099]],[[370429,239187],[-2714,14745],[11656,-1202],[-2076,12560],[14210,2785],[-7584,26868]],[[383921,294943],[11576,6007],[4151,9283]],[[399648,310233],[7984,-29325],[6147,4806],[19320,-4969]],[[433099,280745],[11576,-10212],[-5748,-9721],[958,-10594],[12374,-6607]],[[843046,91142],[4869,-22990],[6148,-10485],[9500,-5188]],[[844004,45162],[-27623,-8738],[-12534,5461],[-8382,8792],[2155,9720],[9181,383],[-1357,13488],[-6068,13489],[-1676,10048]],[[797700,97805],[19958,-1475],[10698,6335]],[[828356,102665],[5589,-13762],[9101,2239]],[[843046,91142],[-1278,1366]],[[841768,92508],[7265,-601],[14849,13324],[9261,-2675]],[[873143,102556],[9341,-3823]],[[882484,98733],[-1198,-9120],[-8462,-8027],[12773,-16110]],[[579833,381116],[5110,-15181]],[[584943,365935],[-8622,6716],[-10299,-16328],[-6147,-546],[-2315,-14198],[-10618,2730],[-2395,-16546],[-6387,-2949],[5349,-14581],[-399,-9993],[-13652,-6498],[-5189,4204],[-5908,-8409],[-18202,3768],[-2475,3877]],[[497684,297182],[-8143,15727],[15887,11850],[-7584,16110]],[[497844,340869],[-4151,15891],[10139,2130],[-8543,6225],[5828,5243],[4471,-6226],[5668,9612],[13971,-10922],[13013,-2621],[3353,26594],[15009,-12232],[7823,7536],[5190,-3932],[10218,2949]],[[465192,369211],[-5828,9338],[-12534,3987],[-8702,-19496],[-9500,1584],[-9181,-9174],[-4471,4860],[-9819,-6499],[-17005,7373]],[[388152,361184],[-1756,11194],[-5509,1202],[6148,14963]],[[387035,388543],[-4471,8027],[-35606,-8846],[-4231,14034],[6706,5352]],[[367874,495849],[-1916,10649],[11177,-1038],[6387,22882],[-20757,1583],[1756,11468]],[[364521,541393],[21156,-6335],[4950,8028],[-5828,8792],[1597,8191],[20996,-15836],[160,-7099],[8941,-5407],[21955,1748]],[[438448,533475],[3832,-26103],[-5429,54],[2315,-16273],[-11576,-929],[8862,-10539],[-11656,-30253],[-1677,-23646],[9501,5625],[2554,-10704]],[[435174,420707],[15249,-3604],[9101,-27414],[6546,-12450],[-878,-8028]],[[379371,217071],[-4232,-16492],[-1038,-18513],[-6546,-8355],[-4071,-19605]],[[363484,154106],[-12375,2349],[-2554,9502],[-17404,11795],[-19559,3768],[-25707,-2403],[-14689,13434],[638,4096]],[[271834,196647],[1996,-55],[6068,31728],[24988,5734],[10538,10485]],[[315424,244539],[9420,-819],[12374,6334],[24988,437],[8223,-11304]],[[169966,567114],[-1038,-4533],[7984,-18184],[16126,-383],[-8941,-32437],[26904,5460],[559,-20478],[-27623,8465],[-6546,-8738],[-12774,6608],[-4710,-4369],[-24110,8191],[-5907,-11959],[-9181,1092],[1756,-18348],[-13651,-10485],[-8303,-1311],[-5988,-16437],[-6307,-2021]],[[88216,447247],[-558,437],[-44468,39264],[-16925,24683],[-1277,5352],[-9261,42704],[-6546,6280],[11496,25666]],[[20677,591633],[3752,-6171],[6706,3550],[2315,10703],[13013,-3221],[21236,2075],[5509,-6936],[12693,-3331],[1357,6444],[19959,-9993],[2874,-21571],[7185,-2840],[9101,22554],[3034,-5352],[13811,-1474],[26744,-8956]],[[371627,733726],[-5110,491],[7026,19441],[558,14417]],[[374101,768075],[10139,-655],[-399,-5844],[17165,5570]],[[401006,767146],[8701,-1692],[1118,-11905],[-7903,-1365],[-3833,-12833],[-11655,1911],[-6068,-5024]],[[381366,736238],[-9739,-2512]],[[361887,700469],[10458,3440],[-718,29817]],[[381366,736238],[2475,-16219],[18841,-12123],[2794,-16055],[9900,-4587],[-4072,-22499],[6387,-219],[-10858,-9775],[-8143,3550],[6786,-20424],[7026,1748],[5907,-7427],[-10298,-4205],[16206,-2184],[958,-3823],[30816,-2731],[479,-2785]],[[456570,616480],[958,-5952]],[[457528,610528],[-1517,-27250],[-4950,-1365],[6627,-29325],[-2076,-3987],[-18122,-4368],[958,-10758]],[[364521,541393],[1996,14089]],[[366517,555482],[4551,-928],[-5349,18567],[1996,11304],[-7584,0],[-1677,15673],[-10778,-3222],[5110,19987],[-3673,14744],[4631,12942],[-5668,4533],[2235,21461],[14051,-382],[-11017,13488],[8542,16820]],[[290595,273864],[-6546,-12506],[17084,-6280],[14291,-10539]],[[271834,196647],[-18840,-929],[-6946,6772],[-11736,1201],[-14370,-4314],[-12773,710],[-5668,-5242],[3353,17311],[18282,12287],[-5030,7154],[14211,17147],[11655,2293],[-6626,14308],[798,12724],[5349,14526],[-2954,4969]],[[240539,297564],[26745,0],[9660,-5515],[-2236,-6936],[15887,-11249]],[[231838,521570],[-10778,14198],[4710,3495]],[[225770,539263],[16366,21680],[1756,13325],[35447,-13816],[16366,436],[5508,7100],[3034,-10868],[26265,3168],[-878,-8519],[13093,-2731],[-3593,17311],[27383,-10867]],[[365879,488750],[-25467,8191],[-29459,1966],[1676,8574],[-6546,2457],[559,-14034],[-15408,1747],[-1836,-9283],[-6387,-109],[0,12287],[-6546,0],[159,-14745],[-13971,1911],[5429,7373],[-6546,16601],[-27144,5133],[-2554,4751]],[[426313,972968],[958,-15837],[-8383,-36806],[12135,-601],[-2155,-13762],[-5030,-1310]],[[423838,904652],[-16286,-437],[-4391,-31619],[-11815,1693],[-559,-12396],[-11337,3550],[-558,-5953],[-9181,2567],[6147,-31673],[-7904,-43305]],[[367954,787079],[-16845,3058],[160,7263],[-19639,6280],[-1437,-7427],[-38959,-5843],[-11257,14690],[-2075,22935]],[[277902,828035],[-4152,50514],[-1836,21843],[10858,1366],[27303,12833],[13172,55155],[6387,12614],[-5668,-14253],[878,-14853],[15408,-16328],[23870,18621],[27303,35168],[7824,9284],[27064,-27031]],[[508462,157820],[-18282,1474],[-25467,-7590],[-2076,-11359],[-6626,-10212],[7584,-11468],[-2155,-3932],[-17564,-218],[-12773,-6007]],[[431103,108508],[-4391,4478],[3193,23919],[-2155,8792],[-10219,14963],[-718,16328],[11735,-1147],[-1277,-7427],[11336,5898],[958,7809],[11576,-7263],[13332,-3659],[13253,9174],[6546,-7099],[10379,2676],[13252,-11632],[559,-6498]],[[926073,153178],[-6147,-11795],[5668,-1202],[-958,-10922],[5748,-14416]],[[930384,114843],[-17164,-5953]],[[913220,108890],[-17165,31073]],[[896055,139963],[1757,3659]],[[897812,143622],[13731,10102],[2714,7918]],[[914257,161642],[11816,-8464]],[[897812,143622],[-1278,6880],[-21874,929],[-24030,-7536]],[[850630,143895],[-8383,18512],[-7424,7973]],[[834823,170380],[4949,6116]],[[839772,176496],[13732,437],[4391,10540],[7983,2785],[10299,15399]],[[876177,205657],[8861,-4969],[-5189,-8519],[18601,-13379]],[[898450,178790],[80,-8301],[15727,-8847]],[[913140,373744],[-2794,-10267]],[[910346,363477],[11176,-13051],[-9819,-55],[-80,-23755],[3034,-9884],[22832,-8028],[14929,-1966],[2794,-9720],[160,-32001],[-8223,1147],[1836,-9284],[-7265,-1092],[-1197,-13597]],[[940523,242191],[-4231,-2294]],[[936292,239897],[-32333,-32274],[5029,-4860],[-10538,-23973]],[[876177,205657],[-12614,9011],[-8862,1856],[6387,50787],[-4790,44725],[-1756,34567],[-3912,16874]],[[850630,363477],[2155,0],[22434,-4642],[17563,3878],[1437,3604],[18921,7427]],[[913220,108890],[-4870,-18894]],[[908350,89996],[-6866,4259],[-7265,-491],[-5668,9775],[-6067,-4806]],[[873143,102556],[639,4259],[-16765,13707]],[[857017,120522],[2155,6280]],[[859172,126802],[7904,-1584],[7424,18786],[21555,-4041]],[[908350,89996],[6786,-7318],[-3673,-13980],[-14689,-23154]],[[896774,45544],[-7664,3495]],[[921043,6662],[-10857,5243],[-2156,-9994],[-1437,-1693],[-4550,6499],[-1198,164],[-5428,1529],[-6866,-4369],[-160,0],[-13971,-4041],[-5668,4587],[-8941,983],[-5349,9939],[-7345,25666],[-2475,1365]],[[896774,45544],[11735,4369],[4311,-6990],[-5109,-9229],[5509,-2021],[638,-11850],[11736,-2785],[-4551,-10376]],[[759300,296472],[7265,-37407],[-9820,-14799],[12135,-7536]],[[768880,236730],[-3114,-5516],[2316,-26103],[5827,-10376],[12854,-6771],[2315,-14035],[-5588,-109],[-4631,-16000],[3912,-5024]],[[782771,152796],[-7504,-1147],[-3992,-11195]],[[771275,140454],[-8862,20970],[-17962,4969],[-2236,4751],[-16924,-12068],[-21795,12178]],[[703496,171254],[-4391,25120],[10458,-109],[2156,9010],[8702,-5734],[4950,4205],[-3354,12069],[6866,3385],[-11815,16711]],[[717068,235911],[6466,7863],[-3832,11195],[-12853,4587],[-1916,14799],[1756,15946],[-7185,20697]],[[699504,310998],[9580,0],[18203,11086],[8462,-5680],[14530,1802]],[[381366,327981],[5110,-1693],[-12534,-13761],[-18282,-9830],[718,-4751]],[[356378,297946],[559,-5515],[-19479,5297],[-240,17802],[8223,6390],[10458,24628],[7185,4642],[-8701,9994],[9659,1692],[9660,17967],[13333,7700]],[[388152,361184],[-8781,273],[-2715,-11741],[-10698,-9448],[15408,-12287]],[[959124,203145],[8462,-21570],[-14769,-11850],[-4950,-8683],[-8622,6116],[2156,-9010],[-15328,-4970]],[[936292,239897],[6466,-7973],[10299,4806],[3433,-6608],[-11257,1584],[-1277,-21844],[7664,-9120],[7504,2403]],[[214035,606651],[-11417,-3877],[-16525,2293],[-1278,-16164],[-9500,-655],[-5349,-21134]],[[20677,591633],[-6706,11359],[319,12069],[-12534,6716],[879,12451],[7823,2294],[-10458,11850],[10778,13434],[3911,24519],[11177,273],[479,-13870],[5748,-765],[0,-11359],[11736,-2184],[27702,5679],[59796,22499],[77678,73886],[31694,31073]],[[240699,791557],[5429,-32875],[12853,-19714],[-1836,-20697],[6546,2895],[1996,-8792]],[[265687,712374],[2794,-25721],[639,-26759],[-9341,-15781],[-7903,-3769],[-5509,-10703],[12774,-9010],[80,-5953],[-24988,18076],[-5589,-24683],[-14609,-1420]],[[431103,108508],[-7584,-4969],[-5269,11249],[-5509,-5625],[-5908,6881],[-9181,765],[-8542,9174],[-14609,3440],[-12135,8082],[5828,13707],[-4710,2894]],[[452738,241262],[11336,-5024],[8383,2949],[11735,-26594],[10219,-601]],[[494411,211992],[13971,7044],[8383,-16164],[9101,819],[7744,-16765],[-1837,-17584],[5589,-16382],[-4471,-6062]],[[532891,146898],[-10778,4587],[-13651,6335]],[[771275,140454],[-11416,-6225],[1277,-12014],[-7824,-10540],[-17723,4533],[958,-12287],[-11017,-23482],[-4550,5952],[-9580,-3822],[-8622,-5188],[-11816,3058],[719,5515]],[[691681,85954],[5508,13926],[-4151,12178],[10857,-7318],[3194,9720],[-5669,18840],[6786,10704],[-7344,5188],[4630,6826],[-5988,12833]],[[699504,168851],[3992,2403]],[[497684,297182],[-2954,-7209]],[[494730,289973],[-5428,-8464],[-13093,-3823],[-9181,-8082],[1357,-7372],[-11336,-2949],[-4790,-15672]],[[433099,280745],[-399,10485],[5668,7481],[-5110,6553],[2874,12287],[-7264,11413],[5907,6280],[11337,2840],[-958,6280],[13172,4587]],[[458326,348951],[2794,-7918],[15728,-10867],[878,-5461],[13172,20751],[6946,-4587]],[[950582,80057],[2874,-8628],[1597,-2840],[-3034,-8465],[-5748,6717],[-15727,-7590],[-10618,2402],[-9980,-7317],[14051,-9338],[7105,-5625],[-2474,-27359],[-7585,-5352]],[[930384,114843],[17563,-12779],[3912,-12068],[-1277,-9939]],[[289717,409676],[319,6663],[28022,15290],[-3193,13379],[12933,-5133],[4151,7755],[8303,819]],[[356378,297946],[11177,1584],[16366,-4587]],[[290595,273864],[3194,21953],[14689,3276],[9979,10867],[10938,18294],[-799,37517],[-4071,3222]],[[324525,368993],[-2395,12887],[-12854,5461],[-5748,12396],[-13811,9939]],[[635078,162571],[1837,0]],[[636915,162571],[-1597,-14854],[-6227,-4642],[13651,-5788],[9820,-14308]],[[652562,122979],[-10378,2294],[-719,-16492],[-7105,-8464],[-9900,-10048],[-12693,3549],[-9820,-7645],[-9500,4041],[-5269,13379],[1916,6062],[-26505,-874],[-3353,10376]],[[559236,119157],[1597,7645],[-7265,9338],[12853,3058],[2635,13816],[18202,-13597],[15328,15345],[7744,-3659],[4950,9393],[8542,-4861],[-4870,13653],[4790,1365],[2475,-12560],[8861,4478]],[[859172,126802],[-11736,9283],[3194,7810]],[[214035,606651],[7344,-20479],[10459,-15235],[-9581,-20206],[3513,-11468]],[[231838,521570],[-19001,-3604],[3433,-23919],[-7983,1748],[-1437,-10376],[-6068,382],[1996,-11085]],[[202778,474716],[-1517,-12124],[-17723,-13433],[-1597,-13270],[-20677,-29653],[-10059,1966],[-12613,-3550],[2714,-8519],[-9101,2348],[-6706,-5406],[-319,164],[-9501,8683],[4231,15509],[-13252,3495],[4950,27960],[-23392,-1639]],[[626297,268294],[11815,-14089],[5429,-12779],[-9580,-3386],[958,-10375],[-5509,-4806],[9500,-4259]],[[638910,218600],[1757,-6499],[-9660,-10485],[2155,-8792],[-6466,-19004],[10059,601],[-1677,-11850]],[[559236,119157],[-17883,18075],[-5109,-4969],[-3353,14635]],[[494411,211992],[-14530,14526],[3593,27687],[-6946,2402],[12454,13598],[8223,-7099],[4471,2949],[15089,-7919],[17403,4588],[3274,-6553],[18521,-14090],[-3113,-12341],[7344,327],[799,-8136],[10697,-2075],[399,9829],[15329,22499],[3991,10430],[-6466,6936],[-5269,-7372],[-8702,12833],[-7744,-5461],[-7425,3167],[240,-11468],[-15009,6881],[7824,16546],[-7265,-5843],[-13013,-1147],[9820,-6116],[-2555,-7645],[-17803,7755],[80,14034],[-17803,-6935],[-5589,11194]],[[584943,365935],[7344,-11741],[6706,819],[-4071,-18076],[17563,-7263],[-4949,-11358],[13252,-12287],[3752,-9775]],[[624540,296254],[-18441,-1530],[16046,-24355],[4152,-2075]],[[638910,218600],[1437,4860],[13971,2894],[1198,-7263],[14130,4314],[-6306,13270],[35446,-2894],[4391,2730]],[[703177,236511],[13891,-600]],[[699504,168851],[-22513,5461],[-2714,-10649],[-10219,-16656],[-6466,10212],[-20677,5352]],[[234312,459643],[4152,6007],[-15488,10758],[-20198,-1692]],[[289717,409676],[-8622,-2621],[-7425,8137],[3194,11795],[-6307,4970],[1597,9065],[-26346,17202],[-11496,1419]],[[240539,297564],[-2474,7427],[6706,9884],[-11417,13106]],[[233354,327981],[8223,11141],[8303,0],[479,11959],[6067,-5406],[18123,6225],[-1996,12615],[24748,2020],[958,11523],[12694,4915],[13572,-13980]],[[401006,767146],[798,7810],[25068,-1093],[-1916,8246],[-240,6226],[11576,-1365],[12773,3877],[-11336,3659],[7504,3167]],[[445233,797673],[7744,-5679],[1916,-17694],[11257,-18731],[-7983,-13051],[-3673,-19659],[5509,-546],[2634,-16492],[-8781,5024],[-5828,-32220],[15248,-16437],[-6706,-45708]],[[691681,85954],[-19081,18021],[-8861,18404],[-11177,600]],[[828356,102665],[-5588,14526],[7105,5788]],[[829873,122979],[9420,2622],[5269,-8083]],[[844562,117518],[-6386,-9993],[3592,-15017]],[[552131,621723],[-3513,-9338],[639,-22335],[11736,-1475],[-160,-7317],[11895,-11031],[-11177,-8574],[-1836,-10485],[-6386,3386],[2554,-11796],[-5508,2130],[239,-17693],[16606,327],[3752,-28123],[-18282,-18403],[20038,-11086]],[[572728,469910],[-7983,-34131],[-7984,-11795]],[[556761,423984],[-8143,-21407],[-8861,15564],[-10059,-8683],[-10139,9829],[-4631,-7590],[-6546,3440],[-11097,15618],[-4231,-5351],[6387,-19660],[-3114,-4204],[-8063,7863],[-9101,383],[-5429,-7100],[-13651,16383],[-9261,-1584],[-15648,3222]],[[457528,610528],[37202,-9557],[2156,9939],[-10219,-1966],[-2554,22936],[10617,-1911],[6467,600],[7025,14745],[14690,-3659],[-2076,-14307],[31295,-5625]],[[910346,363477],[24988,492],[878,-7427],[11017,-3168],[14450,-12505],[7903,2840],[10459,-14909],[9340,-218],[-1597,-5789],[12215,2130],[-4710,-6280],[2075,-10376],[-24109,-17802],[-479,-21625],[-15249,-28724],[-6945,5570],[-10059,-3495]],[[265687,712374],[13253,13324],[15807,-26758],[-11417,-8246],[15089,-5679],[878,9283],[7505,1748],[4390,-6663],[-4790,-16492],[5110,-6880],[25307,-2348],[11895,10703],[2555,27195],[10618,-1092]],[[844562,117518],[12455,3004]],[[771754,375764],[29539,-1693],[13571,2567],[32413,-6772],[3353,-6389]],[[839772,176496],[80,4314],[-15567,10485],[-23631,2512],[479,11686],[-6467,219],[-5907,35933],[3193,12014],[-10219,2675],[-4470,-7754],[-5429,3604],[2475,-12833],[-5429,-2621]],[[829873,122979],[2635,12178],[-7185,15946],[2874,11850],[6626,7427]],[[579833,381116],[6786,5898],[-14769,13488],[6866,7154],[-7904,8683],[-14051,7645]],[[572728,469910],[16446,7700],[18521,-983],[10299,-5352],[-1357,-15727],[10698,-6116],[5668,3222],[14849,-2676],[10458,6498],[30736,-12014],[11816,-7863]],[[699504,310998],[-10538,4969],[-12933,-7918],[-4790,5789],[-12055,-1038],[-8781,3440],[-10539,-10594],[8543,-18239],[-10219,4478],[-10618,-4587],[-3034,8956]],[[381366,327981],[14929,546],[3353,-18294]],[[458326,348951],[-3113,12724],[9979,7536]],[[423838,904652],[24269,-10212],[-5428,-6389],[3672,-14144],[-4311,-13707],[-5429,-31837],[5748,-9393],[-2554,-13925],[5428,-7372]],[[374101,768075],[-1037,15345],[-5110,3659]],[[240699,791557],[37203,36478]],[[626297,268294],[9021,8246],[8702,-2676],[6227,9556],[6147,-13270],[3912,3714],[20198,-10430],[6147,-8028],[8862,1584],[-320,-7099],[7984,-13380]],[[797700,97805],[-3273,14362],[2874,18621],[-10458,9175],[-4072,12833]],[[233354,327981],[-11655,4205],[6147,9775],[-7105,4587],[-3353,14417],[12853,-1747],[1916,29707],[15248,-819],[7105,16328],[-1916,22990],[-11017,22281],[-10777,5133],[3512,4805]]],"transform":{"scale":[0.0000039704404934215255,0.0000033303586245735855],"translate":[-102.29641311545828,21.16098216048701]},"objects":{"municipalities":{"type":"GeometryCollection","geometries":[{"arcs":[[0,1,2,3]],"type":"Polygon","properties":{"cvegeo":"24058","nombre":"El Naranjo"}},{"arcs":[[4,5,6,7,8]],"type":"Polygon","properties":{"cvegeo":"24057","nombre":"Matlapa"}},{"arcs":[[9,10,11,12]],"type":"Polygon","properties":{"cvegeo":"24056","nombre":"Villa de Arista"}},{"arcs":[[13,14,15,16,17,18,19]],"type":"Polygon","properties":{"cvegeo":"24055","nombre":"Zaragoza"}},{"arcs":[[20,-8,21,22,23]],"type":"Polygon","properties":{"cvegeo":"24054","nombre":"Xilitla"}},{"arcs":[[24,25,26,27,-9,-21]],"type":"Polygon","properties":{"cvegeo":"24053","nombre":"Axtla de Terrazas"}},{"arcs":[[28,29,30,31]],"type":"Polygon","properties":{"cvegeo":"24052","nombre":"Villa Juárez"}},{"arcs":[[32,33,34,-13,35,36,37,38]],"type":"Polygon","properties":{"cvegeo":"24051","nombre":"Villa Hidalgo"}},{"arcs":[[-16,39,40,41,42]],"type":"Polygon","properties":{"cvegeo":"24050","nombre":"Villa de Reyes"}},{"arcs":[[43,44,45]],"type":"Polygon","properties":{"cvegeo":"24049","nombre":"Villa de Ramos"}},{"arcs":[[46,47,48,49]],"type":"Polygon","properties":{"cvegeo":"24048","nombre":"Villa de la Paz"}},{"arcs":[[50,-50,51,52,53,-37,54,55]],"type":"Polygon","properties":{"cvegeo":"24047","nombre":"Villa de Guadalupe"}},{"arcs":[[56,-42,57,58]],"type":"Polygon","properties":{"cvegeo":"24046","nombre":"Villa de Arriaga"}},{"arcs":[[59,60,-55,-36,-12,61]],"type":"Polygon","properties":{"cvegeo":"24045","nombre":"Venado"}},{"arcs":[[62,63,64,65]],"type":"Polygon","properties":{"cvegeo":"24044","nombre":"Vanegas"}},{"arcs":[[66,67]],"type":"Polygon","properties":{"cvegeo":"24043","nombre":"Tierra Nueva"}},{"arcs":[[68,69,70,71,72,73]],"type":"Polygon","properties":{"cvegeo":"24042","nombre":"Tanquián de Escobedo"}},{"arcs":[[74,75,76,77,78,79,-73]],"type":"Polygon","properties":{"cvegeo":"24041","nombre":"Tanlajás"}},{"arcs":[[80,81,82,83,-79,84,85]],"type":"Polygon","properties":{"cvegeo":"24040","nombre":"Tamuín"}},{"arcs":[[86,87,-27,88,89,90,-71]],"type":"Polygon","properties":{"cvegeo":"24039","nombre":"Tampamolón Corona"}},{"arcs":[[-5,-28,-88,91,92]],"type":"Polygon","properties":{"cvegeo":"24038","nombre":"Tampacán"}},{"arcs":[[93,-6,-93,94]],"type":"Polygon","properties":{"cvegeo":"24037","nombre":"Tamazunchale"}},{"arcs":[[-3,95,96,97,98,99,100,101]],"type":"Polygon","properties":{"cvegeo":"24036","nombre":"Tamasopo"}},{"arcs":[[102,103,-34,104]],"type":"Polygon","properties":{"cvegeo":"24035","nombre":"Soledad de Graciano Sánchez"}},{"arcs":[[105,-74,-80,-84,106]],"type":"Polygon","properties":{"cvegeo":"24034","nombre":"San Vicente Tancuayalab"}},{"arcs":[[107,-46,108,109,110]],"type":"Polygon","properties":{"cvegeo":"24033","nombre":"Santo Domingo"}},{"arcs":[[-68,111,-40,-15,112,113,114]],"type":"Polygon","properties":{"cvegeo":"24032","nombre":"Santa María del Río"}},{"arcs":[[115,116,117,-99]],"type":"Polygon","properties":{"cvegeo":"24031","nombre":"Santa Catarina"}},{"arcs":[[-31,118,119,-20,120,121]],"type":"Polygon","properties":{"cvegeo":"24030","nombre":"San Nicolás Tolentino"}},{"arcs":[[122,-95,-92,-87,-70,123]],"type":"Polygon","properties":{"cvegeo":"24029","nombre":"San Martín Chalchicuautla"}},{"arcs":[[124,-10,-35,-104,125,-17,-43,-57,126,127]],"type":"Polygon","properties":{"cvegeo":"24028","nombre":"San Luis Potosí"}},{"arcs":[[128,129,130,131]],"type":"Polygon","properties":{"cvegeo":"24027","nombre":"San Ciro de Acosta"}},{"arcs":[[-72,-91,132,-75]],"type":"Polygon","properties":{"cvegeo":"24026","nombre":"San Antonio"}},{"arcs":[[133,-60,134,135,-44,-108]],"type":"Polygon","properties":{"cvegeo":"24025","nombre":"Salinas"}},{"arcs":[[136,137,-132,138,-114,139,-119,-30,140,141]],"type":"Polygon","properties":{"cvegeo":"24024","nombre":"Rioverde"}},{"arcs":[[-129,-138,142,143,-100,-118,144]],"type":"Polygon","properties":{"cvegeo":"24023","nombre":"Rayón"}},{"arcs":[[145,-135,-62,-11,-125,146]],"type":"Polygon","properties":{"cvegeo":"24022","nombre":"Moctezuma"}},{"arcs":[[-127,-59,147,148]],"type":"Polygon","properties":{"cvegeo":"24021","nombre":"Mexquitic de Carmona"}},{"arcs":[[-52,-49,149,150]],"type":"Polygon","properties":{"cvegeo":"24020","nombre":"Matehuala"}},{"arcs":[[-117,151,-130,-145]],"type":"Polygon","properties":{"cvegeo":"24019","nombre":"Lagunillas"}},{"arcs":[[-24,152,153,154,-25]],"type":"Polygon","properties":{"cvegeo":"24018","nombre":"Huehuetlán"}},{"arcs":[[155,156,157,-38,-54,158]],"type":"Polygon","properties":{"cvegeo":"24017","nombre":"Guadalcázar"}},{"arcs":[[-82,159]],"type":"Polygon","properties":{"cvegeo":"24016","nombre":"Ebano"}},{"arcs":[[-56,-61,-134,-111,160]],"type":"Polygon","properties":{"cvegeo":"24015","nombre":"Charcas"}},{"arcs":[[-89,-26,-155,161]],"type":"Polygon","properties":{"cvegeo":"24014","nombre":"Coxcatlán"}},{"arcs":[[162,-85,-78,163,-96,-2]],"type":"Polygon","properties":{"cvegeo":"24013","nombre":"Ciudad Valles"}},{"arcs":[[-133,-90,-162,-154,164,-76]],"type":"Polygon","properties":{"cvegeo":"24012","nombre":"Tancanhuitz"}},{"arcs":[[-113,-14,-120,-140]],"type":"Polygon","properties":{"cvegeo":"24011","nombre":"Ciudad Fernández"}},{"arcs":[[-141,-29,165,-157,166,-4,-102,167]],"type":"Polygon","properties":{"cvegeo":"24010","nombre":"Ciudad del Maíz"}},{"arcs":[[-103,168,-18,-126]],"type":"Polygon","properties":{"cvegeo":"24009","nombre":"Cerro de San Pedro"}},{"arcs":[[-122,169,-39,-158,-166,-32]],"type":"Polygon","properties":{"cvegeo":"24008","nombre":"Cerritos"}},{"arcs":[[170,-150,-48,171,-64]],"type":"Polygon","properties":{"cvegeo":"24007","nombre":"Cedral"}},{"arcs":[[-110,172,-65,-172,-47,-51,-161]],"type":"Polygon","properties":{"cvegeo":"24006","nombre":"Catorce"}},{"arcs":[[-143,-137,173]],"type":"Polygon","properties":{"cvegeo":"24005","nombre":"Cárdenas"}},{"arcs":[[-169,-105,-33,-170,-121,-19]],"type":"Polygon","properties":{"cvegeo":"24004","nombre":"Armadillo de los Infante"}},{"arcs":[[-77,-165,-153,-23,174,-97,-164]],"type":"Polygon","properties":{"cvegeo":"24003","nombre":"Aquismón"}},{"arcs":[[-168,-101,-144,-174,-142]],"type":"Polygon","properties":{"cvegeo":"24002","nombre":"Alaquines"}},{"arcs":[[-128,-149,175,-147]],"type":"Polygon","properties":{"cvegeo":"24001","nombre":"Ahualulco del Sonido 13"}}]}}}