{"type":"Topology","arcs":[[[620694,96792],[-15731,7959],[4068,3428]],[[609031,108179],[17630,-5755],[-5967,-5632]],[[642663,128872],[542,245],[-1356,-2755],[-949,-184],[34310,-12795],[26851,3551],[4746,7836]],[[706807,124770],[12883,-1285],[3933,-24061],[5153,-8571],[4204,-4163]],[[732980,86690],[-6916,-7652],[-18037,612],[-25088,-25346],[-4204,0],[-33360,6673],[-4475,15244],[-678,3796]],[[640222,80017],[2305,10775],[13968,918],[7594,12245],[-12340,7224],[-14646,-8571],[-2441,8387],[-13561,-2142],[-3391,10285],[11798,1775],[543,13285],[271,62],[12341,-5388]],[[214266,186788],[37293,-27733],[19257,-1776]],[[270816,157279],[6645,-5265],[-7187,-12734],[13832,918],[8544,-2204]],[[292650,137994],[-9493,-9612],[-16138,4531],[-6374,-8020]],[[260645,124893],[-28614,-23754],[-14103,-4347]],[[217928,96792],[-15867,-2327],[1221,-13101],[-34988,6061],[8543,16101],[-20477,4714],[-407,-11203]],[[155953,97037],[0,-123]],[[155953,96914],[0,-61]],[[155953,96853],[-13154,-735],[-1356,14816],[-10578,14020],[18172,4714],[949,13897],[-19935,10592]],[[130051,154157],[-3661,6061]],[[126390,160218],[8001,10897],[26715,-19591],[13019,10224],[-10035,20877],[-14239,2143],[-4747,8387]],[[145104,193155],[8679,1837]],[[153783,194992],[30649,-7530],[4882,-8265],[15188,10101],[9764,-2510]],[[125305,134627],[-12341,-3673],[-2169,918]],[[110795,131872],[7729,7714]],[[118524,139586],[6781,-4959]],[[625169,771580],[3933,-20509]],[[629102,751071],[-13697,-6857]],[[615405,744214],[-2712,183],[-678,123]],[[612015,744520],[-8680,5326]],[[603335,749846],[14782,26571]],[[618117,776417],[7052,-4837]],[[629780,735520],[271,-1530]],[[630051,733990],[0,-5082]],[[630051,728908],[-8950,-2204]],[[621101,726704],[-3798,6429]],[[617303,733133],[7323,4469]],[[624626,737602],[5154,-2082]],[[133170,199032],[11934,-5877]],[[126390,160218],[-10578,16958]],[[115812,177176],[271,10653],[17087,11203]],[[651613,743051],[-14103,-18245]],[[637510,724806],[-7459,4102]],[[630051,733990],[21562,9061]],[[688364,758111],[-1356,-5571]],[[687008,752540],[-14782,980]],[[672226,753520],[9628,15856]],[[681854,769376],[3798,-429]],[[685652,768947],[2712,-10836]],[[343775,20877],[0,-245]],[[343775,20632],[0,245]],[[343775,20877],[-15324,-5633]],[[328451,15244],[-1221,16530]],[[327230,31774],[8408,-183]],[[335638,31591],[8137,-10714]],[[317873,40223],[-17629,4836],[-3662,14204],[8001,5142],[-12205,6184]],[[292378,70589],[-1627,3918]],[[290751,74507],[15188,11510],[2984,3428]],[[308923,89445],[22511,-734],[22648,-11816],[-6374,-11204],[-22376,-1469],[-25495,-10714],[21291,2571],[-3255,-15856]],[[637510,724806],[-1492,-7101]],[[636018,717705],[-6645,-1531],[-5560,-3306]],[[623813,712868],[-4882,3918]],[[618931,716786],[2170,9918]],[[459587,447777],[5425,-1102],[21698,-9550],[5695,2999]],[[492405,440124],[3119,-10713],[30784,-6490]],[[526308,422921],[-37971,-24856],[-6916,-14632]],[[481421,383433],[-15189,7469]],[[466232,390902],[-14917,5632],[2305,8572]],[[453620,405106],[22105,428],[-5153,8755],[-13833,612],[8951,18550],[-6103,14326]],[[761187,782845],[52482,-13285],[6102,2877],[4069,-13714],[-29970,-26447]],[[793870,732276],[-22919,5816],[-16816,-16469],[0,21428],[15189,4714],[-8408,12795],[271,22285]],[[534852,375474],[6509,10653],[-6645,9305],[3933,13775],[-5289,7592]],[[533360,416799],[6102,2939]],[[539462,419738],[18579,-15734],[20613,673],[11663,7530]],[[590317,412207],[2712,-1592]],[[593029,410615],[-20477,-32325]],[[572552,378290],[-2035,-3489],[-5831,-8082]],[[564686,366719],[0,-734]],[[564686,365985],[-16002,-980]],[[548684,365005],[-13832,10469]],[[175210,285111],[-8408,-7470]],[[166802,277641],[-9086,8082]],[[157716,285723],[2441,10530],[-13561,3245],[9357,20264]],[[155953,319762],[15596,-61],[7594,-9489],[-950,-1347]],[[178193,308865],[4340,-12735],[-7323,-11019]],[[496474,745132],[5560,3857]],[[502034,748989],[5424,-367]],[[507458,748622],[17223,490]],[[524681,749112],[6102,-1470]],[[530783,747642],[-8408,-14693],[14104,-5755]],[[536479,727194],[-7459,-11693]],[[529020,715501],[-135,-368]],[[528885,715133],[-30784,-8571]],[[498101,706562],[-7187,7469],[16409,19163],[-10849,11938]],[[300515,238153],[11120,8571]],[[311635,246724],[12476,17755]],[[324111,264479],[10307,3061],[16951,-6061],[12341,-11143]],[[363710,250336],[9493,-6244],[-22512,-24550]],[[350691,219542],[-10306,-5143]],[[340385,214399],[-5153,-6551]],[[335232,207848],[-5696,858]],[[329536,208706],[-3526,12122],[-19799,4897],[-10985,2265],[5289,10163]],[[401274,754560],[17223,-5081]],[[418497,749479],[-16002,-20693],[-4204,-6122],[-16545,7101]],[[381746,729765],[-2983,3980],[9764,13040],[12747,7775]],[[385815,107812],[-12883,-6673]],[[372932,101139],[-21563,16774]],[[351369,117913],[19528,19653]],[[370897,137566],[13290,7836]],[[384187,145402],[1628,-37590]],[[849199,201236],[35123,23020],[1221,-1163]],[[885543,223093],[1356,-7592],[19121,-18428],[9629,4531]],[[915649,201604],[-16138,-17999],[-10985,-6000],[-8408,4653],[-18307,-6429],[-5289,-11142],[-30784,5510],[-9086,-6857]],[[816652,163340],[-4746,-4347]],[[811906,158993],[-7459,9122],[-31190,-4469]],[[773257,163646],[-16952,15367]],[[756305,179013],[-7052,12734]],[[749253,191747],[24410,11142]],[[773663,202889],[6103,-4959],[17087,3184],[6645,-9061],[13561,3306],[14782,5020],[9764,-9060],[7594,9917]],[[247762,42121],[-15731,1102],[-2576,-6245],[-23597,-612]],[[205858,36366],[1492,8693],[-14917,-1653],[-1899,11082],[16952,-1225],[10984,8510]],[[218470,61773],[23190,-612]],[[241660,61161],[6102,-19040]],[[677922,415636],[8814,-6184]],[[686736,409452],[-7865,-7346]],[[678871,402106],[-4746,-429],[-33632,17510]],[[640493,419187],[6916,13836]],[[647409,433023],[3933,-6367],[26580,-11020]],[[757390,150239],[-12612,3734]],[[744778,153973],[-813,12918]],[[743965,166891],[542,10591],[11798,1531]],[[773257,163646],[-15867,-13407]],[[553024,745683],[13018,-4041]],[[566042,741642],[-1220,-3183]],[[564822,738459],[-9222,-6796]],[[555600,731663],[-19121,-4469]],[[530783,747642],[4340,-428],[17901,-1531]],[[466232,390902],[-15595,-8387],[-53024,-2817]],[[397613,379698],[5831,20265],[18850,61],[12612,21856],[8815,9000]],[[443721,430880],[10442,-14816],[-543,-10958]],[[519934,630341],[-41226,-8938],[-8272,-3123],[-18036,8204]],[[452400,626484],[12069,5326],[-7594,15245],[14239,11571],[-1491,7530]],[[469623,666156],[13154,-5326],[11120,5999]],[[493897,666829],[11256,-16101],[16544,-9734],[-1763,-10653]],[[699348,667441],[4882,796]],[[704230,668237],[9764,-3734],[-12883,-11632],[-3661,-14143],[-11392,-4408]],[[686058,634320],[-2034,27612]],[[684024,661932],[15324,5509]],[[600081,143443],[-36887,-5388],[-14510,3429]],[[548684,141484],[1085,4041],[271,5632]],[[550040,151157],[2712,17571],[-7594,15183],[13019,-5694],[8272,4041],[-4611,18305]],[[561838,200563],[21563,2510],[25088,-2755],[11662,3429]],[[620151,203747],[11798,244],[-15730,-14632],[17358,-27427],[-814,-5816]],[[632763,156116],[-3933,1286],[-18578,-5817],[-13833,184],[3662,-8326]],[[237863,328639],[-12884,15122]],[[224979,343761],[-8950,9612],[2034,9306],[-13290,8938],[6510,10347]],[[211283,381964],[11527,-6306],[26986,-3184],[7052,-12673],[26038,5878]],[[282886,365679],[17222,-8020]],[[300108,357659],[5153,-2143],[-1898,-9184],[11934,-5203],[-678,-8816]],[[314619,332313],[6102,-3735]],[[320721,328578],[-10035,-9857],[-15324,-1836]],[[295362,316885],[-9764,16101],[-24953,-4653],[-135,-12305],[-10307,13040],[-12340,-429]],[[487116,318599],[10985,11387]],[[498101,329986],[2848,-3000]],[[500949,326986],[1085,-20693],[-5967,-4224]],[[496067,302069],[-4204,245]],[[491863,302314],[-4747,16285]],[[216843,234480],[11391,1837],[6374,-9367],[-13426,-4408]],[[221182,222542],[-4339,11938]],[[158665,329619],[1899,3551],[814,857],[7187,7346]],[[168565,341373],[12476,1470],[10171,-15244],[19121,-2388],[13697,6428],[949,12122]],[[237863,328639],[3254,-6367],[-31190,-6061],[-4069,-22529],[-11662,6918]],[[194196,300600],[-7866,5571],[-8137,2694]],[[155953,319762],[2712,9857]],[[768917,391331],[-6916,-9673],[10035,-6184],[2712,-12550],[3391,-8449],[-21834,-19591]],[[756305,334884],[-12747,1775],[-13019,11388]],[[730539,348047],[-542,24672],[24138,6367],[14782,12245]],[[290751,74507],[-7865,-2510],[-19257,21979],[6509,23937],[-9493,6980]],[[292650,137994],[10848,-6428]],[[303498,131566],[12477,-17938]],[[315975,113628],[-13426,-8571],[6374,-15612]],[[724843,730806],[136,-14081]],[[724979,716725],[-10578,1286]],[[714401,718011],[-8272,14265]],[[706129,732276],[-12612,6795],[-5153,12061]],[[688364,751132],[0,6979]],[[685652,768947],[34716,-3428]],[[720368,765519],[5425,-10959],[-950,-23754]],[[286547,413248],[949,-6061]],[[287496,407187],[-11662,-4408]],[[275834,402779],[-13290,6551]],[[262544,409330],[-23461,3061],[-28885,17020]],[[210198,429411],[50854,-6918]],[[261052,422493],[4068,306],[14646,-1715]],[[279766,421084],[6781,-7836]],[[573501,723888],[-5153,-1286]],[[568348,722602],[-12748,-1897],[0,10958]],[[564822,738459],[5424,-11081]],[[570246,727378],[3255,-3490]],[[629102,751071],[4068,-5878]],[[633170,745193],[-3390,-9673]],[[624626,737602],[-9221,6612]],[[572009,746479],[6374,-6428]],[[578383,740051],[-8137,-12673]],[[566042,741642],[5967,4837]],[[363710,250336],[16273,9857]],[[379983,260193],[14782,-8755]],[[394765,251438],[14646,-9979],[9357,919]],[[418768,242378],[-12612,-15979],[-20341,-5510],[-10036,6795],[-15731,-11142],[-9357,3000]],[[88147,76221],[272,12245],[-10985,12918]],[[77434,101384],[14511,11999],[1898,19469],[16952,-980]],[[125305,134627],[3255,8387]],[[128560,143014],[1491,11143]],[[155953,96853],[0,61]],[[155953,97037],[6645,-4776],[-12612,-8754]],[[149986,83507],[-38785,2938],[-23054,-10224]],[[144697,270540],[-5560,11571],[10714,11877],[-16138,1224],[2577,5204],[8407,16163],[13968,13040]],[[157716,285723],[-13019,-15183]],[[332926,440369],[10849,-4408]],[[343775,435961],[271,-12183],[-14646,-8816]],[[329400,414962],[-5289,2633]],[[324111,417595],[-6509,9734]],[[317602,427329],[2305,8938]],[[319907,436267],[13019,4102]],[[873202,109097],[-7323,-11203],[-19935,-2510],[-19256,2938],[-14511,14449]],[[812177,112771],[-16816,29631]],[[795361,142402],[16545,16591]],[[816652,163340],[8815,-8326],[10849,2081],[20477,5449],[-1491,-14387]],[[855302,148157],[-14104,-17387],[9493,-5204],[2441,-9367],[21155,2755],[-1085,-9857]],[[922158,125566],[-10985,-7469],[-271,-184],[-1763,1225],[-15324,4347],[-13697,-9061],[-6916,-5327]],[[855302,148157],[18714,-9673],[17223,14816],[9086,-3245],[32004,23448]],[[932329,173503],[16544,-17816],[-3525,-10775],[-13562,2633],[-10306,-12061],[678,-9918]],[[554922,205644],[6509,-4652],[407,-429]],[[550040,151157],[-17494,21489],[-15866,-8632]],[[516680,164014],[-16002,4040],[11798,22775]],[[512476,190829],[28885,1775],[13561,13040]],[[540683,355087],[6238,-8142]],[[546921,346945],[-22511,1530]],[[524410,348475],[-7188,3857]],[[517222,352332],[0,61],[949,2817],[-135,0],[6374,14019]],[[524410,369229],[678,-8265],[15595,-5877]],[[531597,692114],[18172,12857]],[[549769,704971],[8272,-4653]],[[558041,700318],[4882,-16347]],[[562923,683971],[-29427,-12183],[-5696,7592],[3797,12734]],[[423921,348475],[-6916,3735],[-1220,306],[-543,0]],[[415242,352516],[-16951,12673],[-678,14509]],[[481421,383433],[-10985,-5632]],[[470436,377801],[678,-17755],[-32546,-10714],[-14647,-857]],[[343775,435961],[8679,-1163],[7594,-6489],[0,-62]],[[360048,428247],[-8543,-17999],[-7459,-2143]],[[344046,408105],[-9086,2510],[-5560,4347]],[[340385,214399],[2576,-11265],[16274,9245],[25495,-2633],[24139,6857],[14374,-4959]],[[423243,211644],[-9628,-979],[949,-21489],[-28071,-3857],[1491,-19775]],[[387984,165544],[-21833,10714],[-35395,6857],[10036,4959],[-5560,19774]],[[651613,743051],[4611,8326],[16002,2143]],[[687008,752540],[1356,-1408]],[[706129,732276],[-17358,-21000],[-30513,-6673]],[[658258,704603],[-17765,-3000]],[[640493,701603],[-4475,16102]],[[647274,540161],[-10714,13408],[-19392,-1164]],[[617168,552405],[-2170,18673],[-18850,9857],[-9222,3857]],[[586926,584792],[-813,6245]],[[586113,591037],[11120,10775],[18579,-4347],[11527,16224]],[[627339,613689],[542,-17326],[20749,14877],[20613,6857]],[[669243,618097],[3254,-16285],[8137,-4286]],[[680634,597526],[-5967,-10346],[-5696,-30428],[-14781,3367],[-10985,-11142],[4069,-8816]],[[769731,392004],[-272,-184],[-542,-489]],[[730539,348047],[-12883,1285],[-8679,-9918],[-15596,2388]],[[693381,341802],[-11527,-3673],[-15324,6428],[-14374,25591]],[[652156,370148],[-4747,10652],[-271,-551],[3933,1041]],[[651071,381290],[27800,20816]],[[686736,409452],[17901,-8632],[21427,245],[10171,-4714],[33496,-4347]],[[734607,286213],[2035,-10163]],[[736642,276050],[-14511,-8327],[-13154,-9428],[20206,-7408],[-16952,-11570]],[[712231,239317],[-11527,9305],[-16273,-3673],[-136,0]],[[684295,244949],[0,12857]],[[684295,257806],[12341,3673],[678,-612],[9086,-123],[10713,25224],[17494,245]],[[251152,462042],[15460,-1592]],[[266612,460450],[1085,-10652],[-26037,-11204],[-33225,-2633],[-3933,3674]],[[204502,439635],[3255,12489]],[[207757,452124],[14917,-1469],[28478,11387]],[[447653,745255],[10714,5571],[-12341,3428],[16409,12428]],[[462435,766682],[23461,-2387],[271,-8571],[15867,-6735]],[[496474,745132],[-41904,-15367],[-6917,15490]],[[887441,478021],[2441,-1898],[-6644,-14755],[-11934,-6122],[-11527,-6857],[7865,-21366],[-6509,-673],[-9493,8632],[-29428,1959],[0,122]],[[822212,437063],[-1220,6184],[2712,918],[3797,10224],[18172,9367],[35802,5388],[5966,8877]],[[153783,194992],[-542,18122],[-2034,29080]],[[151207,242194],[6780,9979],[26309,-2571],[10171,-3000]],[[194467,246602],[3390,-2755],[18715,-5265]],[[216572,238582],[271,-4102]],[[221182,222542],[136,-184],[1492,-2081],[8814,-24489],[-17358,-9000]],[[454163,266254],[-7188,-5020]],[[446975,261234],[-30105,-5020],[-9222,2938]],[[407648,259152],[21698,10102],[24817,-3000]],[[438974,617301],[-8814,9856],[-16952,-19407],[-6238,5633],[-19121,-6245],[-33767,2143],[-7188,14448],[25495,7714],[543,8020],[-17359,3918],[-13832,22346],[-6916,1225],[-13426,2449],[19257,13836],[814,6979],[22240,17632],[21020,1041]],[[384730,708889],[6373,-7163],[12206,6857],[17629,-6123],[12205,-17876],[13019,-1164],[-271,-8632],[16137,-4102],[7595,-4530]],[[452400,626484],[-10442,-9245],[-2984,62]],[[713723,615709],[-33089,-18183]],[[669243,618097],[16815,16223]],[[704230,668237],[136,3857]],[[704366,672094],[8815,3551]],[[713181,675645],[-3391,-5693],[16003,-4592],[-4882,-12918],[-2984,-10102]],[[717927,642340],[-7594,-22101],[3390,-4530]],[[536072,26754],[-2576,-10285],[-25767,1102],[-10171,-2939],[-14374,5388],[813,11999]],[[483997,32019],[-135,13102],[31326,8754],[8272,-2326]],[[523460,51549],[6916,-15612]],[[530376,35937],[136,-3489],[5560,-5694]],[[292378,70589],[-24681,-3429],[-7187,7837],[-16545,-6245]],[[243965,68752],[-4882,18244],[-21155,9796]],[[374559,817374],[-678,-12061]],[[373881,805313],[-28885,-14387],[-10578,15979],[12747,12979],[27394,-2510]],[[791700,490571],[6374,-4714],[22240,3796],[407,0]],[[820721,489653],[-4069,-9918],[8137,-5265],[-11120,-6428],[-5696,-18673],[-16680,-2816]],[[791293,446553],[-14510,-5571],[-11256,2999]],[[765527,443981],[12612,28163],[271,19897],[13290,-1470]],[[351369,117913],[-13561,-12673],[-21833,8388]],[[303498,131566],[20478,3490],[11798,-2511],[35123,5021]],[[261052,422493],[-4204,8203],[16409,980],[6509,-10592]],[[885543,223093],[18443,8571],[11663,-6429],[11255,4653],[14240,-7652],[10170,-10959]],[[951314,211277],[-8543,-3490]],[[942771,207787],[-24546,429],[-2576,-6612]],[[278410,264969],[14782,2265]],[[293192,267234],[3526,-2510]],[[296718,264724],[4882,-3674]],[[301600,261050],[4068,-3979],[5967,-10347]],[[300515,238153],[-8408,-2816],[-8001,12857],[-5696,16775]],[[756305,334884],[-11798,-16040],[-136,-429]],[[744371,318415],[-23054,429]],[[721317,318844],[-6102,14816],[-20613,2142],[-1221,6000]],[[493083,944654],[6917,10469],[-10714,4531],[11663,27305],[6780,12367],[17359,673],[6645,-8755],[21562,5694],[9628,-4224],[15731,-5021],[-2983,-7714],[-3391,-11938],[-10442,-3061],[407,-10346],[1085,-19653],[19121,-4591],[1492,-18612]],[[583943,911778],[-14510,1714],[-2984,7531],[-17358,-6061]],[[549091,914962],[-3119,6061],[-32140,-1102],[-10442,24488],[-10307,245]],[[618524,384412],[-9357,-12366],[-5832,7040],[-15730,-4224],[-15053,3428]],[[593029,410615],[7865,-1653]],[[600894,408962],[20342,-14999]],[[621236,393963],[-2712,-9551]],[[410225,39366],[-9629,-1592],[-10035,-3428]],[[390561,34346],[-21833,2632],[10577,13408],[-12340,9489]],[[366965,59875],[-543,17877]],[[366422,77752],[15053,1959],[3933,9795],[19528,-3918],[6645,-8142]],[[411581,77446],[271,-14387],[-1627,-23693]],[[729590,508387],[9764,5571],[24003,-1714]],[[763357,512244],[-27122,-3612],[24139,-4347],[-2984,-14571],[-15595,-551],[6238,-12550],[15053,-11632],[-4475,-4837],[-14375,9612],[-16138,1408],[-6645,-10469]],[[721453,460695],[-9222,10898],[-8407,-2572]],[[703824,469021],[-18172,5265],[-2984,22775]],[[682668,497061],[20613,13897],[16816,-2571],[9493,0]],[[566314,767539],[7458,8143],[12070,-6490],[-543,-8571]],[[585299,760621],[-13290,-14142]],[[553024,745683],[13290,21856]],[[175210,285111],[19257,428],[-271,15061]],[[295362,316885],[-7052,-5327]],[[288310,311558],[-136,-61]],[[288174,311497],[0,61],[136,0]],[[288310,311558],[-7323,4470],[-12069,-9735],[-814,-306],[-543,-61],[-542,0],[-23461,-16101]],[[243558,289825],[-6645,-4592],[-17087,11755],[-11798,-9000],[-678,-14081]],[[207350,273907],[-16409,-8755],[-3390,9428],[-16952,-8326],[-3797,11387]],[[473826,286702],[543,-1163],[1356,-735],[-15324,-20876],[-6238,2326]],[[407648,259152],[-12883,-7714]],[[379983,260193],[3255,11387]],[[383238,271580],[14239,9796],[27936,306],[-11120,11387]],[[414293,293069],[8544,4041]],[[422837,297110],[31190,-6183],[271,-857],[18986,-1837]],[[473284,288233],[542,-1531]],[[419853,800538],[14239,16958]],[[434092,817496],[4611,2388]],[[438703,819884],[11527,-4714],[-7323,-8204],[4611,-8754]],[[447518,798212],[-4882,-11633],[31190,6000]],[[473826,792579],[1628,-1898]],[[475454,790681],[-13019,-23999]],[[447653,745255],[-9628,-8082],[-17494,-183],[-2034,12489]],[[401274,754560],[12883,12306],[-16273,1041],[2712,9979]],[[400596,777886],[13019,8510],[6238,14142]],[[183889,433451],[-1220,3429],[-543,1224]],[[182126,438104],[22376,1531]],[[266612,460450],[15731,-1224],[407,-8633],[15460,7347]],[[298210,457940],[16273,-8816],[-3933,-4714]],[[310550,444410],[-7730,-6000],[-6916,-7775]],[[295904,430635],[-3526,-8877]],[[292378,421758],[-5831,-8510]],[[210198,429411],[-26309,4040]],[[729319,709256],[271,-19836],[-16409,-13775]],[[704366,672094],[-10171,-122]],[[694195,671972],[-5424,5143],[7730,15672],[13832,8327]],[[710333,701114],[407,183],[3661,16714]],[[724979,716725],[4340,-7469]],[[793870,732276],[1356,-9000],[-23054,-12673],[2305,-14877],[-19799,-18795]],[[754678,676931],[-5831,-1714]],[[748847,675217],[-16545,5999],[9628,12428],[-6916,17632],[-5695,-2020]],[[720368,765519],[16002,2388],[2170,245],[10307,17815]],[[748847,785967],[12340,-3122]],[[612015,744520],[-11799,-13102],[2035,-10101]],[[602251,721317],[-28750,2571]],[[578383,740051],[13832,-3980],[4611,9184],[6509,4591]],[[581095,717460],[2848,-612],[18443,-490]],[[602386,716358],[-13968,-17142],[1899,-9490],[-19257,-7591]],[[571060,682135],[-8137,1836]],[[558041,700318],[6510,-2204],[16544,19346]],[[500949,326986],[5967,2082]],[[506916,329068],[949,-3000]],[[507865,326068],[-4340,-9061],[13968,-7836]],[[517493,309171],[11799,-429],[5017,-17387]],[[534309,291355],[-8136,-2387]],[[526173,288968],[-6645,6979],[-14646,-1531],[-8815,7653]],[[618931,716786],[-8137,-1591]],[[610794,715195],[-2034,3979]],[[608760,719174],[8543,13959]],[[205858,36366],[-25630,-13591],[-18444,9611],[-54380,15490],[32954,10775],[-32004,8326],[-24410,-2572],[4203,11816]],[[149986,83507],[8273,-14081],[14781,-9306],[23461,-2020],[21969,3673]],[[512476,190829],[-12476,7836],[11526,18183],[10578,6857]],[[522104,223705],[12341,1714],[5695,-8571],[12206,6857],[2576,-18061]],[[544073,549589],[-29021,-14203],[5832,8877],[-17630,7285],[8544,12857],[-5560,10040],[-30377,10775],[-14918,8388],[-2169,183],[-20885,3490],[1085,20020]],[[519934,630341],[16138,-11755],[2848,-61],[9900,1776]],[[548820,620301],[9221,-16224],[5696,-796],[2848,-6428],[19528,-5816]],[[586926,584792],[-6238,-2571],[-2983,-18918],[-2441,-612],[0,-61]],[[575264,562630],[-1899,-2266],[-542,-245],[-12070,4286],[-13561,-3796],[-3119,-11020]],[[608760,719174],[-6509,2143]],[[216572,238582],[14103,-735],[24681,32264]],[[255356,270111],[7052,5143],[16002,-10285]],[[329536,208706],[-27394,-6429],[-25088,-20815],[5560,-6551],[-13425,-3734],[1627,-13898]],[[569975,870576],[-6374,-10163]],[[563601,860413],[-14510,3918],[-27122,-13101],[-16816,2571]],[[505153,853801],[-5018,10959],[-21562,1530],[-18850,-5999],[2577,9183],[-11663,6122]],[[450637,875596],[10306,9551]],[[460943,885147],[12612,6367],[14782,-8510],[21969,-796],[16816,7224],[8815,-5571]],[[535937,883861],[8679,-8265],[10849,4286],[135,61],[136,0],[14239,-9367]],[[0,157157],[34445,29386],[19664,674]],[[54109,187217],[9628,-6857],[20071,4959],[12612,4898],[10849,-4776],[-4882,-14081],[13425,5816]],[[128560,143014],[-10036,-3428]],[[77434,101384],[-30784,7285],[-18578,551],[4746,19836],[-14510,-245],[-3662,8020],[-9628,-6734],[-5018,27060]],[[559804,812476],[9086,-11938],[-2305,-17142],[35394,-8143]],[[601979,775253],[-1898,-12305],[-14782,-2327]],[[566314,767539],[-18986,-122]],[[547328,767417],[136,6918],[-19393,5632]],[[528071,779967],[-13290,1715],[-949,15366]],[[513832,797048],[271,8633],[14239,3244],[20071,-3061],[11391,6612]],[[295904,430635],[21698,-3306]],[[324111,417595],[-26308,-980],[-5425,5143]],[[447518,798212],[23189,-919],[3933,-1653]],[[474640,795640],[-814,-3061]],[[522104,223705],[1628,22040]],[[523732,245745],[10984,-5020],[12476,11142]],[[547192,251867],[11527,-3428]],[[558719,248439],[4204,-9000],[25360,-4959],[8001,3612],[13832,-23387]],[[610116,214705],[1356,-245]],[[611472,214460],[8679,-10713]],[[763357,512244],[6374,-1714],[24139,-7714],[-2170,-12245]],[[765527,443981],[-15731,6184],[-1763,-6857],[-22240,6857],[-4340,10530]],[[599674,504714],[-16952,9428],[-13561,13285],[-1356,61],[-6916,8388],[-17901,4959],[1085,8754]],[[575264,562630],[11662,-1041],[7323,-1714],[22919,-7470]],[[647274,540161],[5966,-5387],[-16815,-6674],[-15324,-12183]],[[621101,515917],[-19664,9000],[-1763,-20203]],[[590317,412207],[-10442,7286],[9899,9489],[-8543,14326],[-4747,-8143],[-12069,9061]],[[564415,444226],[8543,8327],[17901,-5878]],[[590859,446675],[11527,-5326],[-9357,-7959],[10306,-9918],[-2441,-14510]],[[495117,354781],[136,61],[15595,-4224]],[[510848,350618],[-8543,-6918]],[[502305,343700],[-7188,11081]],[[523732,245745],[-16816,5877],[-18037,-1041]],[[488879,250581],[8137,20142],[-2712,9490],[-16545,8571]],[[477759,288784],[14104,13530]],[[526173,288968],[-7188,-20571],[28207,-16530]],[[744371,318415],[-11662,-6918],[9628,-9183],[-7730,-16101]],[[684295,257806],[-17900,10407]],[[666395,268213],[8136,12306],[-8272,5571]],[[666259,286090],[1628,23509],[16951,-8142],[271,8387],[19393,6000],[16815,3000]],[[425956,820558],[8136,-3062]],[[400596,777886],[-7730,14877],[407,-123]],[[393273,792640],[18172,18734],[-271,6796],[14782,2388]],[[640493,701603],[-15324,-8326]],[[625169,693277],[-1356,19591]],[[275834,402779],[-950,-9489]],[[274884,393290],[-22918,9734]],[[251966,403024],[10578,6306]],[[736642,276050],[17493,-3857],[12612,-13898],[0,-61]],[[766747,258234],[-2034,-12244]],[[764713,245990],[-14510,-7959],[-12477,5143]],[[737726,243174],[-9492,-184],[-26309,-12306],[10306,8633]],[[492405,440124],[27394,16714],[-5967,10469],[-2306,5632],[3798,4959],[9899,613]],[[525223,478511],[4882,-4776]],[[530105,473735],[7594,-4591]],[[537699,469144],[8137,-9857]],[[545836,459287],[-3390,-1592]],[[542446,457695],[21969,-13469]],[[564415,444226],[-27936,-12060],[2983,-12428]],[[533360,416799],[-7052,6122]],[[317602,384535],[5153,-2816],[8137,-3735],[4204,-4408]],[[335096,373576],[2441,-20448],[-4068,-19101]],[[333469,334027],[-18850,-1714]],[[300108,357659],[-678,16346],[5153,5387]],[[304583,379392],[13019,5143]],[[601979,775253],[10036,4653],[5695,-2755],[407,-734]],[[607404,485000],[6374,16469],[-14104,3245]],[[621101,515917],[3661,-4285],[18308,11203],[7187,-11877],[11120,245],[17494,-15489]],[[678871,495714],[-33225,-8571],[10307,-14265],[-1628,-13775]],[[654325,459103],[-34445,490],[-14104,6428]],[[605776,466021],[10985,16347],[-9357,2632]],[[407784,837700],[12069,-4898],[6103,-12244]],[[393273,792640],[-19392,12673]],[[374559,817374],[3933,14326],[23460,184],[5832,5816]],[[666259,286090],[-7052,9489],[-11120,-1040],[-19935,7346]],[[628152,301885],[-17900,9245],[-6917,13163]],[[603335,324293],[5561,8203],[-11527,13408]],[[597369,345904],[41090,1286],[4611,20142],[9086,2816]],[[462435,892493],[1763,7898],[30648,15489],[6103,12367],[-7866,16407]],[[549091,914962],[271,-16285],[-18579,-5633],[5154,-9183]],[[460943,885147],[1492,7346]],[[483997,32019],[-13968,3245]],[[470029,35264],[-2712,18428],[-13697,11448],[2035,8571]],[[455655,73711],[17222,8081],[-5424,6368]],[[467453,88160],[4475,5693],[136,0],[949,-61],[5831,-7469],[5831,11571],[14646,2326],[15053,-5265]],[[514374,94955],[1356,-15244],[21427,-11693],[-11256,-11816],[-2441,-4653]],[[327230,31774],[-9357,8449]],[[372932,101139],[-8680,-6857],[2170,-16530]],[[366965,59875],[-4611,-4041],[-20613,4653],[-13968,-2081],[8679,-22346],[-814,-4469]],[[415242,352516],[-3797,-980],[-4339,429],[0,-61],[-1628,-2388],[-1085,0],[-1084,-306],[-272,-123],[-271,123],[0,61],[-678,2265],[-271,0],[-1356,857],[-272,123],[-1084,428],[-136,0],[0,-1469],[-1221,857],[-406,61],[-814,-489],[0,61],[-136,-61],[-1220,-490],[-407,122],[-136,0],[-271,-306],[-678,0],[136,-857],[-407,-61],[-1763,-8755],[271,-12367]],[[391917,329190],[-3255,0],[-21291,-612]],[[367371,328578],[-24410,2878],[-406,-368],[-9086,2939]],[[335096,373576],[14375,12000],[-10714,16346]],[[338757,401922],[5289,6183]],[[360048,428247],[15053,-306],[9900,-10775],[19935,10224],[8137,9428],[24952,15735],[4475,7040]],[[442500,459593],[1221,-28713]],[[618524,384412],[25630,3123],[6917,-6245]],[[597369,345904],[-32683,20815]],[[822212,437063],[-21562,2633]],[[800650,439696],[-9357,6857]],[[820721,489653],[21562,-5326],[23189,4836],[11934,-8693],[10035,-2449]],[[548684,365005],[-8001,-9918]],[[524410,369229],[-13290,11571],[5153,6184],[18579,-11510]],[[317602,384535],[-9357,8326]],[[308245,392861],[-5425,3245]],[[302820,396106],[35937,5816]],[[749253,191747],[-678,30917],[20206,9061]],[[768781,231725],[8408,-9918],[8815,3918],[2441,-21305],[-14782,-1531]],[[320721,328578],[2306,-1530],[26715,-7163],[-5560,-7163],[-18850,61],[-3933,-29387]],[[321399,283396],[-25359,-8387],[-4340,3000]],[[291700,278009],[-3526,33488]],[[255628,469940],[-4476,-7898]],[[207757,452124],[5289,8816],[18985,5081],[3933,2572],[19664,1347]],[[524681,749112],[22647,18305]],[[700569,174115],[26308,-8571],[17088,1347]],[[744778,153973],[-17494,-9244],[-5017,-11571],[-15460,-8204]],[[706807,124954],[-7459,18244],[7595,14204],[-6374,16713]],[[304583,379392],[-6645,1286]],[[297938,380678],[10307,12183]],[[287496,407187],[4204,-16652],[11120,5571]],[[297938,380678],[-15595,-1714]],[[282343,378964],[-8408,857],[949,13469]],[[520206,108669],[4610,-5816],[-10442,-7898]],[[467453,88160],[-10171,3122],[10442,28652]],[[467724,119934],[9628,5265],[16952,16101]],[[494304,141300],[16002,-18917],[-1899,-11143],[11799,-2571]],[[525223,478511],[7594,5816],[21156,-7041],[21969,7163],[12341,-6367],[19121,6918]],[[605776,466021],[-14917,-19346]],[[542446,457695],[3390,1592]],[[537699,469144],[-7594,4591]],[[812177,112771],[-19935,-12489],[-9899,3183],[-30649,-5755],[-18714,-11020]],[[706807,124770],[0,184]],[[757390,150239],[18579,5571],[8815,-10408],[10577,-3000]],[[621236,393963],[12748,8816],[6509,16408]],[[422837,297110],[-3391,3857]],[[419446,300967],[2034,3612]],[[421480,304579],[51804,-16346]],[[267019,492041],[14510,-3857],[-1084,-8143],[13968,-12489],[3797,-9612]],[[255628,469940],[-1492,4714],[-7052,2938],[10035,10469],[3797,2878],[6103,1102]],[[247762,512917],[13561,-14815]],[[261323,498102],[-8814,-10531],[-10985,-1653]],[[241524,485918],[-18443,5266],[6374,14754],[18036,7163]],[[247491,513101],[271,-184]],[[530376,35937],[15189,10653],[-3390,10653],[11662,10897],[31191,-15612],[-30513,-8265],[814,-6918],[-19257,-10591]],[[317602,438594],[5018,7347],[2441,-551],[7865,-5021]],[[319907,436267],[-2305,2327]],[[703824,469021],[-6239,-11938],[-2847,-9857],[-17766,-22713],[950,-8877]],[[647409,433023],[-8137,9428],[19393,10959],[-4340,5693]],[[678871,495714],[3797,1347]],[[187551,389310],[1763,14877],[-6645,3735],[5153,15856],[-3933,9673]],[[251966,403024],[-10035,-12183],[-12883,-1408],[-21834,5387],[2984,-6000]],[[210198,388820],[-22647,490]],[[385815,107812],[16137,-2572],[29157,-9734],[-2170,-4102]],[[428939,91404],[-15324,-11509],[-2034,-2449]],[[470029,35264],[-11662,1408],[-15324,5816],[-8951,-3367],[-23867,245]],[[428939,91404],[11391,919],[-4339,-17877],[19664,-735]],[[182126,438104],[-1492,24060],[6917,6429]],[[187551,468593],[13832,-7837],[8679,7898],[29563,10652],[1899,6612]],[[261323,498102],[5696,-6061]],[[564686,365985],[-3661,-11510],[-14104,-7714]],[[546921,346761],[0,184]],[[999999,178401],[-10578,-919],[-13290,-18366],[-16137,-6000],[-14104,-26693],[-4746,245],[-16409,-1469],[-2577,367]],[[932329,173503],[13561,12612],[-3119,21672]],[[951314,211277],[19393,6245],[6645,-27734],[22647,-11387]],[[446975,261234],[-8679,-12000],[-19528,-6856]],[[474233,156300],[-16951,1530],[-10578,-9122],[-6509,14265],[-13697,-1959],[-31597,2571]],[[394901,163585],[-6917,1959]],[[423243,211644],[13968,1041]],[[437211,212685],[21020,-6551],[2441,-8754],[16680,-16653],[-7051,-18795],[3932,-5632]],[[282886,365679],[-543,13285]],[[674667,234296],[-1220,10714],[10848,-61]],[[737726,243174],[-6238,-12429],[-15731,-4591],[0,-11204],[-13561,6735],[-3390,-10653],[-9086,13408],[-15053,9856]],[[383238,271580],[-13019,3368],[-7865,12979],[12340,1714],[-19256,11387],[8272,2755],[5018,7653],[-1357,17142]],[[391917,329190],[3255,-13162],[12205,5142],[5289,-13958],[8814,-2633]],[[419446,300967],[-5153,-7898]],[[516815,337639],[-15866,3122]],[[500949,340761],[1356,2939]],[[510848,350618],[6374,1714]],[[524410,348475],[-7595,-10836]],[[470436,377801],[8815,-4531],[14646,-10040],[1220,-8449]],[[500949,340761],[-2848,-10775]],[[487116,318599],[-18036,6183],[-25902,2388],[3526,12673],[-14510,3857],[-2577,-1041],[-1763,-735],[-3933,6551]],[[603335,324293],[-7594,-1837],[-16544,-551],[-11934,-17938]],[[567263,303967],[-18715,4530]],[[548548,308497],[5289,8204],[-13154,7285],[6238,22775]],[[700569,174115],[4068,9918],[-30648,-857],[-12612,-19162],[-16816,-9429],[-11798,1531]],[[611472,214460],[19257,4041],[20342,9918],[10713,-5571],[-12341,-5449],[-1898,-14081],[9357,-8081],[13697,1224],[17629,15000],[-9086,5816],[-11662,14815],[7187,2204]],[[764713,245990],[17630,3734],[406,-13591],[-9086,490],[-406,-61],[-4476,-4837]],[[394901,163585],[2847,-8143],[-13561,-10040]],[[675481,774151],[10306,6122],[-542,13653],[8136,7408],[16681,-4653],[11527,5816],[3390,-10285],[23868,-6245]],[[681854,769376],[-6373,4775]],[[324111,264479],[-2712,18917]],[[54109,187217],[10442,11877],[27800,7040],[3662,9796],[13154,4040],[24003,-20938]],[[610116,214705],[-2983,11755],[7323,9918],[-4069,8755],[26987,1102],[22783,12856],[6238,9122]],[[568348,717154],[-17494,1285],[-21834,-2938]],[[568348,722602],[0,-5448]],[[442500,459593],[17087,-11816]],[[291700,278009],[1492,-10775]],[[255356,270111],[-3390,245]],[[251966,270356],[-11391,11755],[2983,7285],[0,429]],[[517493,682931],[-4746,8754],[-20206,4776],[5560,10101]],[[528885,715133],[3526,-1959],[17358,-8203]],[[531597,692114],[-11798,-367],[-2306,-8816]],[[151207,242194],[-2848,6673],[-3662,21673]],[[207350,273907],[6374,-11693]],[[213724,262214],[2441,-7163],[-20884,1530],[-814,-9979]],[[437211,212685],[-2576,16836],[14103,-857],[136,18060],[23868,-1775],[16137,5632]],[[516680,164014],[-2441,-1041],[-18172,-3306]],[[496067,159667],[-17630,-2388]],[[478437,157279],[-4204,-979]],[[704230,591894],[-6102,-12000],[3255,-15734],[9357,-15428],[24274,-3734],[-4068,-17694],[-13697,-918],[12341,-17999]],[[713723,615709],[-9493,-23815]],[[507865,326068],[11120,-4286],[-1492,-12611]],[[608624,686359],[-14781,-16407],[-1763,-15796]],[[592080,654156],[-25224,-10714],[-10849,-9122],[5696,-5142],[-12883,-8877]],[[493897,666829],[17765,7102],[5831,9000]],[[571060,682135],[3797,-2694],[18172,-3367],[5831,10775],[9764,-490]],[[684024,661932],[-678,9183]],[[683346,671115],[10849,857]],[[748847,675217],[-4204,-18918],[-11121,-8204],[-15595,-5755]],[[211283,381964],[-1085,6856]],[[213724,262214],[2169,367],[5425,4714],[3526,-2571],[23461,796],[3390,4836],[271,0]],[[579739,286396],[14917,-3612],[33496,19101]],[[558719,248439],[21020,37957]],[[407784,837700],[5560,9428]],[[413344,847128],[17222,-8755],[21834,10653],[-7188,20448]],[[445212,869474],[5425,6122]],[[505153,853801],[-18172,-4286],[-24546,-27488],[-6916,6612],[-18443,-1837],[1627,-6918]],[[800650,439696],[-2848,-10102],[-25359,-14571],[-2712,-23019]],[[187551,468593],[-1899,2020],[-13561,20571],[8137,9060],[-5425,15245],[-1220,11815],[10849,-306],[-7730,11633],[8136,673],[18308,-6245],[21155,3857],[14375,-11387],[8815,-11632],[0,-796]],[[247491,513101],[271,-184]],[[310550,444410],[7052,-5816]],[[516815,337639],[-9899,-8571]],[[475454,790681],[12612,-4530],[9899,9428],[15867,1469]],[[528071,779967],[-12476,-17142],[-12748,-4775],[4611,-9428]],[[710333,701114],[-13697,5877],[-14782,-22591],[1492,-13285]],[[627339,613689],[12612,4163]],[[639951,617852],[12205,20632],[-9086,8264]],[[643070,646748],[1220,10837],[14104,14203],[-4882,11326],[4746,21489]],[[413344,847128],[2441,1469],[9899,14449],[19528,6428]],[[185381,387045],[2170,2265]],[[168565,341373],[-2441,14877],[12476,25897],[6781,4898]],[[548548,308497],[-14239,-17142]],[[548684,141484],[-5831,-1041],[-20206,-22530],[-2441,-9244]],[[494304,141300],[6238,6122],[-4475,12245]],[[274342,0],[-6781,19162],[7595,6429],[-4747,14142],[-22647,2388]],[[241660,61161],[0,61],[2305,7530]],[[328451,15244],[-14239,-10469],[-1492,1286],[-20342,-61],[-18036,-6000]],[[633170,745193],[10849,2449],[27936,16836],[-3390,4041],[6916,5632]],[[477759,288784],[-3933,-2082]],[[583943,911778],[6916,-428],[11798,-9429],[2984,6735],[25902,-3000],[20613,-22775],[-14646,858],[-10714,-10163],[-14103,-2694],[-5425,-14938],[-11798,857],[-15053,14816],[-10442,-1041]],[[766747,258234],[16274,3551],[3932,-1592],[36073,-15244],[-949,-7530],[13697,-16714],[13425,-19469]],[[467724,119934],[-12748,7959],[31191,26447],[-7730,2939]],[[563601,860413],[-7187,-13714]],[[556414,846699],[-21156,-15856],[-16815,-5816],[-7052,-10714],[-6238,-8632],[-16816,-9918],[-13697,-123]],[[608624,686359],[11798,3857]],[[620422,690216],[-5153,-9857],[5425,-9489],[-12612,-21918]],[[608082,648952],[-16002,5204]],[[301600,261050],[-4882,3674]],[[602386,716358],[8408,-1163]],[[625169,693277],[-4747,-3061]],[[567263,303967],[-5425,-9857],[17901,-7714]],[[643070,646748],[-8137,-2938],[-4611,-19530]],[[630322,624280],[-8679,14632],[-13561,10040]],[[384730,708889],[-2984,20876]],[[609031,108179],[-542,31101],[-8408,4163]],[[640222,80017],[-19528,16775]],[[581095,717460],[-12747,-306]],[[639951,617852],[-9629,6428]],[[556414,846699],[29428,-20570],[7458,10040],[949,-14387],[-13561,-7285],[-20884,-2021]],[[754678,676931],[-5696,-16530],[-2848,-30917],[-4746,-6367],[12476,-15367],[-9493,2633],[-23189,-15122],[-16952,-3367]],[[390561,34346],[-5424,-16286],[-17630,-10958],[-17087,-2755],[-6645,16285]]],"transform":{"scale":[0.0000023373805044300122,0.0000029706246053836252],"translate":[-99.066114647815,17.86572726883777]},"objects":{"municipalities":{"type":"GeometryCollection","geometries":[{"arcs":[[[0,1]],[[2,3,4,5]]],"type":"MultiPolygon","properties":{"cvegeo":"21027","nombre":"Caltepec"}},{"arcs":[[[6,7,8,9,10,11,12,13,14,15,16,17]],[[18,19,20]]],"type":"MultiPolygon","properties":{"cvegeo":"21047","nombre":"Chiautla"}},{"arcs":[[[21,22,23,24,25,26]],[[27,28,29,30,31,32]]],"type":"MultiPolygon","properties":{"cvegeo":"21072","nombre":"Huehuetla"}},{"arcs":[[33,-16,34,35]],"type":"Polygon","properties":{"cvegeo":"21073","nombre":"Huehuetlán el Chico"}},{"arcs":[[[36,37,-29,38]],[[39,40,41,42,43]]],"type":"MultiPolygon","properties":{"cvegeo":"21088","nombre":"Jonotla"}},{"arcs":[[[44,45,46,47,48,49]],[[50,51,52,53]]],"type":"MultiPolygon","properties":{"cvegeo":"21155","nombre":"Tecomatlán"}},{"arcs":[[-38,54,55,56,57,-30]],"type":"Polygon","properties":{"cvegeo":"21216","nombre":"Zoquiapan"}},{"arcs":[[58,59,60,61,62,63]],"type":"Polygon","properties":{"cvegeo":"21001","nombre":"Acajete"}},{"arcs":[[64,65]],"type":"Polygon","properties":{"cvegeo":"21002","nombre":"Acateno"}},{"arcs":[[66,67,68,69,70,71,72,73,74]],"type":"Polygon","properties":{"cvegeo":"21004","nombre":"Acatzingo"}},{"arcs":[[75,76,77,78,79]],"type":"Polygon","properties":{"cvegeo":"21005","nombre":"Acteopan"}},{"arcs":[[80,81,82,83,84,85,86,87,88]],"type":"Polygon","properties":{"cvegeo":"21006","nombre":"Ahuacatlán"}},{"arcs":[[89,90,91,92,93,94,95,96]],"type":"Polygon","properties":{"cvegeo":"21007","nombre":"Ahuatlán"}},{"arcs":[[97,98,99]],"type":"Polygon","properties":{"cvegeo":"21008","nombre":"Ahuazotepec"}},{"arcs":[[100,101,102,103,104]],"type":"Polygon","properties":{"cvegeo":"21009","nombre":"Ahuehuetitla"}},{"arcs":[[105,106,107,108,109,110,111,112,113]],"type":"Polygon","properties":{"cvegeo":"21010","nombre":"Ajalpan"}},{"arcs":[[114,115,116,117]],"type":"Polygon","properties":{"cvegeo":"21011","nombre":"Albino Zertuche"}},{"arcs":[[118,119,120,121,122]],"type":"Polygon","properties":{"cvegeo":"21012","nombre":"Aljojuca"}},{"arcs":[[123,124,125,-111,126]],"type":"Polygon","properties":{"cvegeo":"21013","nombre":"Altepexi"}},{"arcs":[[127,128,129,130,-85,131]],"type":"Polygon","properties":{"cvegeo":"21014","nombre":"Amixtlán"}},{"arcs":[[132,133,134,-63]],"type":"Polygon","properties":{"cvegeo":"21015","nombre":"Amozoc"}},{"arcs":[[135,136,137,138]],"type":"Polygon","properties":{"cvegeo":"21016","nombre":"Aquixtla"}},{"arcs":[[139,140,141,142]],"type":"Polygon","properties":{"cvegeo":"21017","nombre":"Atempan"}},{"arcs":[[143,144,145,146,147,148]],"type":"Polygon","properties":{"cvegeo":"21018","nombre":"Atexcal"}},{"arcs":[[149,150,151,152,153,154,155,156]],"type":"Polygon","properties":{"cvegeo":"21019","nombre":"Atlixco"}},{"arcs":[[157,158,159,160,161]],"type":"Polygon","properties":{"cvegeo":"21020","nombre":"Atoyatempan"}},{"arcs":[[162,163]],"type":"Polygon","properties":{"cvegeo":"21021","nombre":"Atzala"}},{"arcs":[[164,165,-150,166,167,-79,168]],"type":"Polygon","properties":{"cvegeo":"21022","nombre":"Atzitzihuacán"}},{"arcs":[[169,170,171]],"type":"Polygon","properties":{"cvegeo":"21023","nombre":"Atzitzintla"}},{"arcs":[[-53,172,-9,173,174,175]],"type":"Polygon","properties":{"cvegeo":"21024","nombre":"Axutla"}},{"arcs":[[176,177,178,179,180,-44,181,182]],"type":"Polygon","properties":{"cvegeo":"21025","nombre":"Ayotoxco de Guerrero"}},{"arcs":[[183,184,185,186,187,188,189]],"type":"Polygon","properties":{"cvegeo":"21026","nombre":"Calpan"}},{"arcs":[[190,191,-130,192,193]],"type":"Polygon","properties":{"cvegeo":"21028","nombre":"Camocuautla"}},{"arcs":[[194,195,-33,196,-23]],"type":"Polygon","properties":{"cvegeo":"21029","nombre":"Caxhuacan"}},{"arcs":[[197,198,-193,-129,199]],"type":"Polygon","properties":{"cvegeo":"21030","nombre":"Coatepec"}},{"arcs":[[-93,200,201,202,203]],"type":"Polygon","properties":{"cvegeo":"21031","nombre":"Coatzingo"}},{"arcs":[[204,205,-19,206,207,-14,208,-12,209,210]],"type":"Polygon","properties":{"cvegeo":"21032","nombre":"Cohetzala"}},{"arcs":[[211,-169,-78,212]],"type":"Polygon","properties":{"cvegeo":"21033","nombre":"Cohuecan"}},{"arcs":[[213,214,215,216,217,218]],"type":"Polygon","properties":{"cvegeo":"21034","nombre":"Coronango"}},{"arcs":[[219,220,221,-109,222,223]],"type":"Polygon","properties":{"cvegeo":"21035","nombre":"Coxcatlán"}},{"arcs":[[224,-224,225,226]],"type":"Polygon","properties":{"cvegeo":"21036","nombre":"Coyomeapan"}},{"arcs":[[227,-146,228,229,230]],"type":"Polygon","properties":{"cvegeo":"21037","nombre":"Coyotepec"}},{"arcs":[[231,232,233,234,235]],"type":"Polygon","properties":{"cvegeo":"21038","nombre":"Cuapiaxtla de Madero"}},{"arcs":[[236,237,238,239]],"type":"Polygon","properties":{"cvegeo":"21039","nombre":"Cuautempan"}},{"arcs":[[240,241,-133,-62,242,243]],"type":"Polygon","properties":{"cvegeo":"21040","nombre":"Cuautinchán"}},{"arcs":[[244,245,246,-215]],"type":"Polygon","properties":{"cvegeo":"21041","nombre":"Cuautlancingo"}},{"arcs":[[-95,247,248,249]],"type":"Polygon","properties":{"cvegeo":"21042","nombre":"Cuayuca de Andrade"}},{"arcs":[[250,-41,251,-180,252,253,254,-55,-37]],"type":"Polygon","properties":{"cvegeo":"21043","nombre":"Cuetzalan del Progreso"}},{"arcs":[[255,256,257,258,259,260,261]],"type":"Polygon","properties":{"cvegeo":"21044","nombre":"Cuyoaco"}},{"arcs":[[262,-172,263,264,265,266,-120,267]],"type":"Polygon","properties":{"cvegeo":"21045","nombre":"Chalchicomula de Sesma"}},{"arcs":[[268,269,270,271,272]],"type":"Polygon","properties":{"cvegeo":"21046","nombre":"Chapulco"}},{"arcs":[[273,274,275,276]],"type":"Polygon","properties":{"cvegeo":"21048","nombre":"Chiautzingo"}},{"arcs":[[277,278,-81,279]],"type":"Polygon","properties":{"cvegeo":"21049","nombre":"Chiconcuautla"}},{"arcs":[[280,281]],"type":"Polygon","properties":{"cvegeo":"21050","nombre":"Chichiquila"}},{"arcs":[[282,283,284,285,-164,286,-18]],"type":"Polygon","properties":{"cvegeo":"21051","nombre":"Chietla"}},{"arcs":[[287,288,289]],"type":"Polygon","properties":{"cvegeo":"21052","nombre":"Chigmecatitlán"}},{"arcs":[[290,291,-137,292]],"type":"Polygon","properties":{"cvegeo":"21053","nombre":"Chignahuapan"}},{"arcs":[[293,-261,294,-141,295,296,297,298]],"type":"Polygon","properties":{"cvegeo":"21054","nombre":"Chignautla"}},{"arcs":[[299,300,301,302]],"type":"Polygon","properties":{"cvegeo":"21055","nombre":"Chila"}},{"arcs":[[-10,-173,-52,303,304]],"type":"Polygon","properties":{"cvegeo":"21056","nombre":"Chila de la Sal"}},{"arcs":[[305,306]],"type":"Polygon","properties":{"cvegeo":"21057","nombre":"Honey"}},{"arcs":[[307,308,309,310]],"type":"Polygon","properties":{"cvegeo":"21058","nombre":"Chilchotla"}},{"arcs":[[-103,311,-175,312]],"type":"Polygon","properties":{"cvegeo":"21059","nombre":"Chinantla"}},{"arcs":[[313,-189]],"type":"Polygon","properties":{"cvegeo":"21060","nombre":"Domingo Arenas"}},{"arcs":[[314,315,316,-107]],"type":"Polygon","properties":{"cvegeo":"21061","nombre":"Eloxochitlán"}},{"arcs":[[317,318,319,320,-90,321]],"type":"Polygon","properties":{"cvegeo":"21062","nombre":"Epatlán"}},{"arcs":[[322,323,324,-264,-171]],"type":"Polygon","properties":{"cvegeo":"21063","nombre":"Esperanza"}},{"arcs":[[325,326,327]],"type":"Polygon","properties":{"cvegeo":"21064","nombre":"Francisco Z. Mena"}},{"arcs":[[328,-71,329,330,331]],"type":"Polygon","properties":{"cvegeo":"21065","nombre":"General Felipe Ángeles"}},{"arcs":[[332,333,334,335,336]],"type":"Polygon","properties":{"cvegeo":"21066","nombre":"Guadalupe"}},{"arcs":[[337,338,339,340,341]],"type":"Polygon","properties":{"cvegeo":"21067","nombre":"Guadalupe Victoria"}},{"arcs":[[342,343,-200,-128,344]],"type":"Polygon","properties":{"cvegeo":"21068","nombre":"Hermenegildo Galeana"}},{"arcs":[[-76,345,-167,-157,346,347,348,349,350,351]],"type":"Polygon","properties":{"cvegeo":"21069","nombre":"Huaquechula"}},{"arcs":[[352,-290,353,-202,354,355,356,357,358]],"type":"Polygon","properties":{"cvegeo":"21070","nombre":"Huatlatlauca"}},{"arcs":[[359,360,361,362,363,364,-278,365,-98,366,367]],"type":"Polygon","properties":{"cvegeo":"21071","nombre":"Huauchinango"}},{"arcs":[[368,369,-275,370,371,372,373,374,-190,-314,-188,375]],"type":"Polygon","properties":{"cvegeo":"21074","nombre":"Huejotzingo"}},{"arcs":[[376,-297,377,378,379,-178,380]],"type":"Polygon","properties":{"cvegeo":"21075","nombre":"Hueyapan"}},{"arcs":[[381,382,383,-381,-177,-183,384,385,-66]],"type":"Polygon","properties":{"cvegeo":"21076","nombre":"Hueytamalco"}},{"arcs":[[386,387,-194,-199,388,-25]],"type":"Polygon","properties":{"cvegeo":"21077","nombre":"Hueytlalpan"}},{"arcs":[[389,390,391,-239,392]],"type":"Polygon","properties":{"cvegeo":"21078","nombre":"Huitzilan de Serdán"}},{"arcs":[[393,394,395,396,397,398,-160]],"type":"Polygon","properties":{"cvegeo":"21079","nombre":"Huitziltepec"}},{"arcs":[[399,400,401,-31,-58]],"type":"Polygon","properties":{"cvegeo":"21080","nombre":"Atlequizayan"}},{"arcs":[[402,-211,403,-116]],"type":"Polygon","properties":{"cvegeo":"21081","nombre":"Ixcamilpa de Guerrero"}},{"arcs":[[-231,404,405]],"type":"Polygon","properties":{"cvegeo":"21082","nombre":"Ixcaquixtla"}},{"arcs":[[406,-293,-136,407,408,-258,409,410]],"type":"Polygon","properties":{"cvegeo":"21083","nombre":"Ixtacamaxtitlán"}},{"arcs":[[-24,-197,-32,-402,411,-387]],"type":"Polygon","properties":{"cvegeo":"21084","nombre":"Ixtepec"}},{"arcs":[[-287,-163,-286,412,413,-322,-97,414,-7]],"type":"Polygon","properties":{"cvegeo":"21085","nombre":"Izúcar de Matamoros"}},{"arcs":[[415,416,417,418,419,420]],"type":"Polygon","properties":{"cvegeo":"21086","nombre":"Jalpan"}},{"arcs":[[421,422,-35,-15,-208,423,-20,-206,424]],"type":"Polygon","properties":{"cvegeo":"21087","nombre":"Jolalpan"}},{"arcs":[[425,426,-343,427,428,429,430]],"type":"Polygon","properties":{"cvegeo":"21089","nombre":"Jopala"}},{"arcs":[[-374,431,-217,432]],"type":"Polygon","properties":{"cvegeo":"21090","nombre":"Juan C. Bonilla"}},{"arcs":[[433,434,-363]],"type":"Polygon","properties":{"cvegeo":"21091","nombre":"Juan Galindo"}},{"arcs":[[-228,-406,435,436,437,438,439,440,-147]],"type":"Polygon","properties":{"cvegeo":"21092","nombre":"Juan N. Méndez"}},{"arcs":[[441,-311,442,-339]],"type":"Polygon","properties":{"cvegeo":"21093","nombre":"Lafragua"}},{"arcs":[[443,-411,444,-256,445,446]],"type":"Polygon","properties":{"cvegeo":"21094","nombre":"Libres"}},{"arcs":[[-330,-70,447,448,449]],"type":"Polygon","properties":{"cvegeo":"21096","nombre":"Mazapiltepec de Juárez"}},{"arcs":[[450,451,452]],"type":"Polygon","properties":{"cvegeo":"21097","nombre":"Mixtla"}},{"arcs":[[453,454,455,-161,-399,456,-437]],"type":"Polygon","properties":{"cvegeo":"21098","nombre":"Molcaxac"}},{"arcs":[[457,-273,458,459,460,-324]],"type":"Polygon","properties":{"cvegeo":"21099","nombre":"Cañada Morelos"}},{"arcs":[[461,-360,-368,462,463]],"type":"Polygon","properties":{"cvegeo":"21100","nombre":"Naupan"}},{"arcs":[[-56,-255,464,465]],"type":"Polygon","properties":{"cvegeo":"21101","nombre":"Nauzontla"}},{"arcs":[[-186,466,467,468]],"type":"Polygon","properties":{"cvegeo":"21102","nombre":"Nealtican"}},{"arcs":[[469,470,471,472,-270]],"type":"Polygon","properties":{"cvegeo":"21103","nombre":"Nicolás Bravo"}},{"arcs":[[473,474,475,476,477,478,479,-68,480,-60]],"type":"Polygon","properties":{"cvegeo":"21104","nombre":"Nopalucan"}},{"arcs":[[-445,-410,-257]],"type":"Polygon","properties":{"cvegeo":"21105","nombre":"Ocotepec"}},{"arcs":[[481,482,483,-154,484,485]],"type":"Polygon","properties":{"cvegeo":"21106","nombre":"Ocoyucan"}},{"arcs":[[486,-26,-389,-198,-344,-427]],"type":"Polygon","properties":{"cvegeo":"21107","nombre":"Olintla"}},{"arcs":[[487,-447,488,489,490,491]],"type":"Polygon","properties":{"cvegeo":"21108","nombre":"Oriental"}},{"arcs":[[492,-464,493,-306,494]],"type":"Polygon","properties":{"cvegeo":"21109","nombre":"Pahuatlán"}},{"arcs":[[495,496,497,498,-265,-325,-461]],"type":"Polygon","properties":{"cvegeo":"21110","nombre":"Palmar de Bravo"}},{"arcs":[[499,-328,500,-420,501]],"type":"Polygon","properties":{"cvegeo":"21111","nombre":"Pantepec"}},{"arcs":[[502,503,504,505,506,-301]],"type":"Polygon","properties":{"cvegeo":"21112","nombre":"Petlalcingo"}},{"arcs":[[507,-54,-176,-312,-102,508,-335,509,-49]],"type":"Polygon","properties":{"cvegeo":"21113","nombre":"Piaxtla"}},{"arcs":[[-134,-242,510,511,512,-483,513,514,-246,515,516]],"type":"Polygon","properties":{"cvegeo":"21114","nombre":"Puebla"}},{"arcs":[[-72,-329,517,-266,-499,518]],"type":"Polygon","properties":{"cvegeo":"21115","nombre":"Quecholac"}},{"arcs":[[519,520,-309,521,-282]],"type":"Polygon","properties":{"cvegeo":"21116","nombre":"Quimixtlán"}},{"arcs":[[522,-236,523,-75]],"type":"Polygon","properties":{"cvegeo":"21118","nombre":"Los Reyes de Juárez"}},{"arcs":[[-482,524,525,526,-514]],"type":"Polygon","properties":{"cvegeo":"21119","nombre":"San Andrés Cholula"}},{"arcs":[[-113,527,528]],"type":"Polygon","properties":{"cvegeo":"21120","nombre":"San Antonio Cañada"}},{"arcs":[[-348,-347,-156,529,530,531]],"type":"Polygon","properties":{"cvegeo":"21121","nombre":"San Diego la Mesa Tochimiltzingo"}},{"arcs":[[532,-277,533]],"type":"Polygon","properties":{"cvegeo":"21122","nombre":"San Felipe Teotlalcingo"}},{"arcs":[[-345,-132,-84,534,-428]],"type":"Polygon","properties":{"cvegeo":"21123","nombre":"San Felipe Tepatlán"}},{"arcs":[[535,-125,536,537]],"type":"Polygon","properties":{"cvegeo":"21124","nombre":"San Gabriel Chilac"}},{"arcs":[[-486,538,539,-525]],"type":"Polygon","properties":{"cvegeo":"21125","nombre":"San Gregorio Atzompa"}},{"arcs":[[-185,540,-526,-540,541,542,-467]],"type":"Polygon","properties":{"cvegeo":"21126","nombre":"San Jerónimo Tecuanipan"}},{"arcs":[[543,-506,544,545,546]],"type":"Polygon","properties":{"cvegeo":"21127","nombre":"San Jerónimo Xayacatlán"}},{"arcs":[[547,-492,548,-449,-479,549,-477,550,-475]],"type":"Polygon","properties":{"cvegeo":"21128","nombre":"San José Chiapa"}},{"arcs":[[551,-4,552,-537,-124,553,-221]],"type":"Polygon","properties":{"cvegeo":"21129","nombre":"San José Miahuatlán"}},{"arcs":[[-332,554,-121,-267,-518]],"type":"Polygon","properties":{"cvegeo":"21130","nombre":"San Juan Atenco"}},{"arcs":[[-358,555,556,557]],"type":"Polygon","properties":{"cvegeo":"21131","nombre":"San Juan Atzompa"}},{"arcs":[[558,-371,-274,-533,559]],"type":"Polygon","properties":{"cvegeo":"21132","nombre":"San Martín Texmelucan"}},{"arcs":[[560,561,562,563]],"type":"Polygon","properties":{"cvegeo":"21134","nombre":"San Matías Tlalancaleca"}},{"arcs":[[564,-303]],"type":"Polygon","properties":{"cvegeo":"21135","nombre":"San Miguel Ixitlán"}},{"arcs":[[565,-219,566]],"type":"Polygon","properties":{"cvegeo":"21136","nombre":"San Miguel Xoxtla"}},{"arcs":[[567,-123,568,-490,569,-341]],"type":"Polygon","properties":{"cvegeo":"21137","nombre":"San Nicolás Buenos Aires"}},{"arcs":[[570,-376,-187,-469,571,572]],"type":"Polygon","properties":{"cvegeo":"21138","nombre":"San Nicolás de los Ranchos"}},{"arcs":[[-101,573,574,-336,-509]],"type":"Polygon","properties":{"cvegeo":"21139","nombre":"San Pablo Anicano"}},{"arcs":[[-216,-247,-515,-527,-541,-184,-375,-433]],"type":"Polygon","properties":{"cvegeo":"21140","nombre":"San Pedro Cholula"}},{"arcs":[[575,-337,-575,576,-504]],"type":"Polygon","properties":{"cvegeo":"21141","nombre":"San Pedro Yeloixtlahuaca"}},{"arcs":[[-555,-331,-450,-549,-491,-569,-122]],"type":"Polygon","properties":{"cvegeo":"21142","nombre":"San Salvador el Seco"}},{"arcs":[[577,578,-562,579,-560,-534,-276,-370]],"type":"Polygon","properties":{"cvegeo":"21143","nombre":"San Salvador el Verde"}},{"arcs":[[-74,580,581,-232,-523]],"type":"Polygon","properties":{"cvegeo":"21144","nombre":"San Salvador Huixcolotla"}},{"arcs":[[582,-227,583,-316,584]],"type":"Polygon","properties":{"cvegeo":"21145","nombre":"San Sebastián Tlacotepec"}},{"arcs":[[-203,-354,-289,585]],"type":"Polygon","properties":{"cvegeo":"21146","nombre":"Santa Catarina Tlaltempan"}},{"arcs":[[586,587,-249,588,589]],"type":"Polygon","properties":{"cvegeo":"21147","nombre":"Santa Inés Ahuatempan"}},{"arcs":[[-539,-485,-153,590,-542]],"type":"Polygon","properties":{"cvegeo":"21148","nombre":"Santa Isabel Cholula"}},{"arcs":[[591,-271,-473,592]],"type":"Polygon","properties":{"cvegeo":"21149","nombre":"Santiago Miahuatlán"}},{"arcs":[[593,-512,594,-557,595,-356]],"type":"Polygon","properties":{"cvegeo":"21150","nombre":"Huehuetlán el Grande"}},{"arcs":[[596,597,-452,598,-234,599]],"type":"Polygon","properties":{"cvegeo":"21151","nombre":"Santo Tomás Hueyotlipan"}},{"arcs":[[-480,-448,-69]],"type":"Polygon","properties":{"cvegeo":"21152","nombre":"Soltepec"}},{"arcs":[[600,-453,-598,601,-158,602,-244]],"type":"Polygon","properties":{"cvegeo":"21153","nombre":"Tecali de Herrera"}},{"arcs":[[-581,-73,-519,-498,603,604,605]],"type":"Polygon","properties":{"cvegeo":"21154","nombre":"Tecamachalco"}},{"arcs":[[-112,-126,-536,606,-148,-441,607,-593,-472,608,-528]],"type":"Polygon","properties":{"cvegeo":"21156","nombre":"Tehuacán"}},{"arcs":[[-588,609,-104,-313,-174,-8,-415,-96,-250]],"type":"Polygon","properties":{"cvegeo":"21157","nombre":"Tehuitzingo"}},{"arcs":[[610,-385,-182,-43,611]],"type":"Polygon","properties":{"cvegeo":"21158","nombre":"Tenampulco"}},{"arcs":[[-355,-201,-92,612,-530,-155,-484,-513,-594]],"type":"Polygon","properties":{"cvegeo":"21159","nombre":"Teopantlán"}},{"arcs":[[613,-36,-423]],"type":"Polygon","properties":{"cvegeo":"21160","nombre":"Teotlalco"}},{"arcs":[[-440,614,-459,-272,-592,-608]],"type":"Polygon","properties":{"cvegeo":"21161","nombre":"Tepanco de López"}},{"arcs":[[615,-86,-131,-192,616]],"type":"Polygon","properties":{"cvegeo":"21162","nombre":"Tepango de Rodríguez"}},{"arcs":[[617,-64,-135,-517]],"type":"Polygon","properties":{"cvegeo":"21163","nombre":"Tepatlaxco de Hidalgo"}},{"arcs":[[-481,-67,-524,-235,-599,-451,-601,-243,-61]],"type":"Polygon","properties":{"cvegeo":"21164","nombre":"Tepeaca"}},{"arcs":[[-80,-168,-346]],"type":"Polygon","properties":{"cvegeo":"21165","nombre":"Tepemaxalco"}},{"arcs":[[618,-318,-414,619,620,-350,-349,-532]],"type":"Polygon","properties":{"cvegeo":"21166","nombre":"Tepeojuma"}},{"arcs":[[621,-88,622,-237,623]],"type":"Polygon","properties":{"cvegeo":"21167","nombre":"Tepetzintla"}},{"arcs":[[624,-213,-77,-352,625,626,-284]],"type":"Polygon","properties":{"cvegeo":"21168","nombre":"Tepexco"}},{"arcs":[[627,-454,-436,-405,-230,628,629,630,-590]],"type":"Polygon","properties":{"cvegeo":"21169","nombre":"Tepexi de Rodríguez"}},{"arcs":[[631,-342,-570,-489,-446,-262,-294,632]],"type":"Polygon","properties":{"cvegeo":"21170","nombre":"Tepeyahualco"}},{"arcs":[[-396,633]],"type":"Polygon","properties":{"cvegeo":"21171","nombre":"Tepeyahualco de Cuauhtémoc"}},{"arcs":[[634,635,-408,-139,636,-624,-240,-392,637]],"type":"Polygon","properties":{"cvegeo":"21172","nombre":"Tetela de Ocampo"}},{"arcs":[[-378,-296,-140,-143,638,639]],"type":"Polygon","properties":{"cvegeo":"21173","nombre":"Teteles de Ávila Castillo"}},{"arcs":[[-384,640,-298,-377]],"type":"Polygon","properties":{"cvegeo":"21174","nombre":"Teziutlán"}},{"arcs":[[-152,641,-572,-468,-543,-591]],"type":"Polygon","properties":{"cvegeo":"21175","nombre":"Tianguismanalco"}},{"arcs":[[-285,-627,642,-620,-413]],"type":"Polygon","properties":{"cvegeo":"21176","nombre":"Tilapa"}},{"arcs":[[643,-496,-460,-615,-439,644]],"type":"Polygon","properties":{"cvegeo":"21177","nombre":"Tlacotepec de Benito Juárez"}},{"arcs":[[-493,645,646,647,-418,648,-361,-462]],"type":"Polygon","properties":{"cvegeo":"21178","nombre":"Tlacuilotepec"}},{"arcs":[[649,-268,-119,-568,-340,-443,-310,-521]],"type":"Polygon","properties":{"cvegeo":"21179","nombre":"Tlachichuca"}},{"arcs":[[650,651,-564,-563,-579]],"type":"Polygon","properties":{"cvegeo":"21180","nombre":"Tlahuapan"}},{"arcs":[[652,-567,-218,-432,-373]],"type":"Polygon","properties":{"cvegeo":"21181","nombre":"Tlaltenango"}},{"arcs":[[-597,653,-394,-159,-602]],"type":"Polygon","properties":{"cvegeo":"21182","nombre":"Tlanepantla"}},{"arcs":[[654,-430,655,-82,-279,-365]],"type":"Polygon","properties":{"cvegeo":"21183","nombre":"Tlaola"}},{"arcs":[[-429,-535,-83,-656]],"type":"Polygon","properties":{"cvegeo":"21184","nombre":"Tlapacoya"}},{"arcs":[[-621,-643,-626,-351]],"type":"Polygon","properties":{"cvegeo":"21185","nombre":"Tlapanalá"}},{"arcs":[[-380,656,-639,-142,-295,-260,657,658,659,-253,-179]],"type":"Polygon","properties":{"cvegeo":"21186","nombre":"Tlatlauquitepec"}},{"arcs":[[660,-647]],"type":"Polygon","properties":{"cvegeo":"21187","nombre":"Tlaxco"}},{"arcs":[[661,-573,-642,-151,-166,662]],"type":"Polygon","properties":{"cvegeo":"21188","nombre":"Tochimilco"}},{"arcs":[[663,-397,-634,-395,-654,-600,-233,-582,-606]],"type":"Polygon","properties":{"cvegeo":"21189","nombre":"Tochtepec"}},{"arcs":[[664,-547,665,-629,-229,-145]],"type":"Polygon","properties":{"cvegeo":"21190","nombre":"Totoltepec de Guerrero"}},{"arcs":[[666,-118,667,-304,-51,-508,-48,668]],"type":"Polygon","properties":{"cvegeo":"21191","nombre":"Tulcingo"}},{"arcs":[[669,-612,-42,-251,-39,-28,-196]],"type":"Polygon","properties":{"cvegeo":"21192","nombre":"Tuzamapan de Galeana"}},{"arcs":[[-558,-595,-511,-241,-603,-162,-456,670,-359]],"type":"Polygon","properties":{"cvegeo":"21193","nombre":"Tzicatlacoyan"}},{"arcs":[[671,-421,-501,-327]],"type":"Polygon","properties":{"cvegeo":"21194","nombre":"Venustiano Carranza"}},{"arcs":[[672,-114,-529,-609,-471]],"type":"Polygon","properties":{"cvegeo":"21195","nombre":"Vicente Guerrero"}},{"arcs":[[-630,-666,-546,673]],"type":"Polygon","properties":{"cvegeo":"21196","nombre":"Xayacatlán de Bravo"}},{"arcs":[[674,675,-434,-362,-649,-417]],"type":"Polygon","properties":{"cvegeo":"21197","nombre":"Xicotepec"}},{"arcs":[[-305,-668,-117,-404,-210,11,-209,-13,-12,-11]],"type":"Polygon","properties":{"cvegeo":"21198","nombre":"Xicotlán"}},{"arcs":[[-635,676,677,678]],"type":"Polygon","properties":{"cvegeo":"21200","nombre":"Xochiapulco"}},{"arcs":[[-619,-531,-613,-91,-321,679,-319]],"type":"Polygon","properties":{"cvegeo":"21201","nombre":"Xochiltepec"}},{"arcs":[[-638,-391,680,-400,-57,-466,681,-677]],"type":"Polygon","properties":{"cvegeo":"21202","nombre":"Xochitlán de Vicente Suárez"}},{"arcs":[[682,-645,-438,-457,-398,-664,-605]],"type":"Polygon","properties":{"cvegeo":"21203","nombre":"Xochitlán Todos Santos"}},{"arcs":[[-657,-379,-640]],"type":"Polygon","properties":{"cvegeo":"21204","nombre":"Yaonáhuac"}},{"arcs":[[-604,-497,-644,-683]],"type":"Polygon","properties":{"cvegeo":"21205","nombre":"Yehualtepec"}},{"arcs":[[-671,-455,-628,-589,-248,-94,-204,-586,-288,-353]],"type":"Polygon","properties":{"cvegeo":"21206","nombre":"Zacapala"}},{"arcs":[[-465,-254,-660,683,684,-678,-682]],"type":"Polygon","properties":{"cvegeo":"21207","nombre":"Zacapoaxtla"}},{"arcs":[[685,-99,-366,-280,-89,-622,-637,-138,-292]],"type":"Polygon","properties":{"cvegeo":"21208","nombre":"Zacatlán"}},{"arcs":[[686,-149,-607,-538,-553,-3,-6,687,-2]],"type":"Polygon","properties":{"cvegeo":"21209","nombre":"Zapotitlán"}},{"arcs":[[-388,-412,-401,-681,-390,688,-617,-191]],"type":"Polygon","properties":{"cvegeo":"21210","nombre":"Zapotitlán de Méndez"}},{"arcs":[[689,-684,-659]],"type":"Polygon","properties":{"cvegeo":"21211","nombre":"Zaragoza"}},{"arcs":[[-636,-679,-685,-690,-658,-259,-409]],"type":"Polygon","properties":{"cvegeo":"21212","nombre":"Zautla"}},{"arcs":[[690,-431,-655,-364,-435,-676]],"type":"Polygon","properties":{"cvegeo":"21213","nombre":"Zihuateutla"}},{"arcs":[[-222,-554,-127,-110]],"type":"Polygon","properties":{"cvegeo":"21214","nombre":"Zinacatepec"}},{"arcs":[[-393,-238,-623,-87,-616,-689]],"type":"Polygon","properties":{"cvegeo":"21215","nombre":"Zongozotla"}},{"arcs":[[-317,-584,-226,-223,-108]],"type":"Polygon","properties":{"cvegeo":"21217","nombre":"Zoquitlán"}},{"arcs":[[691,-633,-299,-641,-383]],"type":"Polygon","properties":{"cvegeo":"21199","nombre":"Xiutetelco"}},{"arcs":[[[692,-45,-50,-510,-334]],[[-587,-631,-674,-545,-505,-577,-574,-105,-610]]],"type":"MultiPolygon","properties":{"cvegeo":"21003","nombre":"Acatlán"}}]}}}