{"type":"Topology","arcs":[[[823976,88686],[-6073,2936],[-10090,234],[-48,5285],[-6551,2201],[-19606,-176],[-1961,-1174]],[[779647,97992],[-8751,13533],[479,3171]],[[771375,114696],[6312,-3406],[3969,-2143],[3156,5226],[48,5900],[6073,-29],[0,5901],[9372,293],[2965,4110],[0,15383],[-9229,-59],[-4639,3846]],[[789402,149718],[17024,-528],[3587,2055],[8607,-10862],[6790,-705],[0,-10187],[5452,-7779],[-2056,-8660],[1482,-4433],[7699,-1468],[-48,-9629],[-4734,-264],[0,-6253],[-9277,646],[48,-2965]],[[789402,149718],[4113,7809],[-3826,12741],[5978,-30],[1387,4110],[8320,-88],[-3299,3288]],[[802075,177548],[4351,2642],[8369,-2525],[-5739,-3904],[15446,-6400],[2582,5314],[8655,59],[861,-7222],[6886,-2026],[5547,5989],[1100,6429],[6217,881],[-1244,4609],[4208,1379],[6695,-9129],[1052,-9923],[15398,-763]],[[882459,162958],[1291,-4609],[8703,-10304],[-4495,-441],[0,-5930],[-14011,881],[0,-5871],[3826,-5255],[-2583,-4081],[2774,-5988],[-3300,-1351],[2917,-7574],[-1960,-13445],[4256,1791],[0,-5695],[3299,3346],[7747,-7398],[7029,-616],[-8511,-5842],[717,-2730],[7268,-1233],[4209,-4404],[1578,-6223],[-5691,-10363]],[[897522,59623],[-2534,528],[-11573,-7691],[-21710,26773],[-7268,2319],[0,3611],[-11573,29],[-47,1997],[-12051,0],[-6790,1497]],[[748852,129726],[-19319,5108]],[[729533,134834],[5642,1644],[383,6635],[5929,9570],[-7316,1879],[1148,4051],[-431,38428]],[[734888,197041],[0,5108],[4448,1702],[-11095,30443],[-9850,24836],[813,22017],[-4448,24190],[2200,4315],[25344,-13856]],[[742300,295796],[7747,-4169],[-8799,-10803],[4495,-5578],[8273,-9012],[478,-5226],[-3730,-1555],[-3586,-11655],[-622,-10392],[-4590,-9042],[5977,-2290],[2869,3435],[7364,-763],[670,-10481],[2486,-8337],[-1195,-12887],[-12433,-30],[0,-53164],[1148,-14121]],[[897522,59623],[48,-10891],[9851,-8572],[-6408,-1997],[11142,-21400]],[[912155,16763],[-9516,-7281],[-4591,-7192],[-4112,-2290],[-48,0],[-5643,1380],[-3586,4286],[-2104,1732],[-8369,-3934],[574,20344],[-1482,7310],[-7508,12564],[-6647,4874],[-8655,10098],[-12003,1351],[-10425,3199],[-10472,822],[-7986,-3111],[-13102,5607],[-9229,9071],[-3109,5519],[-4495,16880]],[[856350,571629],[-6265,0],[-10281,4022],[383,5226],[-8560,12916],[-4399,-3610]],[[827228,590183],[3299,6076],[-11142,-2730],[2774,6752],[-2439,3611],[5164,6576],[7221,1145],[-1052,3376]],[[831053,614989],[6169,3024],[-191,-6870],[3538,2906],[9373,-3258],[-622,-4257],[6599,734],[2200,-3787],[11333,1585],[670,-2700],[9803,-441],[6742,4521]],[[886667,606446],[7556,-1967]],[[894223,604479],[1482,-3611],[-9229,-1937],[-144,-10099],[-3490,-8631],[-6839,-2407],[3443,-2466],[-1339,-7779]],[[878107,567549],[-7220,9071],[-14537,499],[0,-5490]],[[157947,843441],[2344,1115],[-1244,29592],[3443,5783],[19176,38897],[6934,-49847],[9994,1938],[7842,-17849],[-526,28270],[-7986,15060],[3922,528],[10376,7780],[5404,16528],[3156,3434],[4830,-1115],[2104,4344],[-9564,1967],[4591,9013]],[[222743,938879],[21088,-7075]],[[243831,931804],[-11142,-23720],[9755,-3875],[2487,5578],[8894,-18877],[12816,529],[-1052,-7222],[9707,-1174],[-430,-3817],[18506,-205],[1482,-8572],[2869,1233],[6982,-11596],[-6551,-3259],[3586,-5959],[-3299,-11390],[10616,-323],[-239,-8983],[3777,-5549],[9947,5930],[-3204,-10362],[11190,8865],[-192,-11302],[5069,-910],[-287,-5519],[6265,-793],[717,5167],[11668,0],[-48,4638],[6312,1233],[-48,5226],[-4925,9864],[6312,4579],[48,7985],[10090,0],[8033,6253],[8225,0],[-813,4404],[7604,-764]],[[394558,859117],[-3874,-11067],[-4782,147],[0,-10334],[-3825,-2789],[-1435,-7309],[9373,-7927],[-8225,-2143],[-9229,-4755],[-5643,-10598],[-14154,-4374],[-7795,-11126],[-3443,4110],[-6790,499],[-6073,-5872],[-20371,-12300],[7842,-11596],[4638,2290],[2296,-3464],[-14107,-910],[-3204,3200],[1961,-8807],[-7508,-3993],[-5069,1028]],[[295141,751027],[-430,5577],[-4352,11772],[5452,-10274],[4543,6164],[478,6312],[-6456,18906],[-13198,5372],[-2726,2877],[-7268,0],[-14776,3934],[-29122,5108],[-2200,3552],[-9516,1438],[2152,6605],[-4161,10774],[-478,7310],[-7268,6253],[-17407,7368],[-7268,4932],[-13198,1586],[-6026,4198],[909,-8543],[2678,-2613],[-7556,-6194]],[[345782,607180],[1052,18994],[-3347,7750],[-7221,6664],[-5738,352],[2295,5695],[-956,12917],[-2391,6047],[-11429,13387],[-6456,4991],[-13341,20725],[-7699,23603],[3969,13093],[621,9629]],[[394558,859117],[2534,1439],[10903,-2319],[5786,3229],[-6408,4638],[1100,11390]],[[408473,877494],[34000,-11331]],[[442473,866163],[956,-9981],[-10329,-3787],[-191,-4639],[10185,-9247],[-11428,-9600],[-2678,8602],[-1148,-5901],[-4208,998],[-2726,-5108],[3108,-11008],[-7985,-1439],[239,-4256],[8273,-1733],[4734,-7984],[-8943,1409],[-1530,-6987],[11764,-4374],[-2248,-6752],[12146,-5079],[-5021,-9776],[10903,-3904],[3969,-5871],[0,-5079],[-6599,-11449]],[[443716,743218],[-3682,-4198],[-813,-16616],[-2534,-2994],[8655,-470],[-1339,-18289],[-5738,-3728],[1626,-11332],[-1865,-4491],[-48,-10305],[-5595,1498],[48,-9541],[-6312,-470],[1482,-4403],[-5212,-1498],[-2296,-4520],[2583,-8661],[7364,910],[5260,-8102],[-2726,-4257],[-14537,88],[191,-7309],[-11954,-617],[-21567,2613],[-16498,6018],[-3443,-12888],[718,-9628],[-19702,-2848]],[[694098,585075],[2104,-2848]],[[696202,582227],[6647,-13915]],[[702849,568312],[-4925,-6488],[10425,1174],[4064,-12946]],[[712413,550052],[-11094,-381],[-5977,-5314],[-17789,-11185],[-4256,-5489],[-3682,-176]],[[669615,527507],[-6982,10685],[-10950,5020]],[[651683,543212],[6742,12389],[717,5020],[-5021,2377],[1531,8749],[8177,5049]],[[663829,576796],[2678,-4198],[14585,6018],[-2344,8103],[11047,-3435],[4303,1791]],[[925305,253816],[7556,-5108],[-6169,-4902],[-765,-5373]],[[925927,238433],[2008,-10715],[-7173,617],[1148,-10569],[-6121,-8219],[4352,-1439],[-2104,-3552],[4112,-5460],[-622,-6518],[-4303,-7779],[-3348,2965],[-2534,-9453],[-4639,-4638],[2344,-6488],[-2391,-2348],[-7460,7397],[-16737,-9276]],[[802075,177548],[-2583,2378],[4161,4785],[-4926,675],[-621,6987],[5499,2260],[-5213,2819],[-8033,-587],[478,7192],[11094,9541],[-1482,9805],[-4878,6106],[6264,5989],[4639,12417],[3060,-763],[4830,-7779],[-1100,9658],[8034,2231],[7125,-558],[1052,4609]],[[829475,255313],[9660,940],[2964,-8807],[9230,-5314],[-2774,-1057],[3873,-5636],[2726,-12300],[8799,2524],[5834,-2466],[1482,7398],[6360,-6018],[5786,3288],[2917,11390],[-1291,3494],[5260,4433],[3922,-7751],[526,-7192],[10998,5666],[5308,-5138],[6647,15090],[7603,1057],[0,4902]],[[443716,743218],[6264,-1703],[1674,-8014],[14011,-3699],[-6408,-6899],[3539,-5255],[5547,705],[1578,-11097],[3347,-4814],[-4829,-2613],[11763,-10979],[10951,-4551]],[[491153,684299],[-6647,-440],[-2869,-22957],[-5260,-10891],[-192,-5313],[9230,-7662],[-2917,-13475],[7842,-4462],[-1961,-6576],[4735,-11068],[7364,-675],[4208,2642],[6886,-9922],[6168,470],[-3395,3875],[12672,-2261],[14012,0],[-5643,10745],[9086,-30],[7029,-3082]],[[551501,603217],[1626,-793]],[[553127,602424],[95,-9247],[-4447,-2143],[1100,-7075],[-5690,-16851],[7125,-6341],[1386,-7808],[-3156,381],[622,-6810]],[[550162,546530],[-16067,4579],[-4304,-8278],[-8560,-3846],[-9372,440],[4112,-5666],[-3825,-3933],[-5069,2730],[-8990,-7750],[6981,8337],[-7125,7662],[-4925,264],[-6743,7104],[-4638,-3816],[-2917,2906],[-11620,-10392],[5451,-5196],[-621,-3170],[-12912,-16851],[-3969,-24190],[-22810,705],[-8033,-969]],[[424206,487200],[-6838,2466],[-8225,-2260],[-9229,3023],[-2822,6106],[5786,11949],[622,5166],[-7603,6312],[-1244,6664],[-10616,9717],[-2821,7163],[-8129,7310],[-4304,11478],[-6503,8484],[-2104,9218],[-12338,3816],[2152,13739],[-4208,9629]],[[537490,709575],[-3634,-14120]],[[533856,695455],[-1291,-6165],[-6982,-411],[-3634,-4814],[-6695,-2055],[48,5020],[-8512,0]],[[506790,687030],[1482,6370],[-7077,-646],[-7077,15647],[-3730,12858],[1482,16000],[14203,3669],[-3730,17115],[2869,3669],[11572,7222]],[[516784,768934],[6121,-3405],[861,-6194],[-4543,-6283]],[[519223,753052],[2295,-12095],[-6025,-499],[813,-13445],[6408,-9042],[4447,-2612],[7699,205],[2630,-5989]],[[688360,637740],[1674,-4726],[11189,-1879],[-6646,-3582]],[[694577,627553],[-7221,-7427],[-3874,294],[3061,-11009],[-6073,-7016],[4495,-9541],[4304,2378]],[[689269,595232],[4829,-10157]],[[663829,576796],[-19511,851],[-4016,6459],[-12099,-5461],[-4590,793],[-25153,-5636],[-526,-4932],[-5595,-529],[-8560,13798],[-4304,881]],[[579475,583020],[6265,1702],[-239,6723],[-5978,29],[622,18876],[8273,-1732],[8894,10246],[5690,-5725],[6552,9160],[14441,-6576],[1387,9981],[-6456,4022]],[[618926,629726],[4687,3963],[4303,-2583],[9277,939]],[[637193,632045],[6408,-1204],[813,-4344],[22188,1820],[5260,10069],[5739,-4903],[10759,4257]],[[858358,357180],[2247,-4462],[1483,-11537],[-4256,-3758],[335,-6399]],[[858167,331024],[-13724,-1380],[-2152,7133],[-10808,3435],[-4351,-5225]],[[827132,334987],[-13581,2554]],[[813551,337541],[5021,19492]],[[818572,357033],[3013,5842],[19749,1527],[6456,2818],[4208,-8073],[6360,-1967]],[[656560,812646],[7508,-18818],[-19845,-6840],[6838,-18612]],[[651061,768376],[-2391,-3757],[-3682,4550],[-13533,-2290],[765,-4902],[-15876,3053],[-2295,3229],[-3204,-5901],[-12481,-440]],[[598364,761918],[-6838,-1292],[1195,9541],[-7460,793],[-6025,-2407]],[[579236,768553],[-4399,5753]],[[574837,774306],[1913,2437],[-5308,6047],[430,6899],[-8321,-2025],[-2773,12652],[-3204,3670],[6121,147],[4830,5431],[10616,1526],[0,8690]],[[579141,819780],[20944,-7193],[56475,59]],[[863762,711895],[4208,352]],[[867970,712247],[12528,-19053],[14537,-88],[-382,-10216],[-9229,118],[2391,-3582],[-4782,-2201],[143,-6253],[4208,-2261]],[[887384,668711],[-287,-7456],[-5212,3229]],[[881885,664484],[-2152,3200],[-9659,-910],[-7890,-3875],[-5165,411],[765,3552],[-6599,7926],[-8177,-9570],[-813,-9776],[-9420,-2084],[-48,-19845]],[[832727,633513],[-15828,0],[860,10597],[-5834,3758],[-4112,-8278],[-4495,822],[-239,8748],[-9899,-764]],[[793180,648396],[-48,17526],[8799,1321],[-478,5754]],[[801453,672997],[-2439,11625]],[[799014,684622],[1769,940],[20850,-1644],[6886,9306],[6360,12476],[10998,-1409],[3826,11537],[6121,-3170],[7938,-763]],[[969203,589948],[1961,-11273],[1243,-5901],[-4112,-2407],[717,-4169],[13389,-1644],[48,-9687],[-7794,-2965],[-10090,-235],[6216,-8983],[-5595,-1820],[2487,-14679],[-3586,-2231],[2821,-9012],[-11142,-3699],[7221,-25569],[-1865,-6459],[-7269,294]],[[953853,479509],[-2199,7016],[-4974,-2672],[-8655,2877],[-7173,8602],[-5403,3846],[-4830,-3523],[-9421,-910],[-4877,6605],[-3061,-264],[-4734,6693],[-4208,-88],[-4112,11361]],[[890206,519052],[3921,1233],[-3347,4932],[382,5519],[-4351,2935],[-574,18201],[3730,-8366],[4925,1791],[7173,-1556],[6838,21753],[4399,205],[479,8837],[12146,6018],[3108,7662],[8464,1996]],[[937499,590212],[6790,1438],[13725,-3229],[3395,2290],[7794,-763]],[[800497,812793],[3490,-12418],[4591,2994],[4543,-21577],[-4447,-2084],[1243,-6605]],[[809917,773103],[-23097,29],[-3682,-7691]],[[783138,765441],[-4399,9188],[-7938,265],[0,8014],[-3443,1497],[-19702,-2202],[-48,9541],[-6647,-1174],[-16832,3758],[-3252,4344],[-10329,998]],[[710548,799670],[-2582,1997],[5786,3288],[-2678,7720]],[[711074,812675],[89423,118]],[[856350,571629],[-8512,-14913],[5403,-1468],[-1195,-4726]],[[852046,550522],[-14059,2760],[4256,-11391]],[[842243,541891],[-25631,-15647],[-6504,1938],[-1769,-2819]],[[808339,525363],[-9755,147],[-2917,-3992],[-5930,-1057],[-5164,4550],[-12959,-616],[-1674,-4639],[-6599,2378]],[[763341,522134],[-3061,5138],[5356,11918],[-1195,8690],[5308,616],[-3826,3053],[-956,5872],[-4687,-206]],[[760280,557215],[1052,4756],[-4925,-88],[-4112,10157]],[[752295,572040],[9659,3024]],[[761954,575064],[9660,-2936],[3586,-5401],[8703,851],[2152,9453],[8321,1321],[2008,-2114],[17119,764],[1244,4021],[9850,-264],[-1817,5402],[4448,4022]],[[704666,434535],[-1769,6164]],[[702897,440699],[2152,5461],[9373,6605],[10424,-5049],[5547,-7428],[478,8132],[11764,-1321]],[[742635,447099],[13916,-8954],[-6121,-9276],[1195,-7281],[-4734,-1409],[-2630,3846],[861,-13357],[29648,3992]],[[774770,414660],[-2200,-4579],[-26014,-4110],[-478,-6635],[-8655,-2114],[861,14767],[-4113,3875],[1052,4726],[-3921,8044],[-5165,1820],[-8990,-6253],[144,-2319],[-11907,-4991],[-8416,10862],[8750,3582],[-1052,3200]],[[598364,761918],[6599,-10627],[430,-7603],[3922,-3993],[-4687,-6194],[7365,-9042],[-1913,-9511],[24675,-4668],[2486,5490],[1817,-9424],[7364,235],[-6025,-6429],[7460,-117]],[[647857,700035],[-96,-9101],[3013,-3699],[-9803,-6987],[-2869,-2260],[-1626,-9336]],[[636476,668652],[-2295,5842],[-12481,4609],[-7269,9130],[-6981,3552],[-6743,-2671],[2056,6077],[-5977,-2672],[-1817,7222],[4256,3200],[-3682,2789],[-5021,-2525],[-10712,11449],[-4973,499]],[[574837,715153],[-6265,9247],[16929,8954],[1721,-5343],[7125,764],[-2486,7632],[3012,1116],[383,8131],[-14537,8631],[-6265,-2642],[1100,15236],[3682,1674]],[[651061,768376],[8894,6459],[11525,-14297],[6264,4228],[7699,-7839]],[[685443,756927],[-4686,-2554],[4782,-8836],[-4400,-14062],[-382,-7544],[10042,4638],[4543,-6781]],[[695342,721788],[4543,-6987],[-4926,-5314],[-3634,1263],[-191,-9483]],[[691134,701267],[-383,-1438],[-16354,-1057],[-10234,-8278],[0,3053],[-7603,-3318],[-335,15559],[-5116,1263],[-3252,-7016]],[[753538,589331],[1434,-5431],[6982,-1379],[0,-7457]],[[752295,572040],[-5500,235],[192,5372],[-9899,-734],[-1291,-4432],[-7747,1467]],[[728050,573948],[-95,6136],[-10664,4638],[-21089,-2495]],[[689269,595232],[2056,4227],[7412,2554],[5595,-1967],[1769,3288],[2965,-8513],[21040,-5431],[7030,-206],[5690,3582],[10712,-3435]],[[971881,604274],[-717,-12330],[-1961,-1996]],[[937499,590212],[-2200,4726],[96,10451],[-6647,-2436],[-12050,-1556],[-18267,4726],[-4208,-1644]],[[886667,606446],[1530,7398],[6456,-646],[3060,12007],[-9133,6634],[1052,2731],[-4973,8807],[10711,2495],[-191,7192]],[[895179,653064],[8081,-8425],[-908,-2466],[12911,-3347],[9660,1556],[6168,-4697],[5452,3200],[5881,-2701],[622,-4345],[10951,-9893],[621,-10597],[7173,-7486],[10090,411]],[[764106,512887],[9086,-3992],[-8225,-5989],[143,-4257],[6408,-3728],[7125,-7662],[3873,-35991]],[[782516,451268],[-2391,-764],[1818,-8161],[-2009,-2965],[5260,-3346],[1148,-14473],[3395,-4198],[-3586,-1673],[2247,-5284],[5404,-2525]],[[793802,407879],[-5739,-4550],[-6790,7515],[-6503,3816]],[[742635,447099],[2248,14267],[5881,-2025],[4639,2877],[11142,205],[-909,4521],[-48,27507],[-5834,-5490],[-3634,11039],[-6695,587],[192,5196]],[[749617,505783],[1817,3258],[12050,-1321],[622,5167]],[[878107,567549],[5643,-7662],[-9516,-2760],[3826,-11185],[143,-6253]],[[878203,539689],[-5786,-2231],[-6838,5196],[-4591,646],[-2965,5989],[-5977,1233]],[[799014,684622],[-2630,6429],[-13915,5050],[1386,2847],[10568,910],[-4112,9042],[-3921,2818],[335,6547],[-4113,2906],[-48,8514],[-2486,4080],[-12959,3875],[-1531,4257]],[[765588,741897],[-4256,1292],[-573,9159],[13628,2847],[-335,4022],[9086,6224]],[[809917,773103],[4495,1203],[2534,-5020],[11477,265],[8034,-2642],[1673,9071],[6073,4227],[9851,-6400],[-1147,-12065],[3443,-617],[-3730,-25129],[5642,-2730],[1435,-11889],[4065,-9482]],[[637480,267261],[-48,118],[96,58]],[[637528,267437],[-430,2085]],[[637098,269522],[8368,11126],[-622,5636],[5787,3494],[765,6810],[4351,1615],[11525,-675],[1100,-4051],[14584,-9482],[1579,-4815],[-11429,-23133]],[[673106,256047],[-6026,-411],[-27257,6782],[-2343,4843]],[[878203,539689],[-1530,-1497],[478,-16527]],[[877151,521665],[-7412,-1175],[-5451,3611],[-4782,-3405]],[[859506,520696],[-7508,7016],[-7269,382],[-7507,-2378],[-3061,7838],[8082,8337]],[[832727,633513],[1913,-8690],[-9134,-822],[5547,-9012]],[[753538,589331],[-1435,7134],[-5929,16234],[14106,-2671],[-1434,9218],[-5021,1379]],[[753825,620625],[10185,10510],[10281,1673],[8465,14972],[10424,616]],[[691134,701267],[5308,-5695],[-7747,-5078],[2534,-7428],[9708,-8777],[-3157,-8660],[3157,822],[-479,-9394],[-3586,264],[3347,-6077],[-11142,-4580],[2678,-6164],[-3395,-2760]],[[637193,632045],[-621,7427],[5834,4961],[-4448,11655],[-1482,12564]],[[793802,407879],[-1817,-6576],[6503,-1556],[-4591,-1761]],[[793897,397986],[-11285,-4228],[-2200,-8807],[6073,294],[-860,-19904],[-3109,-7808]],[[782516,357533],[-5355,851],[-1339,4697],[-9803,-617],[-1387,-9452],[-11046,-3406]],[[753586,349606],[-2869,558],[-1674,16616],[-2630,-5020],[-6791,1732],[-5499,-2026],[-5260,3259],[-12624,59],[-7030,3258],[-2056,-4726],[-4065,147],[-5690,-4316],[-813,5402],[-3491,-7163],[-8129,792],[-4352,-5959],[2057,-2848],[-6982,-1409],[-9994,5754],[-479,8014],[-12002,-880],[-10568,2759],[-4017,10510],[-5786,2407]],[[632842,376526],[-5882,6517],[8894,-792],[-717,5225],[4878,4961],[-2726,3758],[-6790,-3347],[-1100,29386],[10711,734],[4878,6459],[10472,2054],[15781,-2642],[1243,4052],[6312,-4903],[4543,2965],[3156,-2319],[6264,1761],[-478,3963],[12385,177]],[[651683,543212],[-5882,-3728],[-861,5490],[-9325,-1351],[4017,-8396],[-7842,-7456],[8559,-2613],[-1291,-5167],[-6264,2466],[-10712,-1556],[1100,-5225],[-11189,-2995],[908,-4286],[-8129,1703]],[[604772,510098],[956,3816],[-12481,1909],[-7077,-1116],[1817,7691],[-6838,3200],[-13915,646],[-3874,9570],[-2486,-7691],[-6073,2055],[-766,10832],[3874,2114],[-7747,3406]],[[553127,602424],[8177,-3552],[-3873,-16528],[7172,-5519],[8847,6811],[6025,-616]],[[765588,741897],[-23622,-15119],[430,-5166],[-4973,-646],[-3874,-6371],[-8033,-1644]],[[725516,712951],[-1483,1850],[8417,3376],[-383,2818],[-36725,793]],[[685443,756927],[-908,7545],[4255,5695],[12194,2407],[-2295,4463],[2869,12300],[4734,264],[4256,10069]],[[742300,295796],[1196,10040],[-2726,9453],[7077,2055],[-669,7221]],[[747178,324565],[7986,-147],[14585,-8425],[813,-6106],[5164,-1262],[0,8601],[18984,4550],[1626,-5842],[11716,2496],[-7460,3699],[-239,6429],[-3491,11361],[10616,411],[6073,-2789]],[[827132,334987],[-6504,-5695],[2152,-4404],[-2104,-8073],[-6790,-2906],[-1052,-8690],[7603,-2554],[-1721,-6223],[-8703,-30],[-813,-8043],[2247,-1586],[4304,-11772],[11477,764],[526,-8514],[4542,-7397],[-2821,-4551]],[[789402,149718],[-9037,-13093],[-9182,1321],[-1817,-5901],[-6551,-6752],[7125,-5548],[1148,-3611]],[[771088,116134],[-6504,7427],[-15732,6165]],[[551501,603217],[-717,7045],[6551,15383],[-3300,-381],[2822,12564],[-10042,7075],[6790,2378],[430,9012],[4161,411],[7938,-6106],[6886,14414]],[[573020,665012],[4160,2231],[9516,-10568],[-7747,0],[-95,-4521],[10711,-2436],[5499,3757],[4830,-176],[-2104,-4697],[12385,-8719],[5021,4873],[3443,-2172],[-6694,-9923],[6981,-2935]],[[963704,673056],[-3586,-3963],[-7938,2613],[-21423,-1380],[-861,-7604],[-10090,852],[-12959,3464],[-6599,-1116],[-5643,3171],[-7221,-382]],[[867970,712247],[-431,5284],[7269,9658],[7221,1468],[13819,-558],[192,-3258],[0,-30],[1673,-10128],[5404,676],[96,10950],[1817,-59],[95,14649],[18411,-3582]],[[923536,737317],[-622,-14972],[-1913,-5930],[4400,411],[7794,-8073],[-1004,-10656],[6504,-3493],[15589,-3464],[7459,-3729],[2391,-5724],[-430,-8631]],[[763341,522134],[-2343,-7926],[3108,-1321]],[[749617,505783],[-287,4697],[-6791,-2496],[-8320,8602],[-4208,10040],[-6408,-1116],[-1100,12066],[-9420,10098]],[[713083,547674],[33091,16968],[4495,-6693],[9611,-734]],[[748517,622680],[95,-58],[1674,381],[3539,-2378]],[[694577,627553],[10137,-10333],[18841,-1820],[10281,1321],[96,3816],[10616,5989],[3969,-3846]],[[801453,672997],[-17072,264],[-2486,7545],[-23671,705],[-9659,4256],[-15446,16880],[-7603,10304]],[[963704,673056],[9181,-499],[-1434,-4756],[-5308,-3024],[4351,-6810],[-286,-5549],[6312,-469],[5738,-8749],[-1291,-2671],[-10520,5079],[430,-10040],[1004,-31294]],[[895179,653064],[-11764,6605],[-4351,-440],[2821,5255]],[[826941,433918],[9755,1086],[-6838,6547],[1912,3434],[10329,1909],[-2964,4843],[7125,1351],[-383,8366],[5499,-2935],[4352,3435],[16641,2054]],[[872369,464008],[1865,-7074],[-13389,-5108],[7125,-16147],[-2248,323],[0,-10216],[2487,470]],[[868209,426256],[3969,-11449]],[[872178,414807],[-6265,-6957],[8034,-13270],[-2582,-5254],[4782,-3875],[2439,-8250]],[[878586,377201],[-4017,499],[-478,-10480],[-5595,-3934]],[[868496,363286],[-6552,-1056],[718,8307],[-2869,7868],[-3348,205],[3730,14503],[-10185,-1233],[-2630,7750],[3012,5049],[-14728,2143],[478,9658],[-8082,5314],[-1099,12124]],[[890206,519052],[-5165,4609],[-7890,-1996]],[[519223,753052],[10664,-6810],[2821,-12917],[11668,88],[-4065,-2701],[813,-7104],[7125,-7163],[-10759,-6870]],[[868209,426256],[23862,5284],[5834,-117],[2295,-4286],[11716,1233],[-909,3405],[13342,-6135],[7029,3493],[5595,-9453],[-1865,-11684],[-3969,-4990],[1196,-5020],[-17598,1321],[-8129,-4844],[-10712,15999],[-8368,-2436],[-11046,-265],[-4304,7046]],[[512385,842590],[-48,-12741],[-3300,176],[479,-17027],[-3396,-10509],[12959,1673],[-812,-3787]],[[518267,800375],[-909,-3435],[-8225,1791],[-4256,-14766],[4256,616],[6073,-5754],[1578,-9893]],[[506790,687030],[-4256,-4785],[-11381,2054]],[[442473,866163],[69912,-23573]],[[952419,210075],[4017,-5460],[8703,-3641],[-957,-12770],[4256,-5871],[622,-7310],[5786,-10480],[-11094,-12682],[3108,-9776],[4926,-3992],[2151,-12477],[-765,-6429],[5978,1468],[-1483,-5372],[10568,-4110],[11764,-1820],[-6456,-851],[-7842,-14708],[-5691,-9012],[3013,-3347],[-5786,-1585],[-3921,-10657],[-4065,-1438],[-335,-6723],[-4973,-3024],[-2343,-2436],[48,-9013],[-8369,1028],[-6503,-3171],[-14489,-3669],[-2726,-9864],[-3539,-1673],[11573,-1116],[-5786,-4051],[-718,-6664],[-4208,1673],[-6169,-3933],[-8559,1644]],[[925927,238433],[2965,-4990],[9468,-59],[10138,-6253],[3921,-17056]],[[949980,812558],[-9229,-15119],[-9468,-29],[-3061,-5842],[5930,2671],[1912,-3875],[6552,-352],[-6169,-9277],[11381,-5342],[622,-4609],[4782,-3259],[-2726,-3170],[10233,-59],[96,-4433],[-17980,-205],[95,-16264],[-20610,587],[1196,-6664]],[[800497,812793],[116966,-264],[32517,29]],[[713083,547674],[-670,2378]],[[702849,568312],[3013,2495],[22188,3141]],[[729533,134834],[-10712,2290],[-6647,3905],[-10807,11537],[-10281,6575],[-9564,206],[-9994,4961],[2104,32292]],[[673632,196600],[61256,441]],[[771375,114696],[-287,1438]],[[243831,931804],[34191,-11537],[130451,-42773]],[[980823,367895],[3061,-3405],[1195,-8190],[2774,-2026],[-1578,-10862],[5356,-9130],[-6265,-734],[287,-4873],[-4734,-2730],[-7986,4785],[-4925,-1967],[-717,-7045],[-6982,1908],[-9612,-5138],[-31704,-1555],[-3873,2554],[-1770,-3641],[-3634,3582],[-7890,-793],[1434,-14531]],[[903260,304104],[-11094,9834],[-3395,-2260],[-10568,3317],[-7938,-176],[-4925,13122],[-7173,3083]],[[858358,357180],[10281,1086],[-143,5020]],[[878586,377201],[7985,-1878],[5500,3405],[334,-6576],[8464,382],[1244,-2319],[8512,616],[7412,-5519],[6838,4227],[3873,-6810],[4017,528],[-1817,7369],[8607,-441],[1770,-7339],[3921,-3699],[11524,-2965],[10855,147],[2248,5225],[5690,1351],[5260,4990]],[[702897,440699],[-12529,7516],[-4447,-10774],[-7460,2525],[3157,5225],[-6791,-294],[1961,9717],[6742,3699],[2391,11655],[-16402,9159],[9421,3670],[-11907,14531]],[[667033,497328],[9563,14326],[-4590,-1350],[-144,9364],[-2247,7839]],[[574837,715153],[-3874,-10216],[-7172,-8073]],[[563791,696864],[-29935,-1409]],[[518267,800375],[14011,-3141],[-2870,-13123],[8847,-1908],[-5499,-3317],[3538,-3170],[1961,4579],[4686,558],[4830,-8631],[3826,-2906],[-5691,-6752],[5165,-8690],[10233,-88],[-144,13563],[9325,-1908],[1100,4932],[-10377,968],[718,5813],[5881,-29],[718,4168],[6312,-6987]],[[563791,696864],[-2583,-4521],[8273,-4315],[-3443,-9071],[11572,-6195],[-5547,-5078],[957,-2672]],[[859506,520696],[3251,-11156],[-6933,-7897],[-6839,-3111],[-2151,-7516],[-5500,646],[-382,-3963]],[[840952,487699],[-9660,1292],[3587,4814],[-6408,1674],[-9421,-2789],[-6216,12506],[-6838,3787],[-4017,10803],[6360,5577]],[[782516,357533],[-1099,-5461],[5260,3905],[10185,1673],[5786,-8191],[5787,-58],[7220,5695],[-621,4139]],[[815034,359235],[3538,-2202]],[[747178,324565],[-1722,7016],[6313,3171],[2391,7339],[-574,7515]],[[815034,359235],[-670,5901],[4352,1556],[-7221,9599],[1339,10334],[-5404,4873],[-11189,3288],[-2344,3200]],[[782516,451268],[6743,1497],[10998,-9189],[15924,-4550],[7317,-264],[3443,-4844]],[[512385,842590],[66756,-22810]],[[656560,812646],[54514,29]],[[840952,487699],[-765,-7574],[8464,176],[10137,8660],[2965,235],[5547,-6458],[6838,-12389],[-1769,-6341]],[[667033,497328],[-11955,-528],[3873,-6664],[-8320,-9659],[-7986,6400],[3251,5989],[-7364,2202],[-9898,-9277],[-20850,29],[-3012,7633],[-4447,-1204],[47,4463],[15016,411],[-1005,5254],[-12337,-1174],[2726,8895]],[[953853,479509],[-2295,-17262],[2487,1556],[4590,-7134],[-4686,-5020],[4782,-25892],[-1291,-8425],[2773,-1233],[6791,-17966],[8942,-4052],[0,-3816],[574,-13533],[4303,-8837]],[[903260,304104],[-334,-8748],[5451,-17791],[8034,-6341],[7842,-6164],[1052,-11244]],[[36151,999999],[186592,-61120]],[[157947,843441],[-2964,-5137],[-18411,352],[-8942,3170],[-14059,7662],[-5738,6312],[-23193,12154],[-9372,9658],[-9851,4403],[-8847,-440],[-6742,2730],[-5165,6341],[-7507,29],[-5117,7017],[-10616,1233],[-8273,8190],[-239,12711],[1578,6694],[-4925,17408],[2104,5079],[-11668,10862],[4208,7221],[9468,10011],[-956,6312],[5499,7662],[-1100,5783],[7938,2818],[5739,-2965],[5355,3288]],[[56905,880958],[11094,-499],[-2056,-4080],[-9038,4579]],[[673632,196600],[-5547,15001],[3538,14679],[-2295,12711],[4495,8308],[9946,1908],[-10663,6840]],[[637098,269522],[430,-2085]],[[637480,267261],[-9516,-5460],[-2486,-4433],[7603,1351],[-4160,-9982],[-11764,10481],[-2726,8308],[-6312,1174],[-6455,-3817],[-11573,7516],[-5164,1350],[-5452,7662],[-9898,6312],[-1100,5255],[-6743,7427],[-717,5754],[-6025,3493],[-1770,6459]],[[553222,316111],[15016,-4639],[-4687,7193],[7891,7662],[13341,-2760],[4017,1057],[-956,8044],[9181,-1175],[-1052,4110],[8942,1409],[-48,16880],[6791,-3170],[2391,8719],[8129,2935],[-2678,8807],[13342,5343]],[[553222,316111],[-10759,9717],[-765,7808],[-4495,3494],[-13581,4521],[-9516,4609],[-10137,2466],[-7939,21694],[-5499,5813],[-10233,6781],[-8464,7691],[-3778,6253],[7412,4727],[-12768,10098],[-6838,1586],[-2486,6429],[-9851,9951],[-9134,1586],[3443,2877],[-2582,5842],[430,14560],[-5738,10275],[-4065,294],[3157,9863],[-4830,12154]],[[376960,392643],[-143,-9512],[-7125,265],[-1578,8572],[8846,675]],[[416507,472581],[4495,-5255],[-1865,-9042],[7794,-10979],[3109,-8837],[-5595,-23103],[-4878,-7604],[-765,-8924],[-4925,-3611],[-7747,2319],[-6216,5578],[-8417,969],[-1626,2701],[-17406,9306],[10616,6722],[3682,5020],[-2486,10451],[4256,24865],[4303,5167],[5643,-2319],[7795,5607],[10233,969]]],"transform":{"scale":[0.000006628600638546297,0.000006195136314300715],"translate":[-115.0530966431105,26.29855351840959]},"objects":{"municipalities":{"type":"GeometryCollection","geometries":[{"arcs":[[0,1,2,3]],"type":"Polygon","properties":{"cvegeo":"26026","nombre":"Etchojoa"}},{"arcs":[[4,5,6,7,-4]],"type":"Polygon","properties":{"cvegeo":"26042","nombre":"Navojoa"}},{"arcs":[[8,9,10,11]],"type":"Polygon","properties":{"cvegeo":"26012","nombre":"Bácum"}},{"arcs":[[-1,-8,12,13]],"type":"Polygon","properties":{"cvegeo":"26033","nombre":"Huatabampo"}},{"arcs":[[14,15,16,17,18,19]],"type":"Polygon","properties":{"cvegeo":"26032","nombre":"Huásabas"}},{"arcs":[[20,21,22,23,24]],"type":"Polygon","properties":{"cvegeo":"26048","nombre":"Puerto Peñasco"}},{"arcs":[[25,-24,26,27,28,29]],"type":"Polygon","properties":{"cvegeo":"26017","nombre":"Caborca"}},{"arcs":[[30,31,32,33,34,35,36]],"type":"Polygon","properties":{"cvegeo":"26050","nombre":"Rayón"}},{"arcs":[[37,38,-6,39,40]],"type":"Polygon","properties":{"cvegeo":"26049","nombre":"Quiriego"}},{"arcs":[[-30,41,42,43,44,45,46]],"type":"Polygon","properties":{"cvegeo":"26047","nombre":"Pitiquito"}},{"arcs":[[47,48,49,50,51]],"type":"Polygon","properties":{"cvegeo":"26046","nombre":"Oquitoa"}},{"arcs":[[52,53,54,-37,55,56,57,58]],"type":"Polygon","properties":{"cvegeo":"26045","nombre":"Opodepe"}},{"arcs":[[59,60,61,62,63]],"type":"Polygon","properties":{"cvegeo":"26044","nombre":"Ónavas"}},{"arcs":[[64,65,66,67,68,69]],"type":"Polygon","properties":{"cvegeo":"26043","nombre":"Nogales"}},{"arcs":[[70,71,72,73,74,75,76,77]],"type":"Polygon","properties":{"cvegeo":"26041","nombre":"Nacozari de García"}},{"arcs":[[78,79,80,81]],"type":"Polygon","properties":{"cvegeo":"26040","nombre":"Nácori Chico"}},{"arcs":[[82,83,84,85,86]],"type":"Polygon","properties":{"cvegeo":"26039","nombre":"Naco"}},{"arcs":[[87,88,89,90,91,92,93,94,-15]],"type":"Polygon","properties":{"cvegeo":"26038","nombre":"Moctezuma"}},{"arcs":[[95,96,97,98]],"type":"Polygon","properties":{"cvegeo":"26037","nombre":"Mazatán"}},{"arcs":[[99,100,101,102,-67]],"type":"Polygon","properties":{"cvegeo":"26036","nombre":"Magdalena"}},{"arcs":[[-66,103,104,105,106,-100]],"type":"Polygon","properties":{"cvegeo":"26035","nombre":"Imuris"}},{"arcs":[[107,-94,108,109,-31,-55,110]],"type":"Polygon","properties":{"cvegeo":"26034","nombre":"Huépac"}},{"arcs":[[111,-82,112,-18,113,114]],"type":"Polygon","properties":{"cvegeo":"26031","nombre":"Huachinera"}},{"arcs":[[115,116,117,-98,118,119]],"type":"Polygon","properties":{"cvegeo":"26068","nombre":"Villa Pesqueira"}},{"arcs":[[120,121,-88,-20]],"type":"Polygon","properties":{"cvegeo":"26028","nombre":"Granados"}},{"arcs":[[-78,122,123,-84,124]],"type":"Polygon","properties":{"cvegeo":"26027","nombre":"Fronteras"}},{"arcs":[[125,126,127,128]],"type":"Polygon","properties":{"cvegeo":"26025","nombre":"Empalme"}},{"arcs":[[129,130,131,-89,-122]],"type":"Polygon","properties":{"cvegeo":"26024","nombre":"Divisaderos"}},{"arcs":[[132,-16,-95,-108,133,134,-75]],"type":"Polygon","properties":{"cvegeo":"26023","nombre":"Cumpas"}},{"arcs":[[135,-59,136,-101,-107]],"type":"Polygon","properties":{"cvegeo":"26022","nombre":"Cucurpe"}},{"arcs":[[-99,-118,137,138,139,140,141]],"type":"Polygon","properties":{"cvegeo":"26021","nombre":"La Colorada"}},{"arcs":[[-56,-36,142,143,-45,144]],"type":"Polygon","properties":{"cvegeo":"26020","nombre":"Carbó"}},{"arcs":[[-124,145,146,-105,147,-85]],"type":"Polygon","properties":{"cvegeo":"26019","nombre":"Cananea"}},{"arcs":[[-12,148,149,-62,150,-40,-5,151,152]],"type":"Polygon","properties":{"cvegeo":"26018","nombre":"Cajeme"}},{"arcs":[[-57,-145,-44,153,154]],"type":"Polygon","properties":{"cvegeo":"26016","nombre":"Benjamín Hill"}},{"arcs":[[155,-72,156,157]],"type":"Polygon","properties":{"cvegeo":"26015","nombre":"Bavispe"}},{"arcs":[[-92,158,-120,159,160]],"type":"Polygon","properties":{"cvegeo":"26014","nombre":"Baviácora"}},{"arcs":[[161,-134,-111,-54,162]],"type":"Polygon","properties":{"cvegeo":"26013","nombre":"Banámichi"}},{"arcs":[[-146,-123,-77,163]],"type":"Polygon","properties":{"cvegeo":"26011","nombre":"Bacoachi"}},{"arcs":[[164,-115,165,-73,-156]],"type":"Polygon","properties":{"cvegeo":"26010","nombre":"Bacerac"}},{"arcs":[[166,167,168,169,170,171]],"type":"Polygon","properties":{"cvegeo":"26009","nombre":"Bacanora"}},{"arcs":[[-81,172,-130,-121,-19,-113]],"type":"Polygon","properties":{"cvegeo":"26008","nombre":"Bacadéhuachi"}},{"arcs":[[-52,173]],"type":"Polygon","properties":{"cvegeo":"26007","nombre":"Atil"}},{"arcs":[[-164,-76,-135,-162,-163,-53,-136,-106,-147]],"type":"Polygon","properties":{"cvegeo":"26006","nombre":"Arizpe"}},{"arcs":[[-169,174]],"type":"Polygon","properties":{"cvegeo":"26005","nombre":"Arivechi"}},{"arcs":[[175,176,-50,177,-42,-29,178]],"type":"Polygon","properties":{"cvegeo":"26004","nombre":"Altar"}},{"arcs":[[179,-13,-7,-39,180]],"type":"Polygon","properties":{"cvegeo":"26003","nombre":"Álamos"}},{"arcs":[[181,-157,-71,-125,-83,182]],"type":"Polygon","properties":{"cvegeo":"26002","nombre":"Agua Prieta"}},{"arcs":[[-93,-161,183,-33,184,-109]],"type":"Polygon","properties":{"cvegeo":"26001","nombre":"Aconchi"}},{"arcs":[[-10,185,186]],"type":"Polygon","properties":{"cvegeo":"26072","nombre":"San Ignacio Río Muerto"}},{"arcs":[[-3,187,-152]],"type":"Polygon","properties":{"cvegeo":"26071","nombre":"Benito Juárez"}},{"arcs":[[-23,188,-27]],"type":"Polygon","properties":{"cvegeo":"26070","nombre":"General Plutarco Elías Calles"}},{"arcs":[[189,190,-60,191,-171,192]],"type":"Polygon","properties":{"cvegeo":"26069","nombre":"Yécora"}},{"arcs":[[-166,-114,-17,-133,-74]],"type":"Polygon","properties":{"cvegeo":"26067","nombre":"Villa Hidalgo"}},{"arcs":[[-184,-160,-119,-97,193,194,-34]],"type":"Polygon","properties":{"cvegeo":"26066","nombre":"Ures"}},{"arcs":[[-68,-103,195,196,-48,-174,-51,-177,197]],"type":"Polygon","properties":{"cvegeo":"26065","nombre":"Tubutama"}},{"arcs":[[198,-154,-43,-178,-49,-197]],"type":"Polygon","properties":{"cvegeo":"26064","nombre":"Trincheras"}},{"arcs":[[199,200,-90,-132]],"type":"Polygon","properties":{"cvegeo":"26063","nombre":"Tepache"}},{"arcs":[[201,202,-63,-150,203,-140]],"type":"Polygon","properties":{"cvegeo":"26062","nombre":"Suaqui Grande"}},{"arcs":[[-172,-192,-64,-203,204,-138,-117,205]],"type":"Polygon","properties":{"cvegeo":"26061","nombre":"Soyopa"}},{"arcs":[[-198,-176,206,-69]],"type":"Polygon","properties":{"cvegeo":"26060","nombre":"Sáric"}},{"arcs":[[207,-86,-148,-104,-65]],"type":"Polygon","properties":{"cvegeo":"26059","nombre":"Santa Cruz"}},{"arcs":[[-137,-58,-155,-199,-196,-102]],"type":"Polygon","properties":{"cvegeo":"26058","nombre":"Santa Ana"}},{"arcs":[[-201,208,-167,-206,-116,-159,-91]],"type":"Polygon","properties":{"cvegeo":"26057","nombre":"San Pedro de la Cueva"}},{"arcs":[[-35,-195,209,-143]],"type":"Polygon","properties":{"cvegeo":"26056","nombre":"San Miguel de Horcasitas"}},{"arcs":[[-202,-139,-205]],"type":"Polygon","properties":{"cvegeo":"26054","nombre":"San Javier"}},{"arcs":[[-185,-32,-110]],"type":"Polygon","properties":{"cvegeo":"26053","nombre":"San Felipe de Jesús"}},{"arcs":[[-173,-80,210,-193,-170,-175,-168,-209,-200,-131]],"type":"Polygon","properties":{"cvegeo":"26052","nombre":"Sahuaripa"}},{"arcs":[[-191,211,-41,-151,-61]],"type":"Polygon","properties":{"cvegeo":"26051","nombre":"Rosario"}},{"arcs":[[[212,-21,213]],[[214]]],"type":"MultiPolygon","properties":{"cvegeo":"26055","nombre":"San Luis Río Colorado"}},{"arcs":[[-204,-149,-11,-187,215,-128,216,-126,217,218,-141]],"type":"Polygon","properties":{"cvegeo":"26029","nombre":"Guaymas"}},{"arcs":[[[-46,-144,-210,-194,-96,-142,-219,219]],[[220]],[[221]]],"type":"MultiPolygon","properties":{"cvegeo":"26030","nombre":"Hermosillo"}}]}}}