{"type":"Topology","arcs":[[[577088,939467],[28742,-1220],[22788,-37361],[49066,-36585],[-1848,-11198],[30384,-6208],[22172,10532]],[[728392,857427],[22172,-29933],[11291,665],[5543,-25056],[-54609,-12195],[-410,-21397],[-26073,-3104]],[[686306,766407],[-25046,0],[-16424,26829],[1027,16741],[-27100,-12306],[5543,-12195],[-26688,-12860]],[[597618,772616],[-41059,9756],[-13345,-12639],[-23814,39801],[10060,22838],[821,61086],[18271,17184],[1848,33481],[26688,-4656]],[[911927,999999],[10470,-26053],[26894,-18625],[-7391,-37805],[8417,-29158],[4311,-20399]],[[954628,867959],[-23609,-14080],[-24635,14635],[-18272,-2883],[4312,-29601],[-31205,-54989],[-3285,-16297],[-21146,-15853],[-10470,-27162],[-17861,11973],[7596,-25610],[-21350,3326],[21350,-40465]],[[816053,670953],[-6364,-17739],[-28125,887]],[[781564,654101],[-26278,333]],[[755286,654434],[-14782,1885],[-37158,33924],[-6159,56209],[-10881,19955]],[[728392,857427],[24635,7761],[11702,-12085],[28331,47672],[-2463,24945],[45575,-9202],[20119,21397],[-3284,24390],[29357,12639],[10265,22727],[19298,2328]],[[998357,763746],[-12113,-26496],[13755,-11752],[-1026,-34146],[-616,-2439],[-78218,-12860],[-3285,-7207],[-40649,-13969],[-42086,26497],[-18066,-10421]],[[954628,867959],[15603,-27383],[3490,-27384],[-23609,-776],[-5543,-19734],[21556,-17849],[32232,-11087]],[[755286,654434],[-5954,-20732],[-41265,-21064],[-8211,-21286],[-29768,-15078],[-57073,6209]],[[613015,582483],[-11086,10754]],[[601929,593237],[-17245,11862],[5338,28714],[-1642,29158],[-18272,40022],[19503,9423],[-4927,23060]],[[584684,735476],[-3284,19290],[16218,17850]],[[785054,597560],[-12934,-49224],[-33463,-48447],[-17245,-6209],[-4927,-25942],[-37775,-36253],[11702,-19734],[18271,-27938],[-46191,-14745],[-32848,-25277],[-6569,7428],[-65285,-24834]],[[557790,326385],[-16834,4989],[8007,17517],[-24841,35809],[-27099,5765],[-11292,-10532],[-13549,44568],[15397,21175],[-19914,2217]],[[467665,447893],[10060,14745],[38596,13747],[-15192,18626],[10470,14301],[-24020,4435],[-24636,20066],[4928,11419],[53993,-3880],[1026,22616]],[[522890,563968],[43112,-6319],[19709,27938],[16218,7650]],[[613015,582483],[-23198,-10089],[24019,-37361],[41060,-2328],[17245,-13082],[33258,32483],[20940,-1109],[9033,51996],[49682,-5433]],[[781564,654101],[-5749,-8536],[22583,-24280],[-13344,-23725]],[[522890,563968],[-18682,42129],[-10265,-13969],[-29973,26718],[-38596,16187],[-24019,-16630],[-22583,-1885]],[[378772,616518],[-2258,6209],[-7391,13747],[19503,66408],[-9649,4324],[16013,17516],[25047,-3548],[28330,-16629],[10265,-9535],[38185,-7095],[58715,47339],[29152,222]],[[467665,447893],[-59741,-4102]],[[407924,443791],[12113,34590],[-43934,8315],[-29357,38913],[-13139,-1884],[-7186,26385]],[[326421,550110],[20530,45122],[-205,13747],[25046,-8536],[6980,16075]],[[407924,443791],[-1232,-19512],[17245,-5211],[-7391,-34922],[-25046,-14412]],[[391500,369734],[-13755,8869],[-43112,-5211],[10676,-12638],[-8007,-26719]],[[337302,334035],[-74317,-9534],[-3490,7649]],[[259495,332150],[7390,22839],[-8417,19179],[22583,52883],[-12934,2106],[-29152,80599],[-28536,-6209],[18682,30710],[35311,16297]],[[264422,550554],[61999,-444]],[[557790,326385],[-60151,-13636]],[[497639,312749],[-21351,-2328],[-5338,18182],[15603,3215],[-24431,13858],[-9238,-8093],[-14165,29933],[-47219,2218]],[[227058,569290],[37364,-18736]],[[259495,332150],[12112,-29933],[-35927,4324]],[[235680,306541],[-44138,-7761],[-13961,-11308],[-14781,31707]],[[162800,319179],[3901,23171],[-2464,46341],[-28947,17739],[3080,46674],[-15808,19623],[38185,25831],[9238,26386]],[[169985,524944],[44344,23614],[1232,25388],[11497,-4656]],[[80271,547893],[12112,-17073],[25662,-7428],[51940,1552]],[[162800,319179],[-24430,-18071]],[[138370,301108],[-19093,23725],[-13549,16741],[-36133,2882]],[[69595,344456],[-26277,26941],[-13961,-3105],[-7185,22949],[-12934,3437],[-9238,24612],[30589,11641],[-9649,23281],[2874,33814],[37364,13969],[-3695,10089],[24430,22949],[-1642,12860]],[[497639,312749],[-4722,-37472],[-206,-1885]],[[492711,273392],[-14781,-11641],[-34490,3326],[-17655,-20066],[-20325,36363],[-18066,2550],[-5543,25167],[-17860,5986],[-20941,-12195]],[[343050,302882],[-11907,7539],[6159,23614]],[[492711,273392],[-15191,-127716],[-35106,10643],[-13550,-21729],[7596,-11641],[2053,-8537],[-20529,-776],[-4517,21841],[-12728,-7761]],[[400739,127716],[-28331,-19180],[-30795,11974],[7596,10089],[-24635,10643],[12317,15188],[-7390,18958],[-39622,2771],[-22378,22949]],[[267501,201108],[-8212,4324]],[[259289,205432],[40033,43459],[27099,5100],[-410,16297],[16834,5987],[205,26607]],[[235680,306541],[8212,-7761],[-21351,-25388],[3490,-11641],[-31410,-4989],[27920,-56208],[36748,4878]],[[267501,201108],[-7596,-18292],[-34284,-4546],[-6980,-19401],[-31411,-2882]],[[187230,155987],[-28125,1884],[-23199,11308],[-10880,32705]],[[125026,201884],[1231,28382],[21762,48226],[-9649,22616]],[[125026,201884],[-3901,8981],[-39212,6984],[-12112,23725],[0,29047],[-12523,27383],[1847,22395],[12934,-776],[-2464,24833]],[[400739,127716],[7596,-22727],[21761,-16962],[-6159,-33482],[10060,-33370],[-34901,-3104],[-12933,11197],[-28331,-24944],[-21351,-4324],[-39417,9091],[-41265,19179],[2464,32927],[-24841,8204],[28536,19956],[6775,17738],[-51324,38027],[-30179,10865]]],"transform":{"scale":[0.0000015439897527906926,0.0000016404453251230739],"translate":[-100.59647290527568,20.029403379326816]},"objects":{"municipalities":{"type":"GeometryCollection","geometries":[{"arcs":[[0,1,2,3]],"type":"Polygon","properties":{"cvegeo":"22003","nombre":"Arroyo Seco"}},{"arcs":[[4,5,6,7,8,-2,9]],"type":"Polygon","properties":{"cvegeo":"22009","nombre":"Jalpan de Serra"}},{"arcs":[[10,-6,11]],"type":"Polygon","properties":{"cvegeo":"22010","nombre":"Landa de Matamoros"}},{"arcs":[[-9,12,13,14,15,-3]],"type":"Polygon","properties":{"cvegeo":"22002","nombre":"Pinal de Amoles"}},{"arcs":[[16,17,18,19,-14,20]],"type":"Polygon","properties":{"cvegeo":"22004","nombre":"Cadereyta de Montes"}},{"arcs":[[-21,-13,-8,21]],"type":"Polygon","properties":{"cvegeo":"22015","nombre":"San Joaquín"}},{"arcs":[[-15,-20,22,23]],"type":"Polygon","properties":{"cvegeo":"22013","nombre":"Peñamiller"}},{"arcs":[[-19,24,25,26,-23]],"type":"Polygon","properties":{"cvegeo":"22018","nombre":"Tolimán"}},{"arcs":[[-26,27,28,29,30,31]],"type":"Polygon","properties":{"cvegeo":"22005","nombre":"Colón"}},{"arcs":[[-18,32,33,-28,-25]],"type":"Polygon","properties":{"cvegeo":"22007","nombre":"Ezequiel Montes"}},{"arcs":[[34,-31,35,36,37,38]],"type":"Polygon","properties":{"cvegeo":"22011","nombre":"El Marqués"}},{"arcs":[[39,-38,40,41,42]],"type":"Polygon","properties":{"cvegeo":"22014","nombre":"Querétaro"}},{"arcs":[[-34,43,44,45,-29]],"type":"Polygon","properties":{"cvegeo":"22017","nombre":"Tequisquiapan"}},{"arcs":[[46,47,48,49,-45]],"type":"Polygon","properties":{"cvegeo":"22016","nombre":"San Juan del Río"}},{"arcs":[[50,-49,51,52,53,-41,-37]],"type":"Polygon","properties":{"cvegeo":"22008","nombre":"Huimilpan"}},{"arcs":[[-46,-50,-51,-36,-30]],"type":"Polygon","properties":{"cvegeo":"22012","nombre":"Pedro Escobedo"}},{"arcs":[[-42,-54,54]],"type":"Polygon","properties":{"cvegeo":"22006","nombre":"Corregidora"}},{"arcs":[[55,-52,-48]],"type":"Polygon","properties":{"cvegeo":"22001","nombre":"Amealco de Bonfil"}}]}}}