{"type":"Topology","arcs":[[[111894,403923],[-11440,4475],[-75,5808],[-12197,-47]],[[88182,414159],[16212,11902],[6060,15854],[-3030,9189],[-8636,4856],[8863,8189],[2197,11569],[9016,7761],[5757,-2428],[455,13949],[7727,15902],[12121,10808]],[[144924,521710],[8864,-16378],[1060,-7665],[15152,-8332],[2045,-12188],[-3939,-2095]],[[168106,475052],[-3106,-143],[-9697,-3952],[-5379,-5332],[-3788,-5047],[-13333,905],[379,-762],[-606,-1095],[-1288,667],[-2197,1476],[-303,190],[-1212,286],[-531,0],[-1439,-2428],[-76,95],[0,48],[-227,-191],[9697,-16425],[-2576,-6142],[6515,-6951],[-1363,-12379]],[[137576,417872],[-10531,1333],[-15151,-15282]],[[255454,110693],[-11515,5999],[-10757,-9332],[-12803,-999],[-1591,-11617],[5303,-1905],[-4394,-11997]],[[219697,80842],[-8409,-1095],[5227,12759],[-9167,6332],[-12954,-5523],[-13258,6333],[-22803,20519],[1591,12569],[-11439,8808],[-3788,23377],[-5152,6141],[-5757,-1999],[-20455,18234]],[[113333,187297],[15227,4809],[-1363,7142],[7500,9474],[3939,-2333],[21288,11807]],[[159924,218196],[3712,-2190],[-3560,-10760],[10075,-6951],[3258,4952],[11742,-6142],[11364,6380],[10076,-18187],[15530,0],[5758,-6856],[4772,6475],[12955,-2904],[13030,-6380]],[[258636,175633],[1818,-12188],[5152,476],[13182,-8189],[-5606,-6332],[5378,-9808]],[[278560,139592],[-11591,-3047],[910,-10760],[-10455,905],[-4015,-4237],[2045,-11760]],[[576590,870119],[7652,6808],[5606,-2095],[7273,-1523],[8863,-15902],[18031,9665],[1136,4095]],[[625151,871167],[5151,-5333],[1137,-4428],[-12727,-7665],[833,-9950],[6060,-6761],[-11893,-6189]],[[613712,830841],[-15379,10141],[-9470,-4571],[76,9856],[-12727,-2381],[2954,17568],[-2576,8665]],[[576590,870119],[-4091,-1333]],[[572499,868786],[379,12950],[-7273,2333],[-6287,-7285],[2727,14569],[-5152,8998],[14091,5476],[4773,6046],[12727,-5332],[3106,4570],[4925,-7903],[7197,1143],[0,-7904],[-9925,-6951],[-2954,-11664],[7575,3952],[21970,-1619],[4773,-8998]],[[422727,890449],[-11667,-6666],[-11666,15235]],[[399394,899018],[4621,11903],[10454,6094],[6515,14664],[-17272,12426],[7954,2190],[-10303,13331],[-2348,14711],[2348,4333],[-13788,6379],[11212,13141],[27955,1809],[13182,-5332],[17651,47],[6061,-2713],[-4546,-28376],[-19545,-9665],[-4773,-13807],[3106,-5189],[-5530,-7380],[4621,-15330],[-14242,-21805]],[[478939,837221],[1591,-4999],[19015,-3000],[5758,7332],[10075,-1143]],[[515378,835411],[-3257,-13426],[3788,-17710],[-6743,-5761],[3485,-5475],[-6894,-9522],[7273,-5523],[-8182,-524],[-3258,-8379],[-6363,333]],[[495227,769424],[-8106,5380],[682,2000],[-228,-48],[834,4475],[378,905],[0,95],[-6591,48],[-1515,2333]],[[480681,784612],[606,952],[-6591,9903],[-6590,1523],[-834,191],[-75,0],[-12349,-5380],[-1515,-5190],[-909,0],[-4773,-666],[-4470,2380],[303,9713],[379,5094],[-151,381],[-455,2856]],[[443257,806369],[9394,5333],[-10454,10617],[3181,12664],[-2272,5380],[8030,714],[4697,6523],[12879,-3190],[606,3856],[9621,-11045]],[[563105,788516],[-1590,-7380],[-10531,-4047],[-7121,-666],[-12121,-14855],[-152,-6808],[-7727,5190],[-5606,-7380],[-11061,-381]],[[507196,752189],[-12803,8761],[834,8474]],[[515378,835411],[5379,-2999],[15758,1143]],[[536515,833555],[10378,-6332],[8637,-23186],[6439,-1000],[1136,-14521]],[[536515,833555],[5606,6475],[4166,19996],[16970,7760],[9242,1000]],[[613712,830841],[-6516,-8284],[11061,-2333],[379,-4285],[-1212,-8570],[-14622,-4666],[-7045,477],[2273,-7475],[-17576,666],[-3106,4333],[-14243,-12188]],[[443257,806369],[-10151,-1761],[-1288,5475],[-7349,-3714],[-379,-19805],[-13787,4142],[-8788,-5666],[-8106,6237],[-9470,-16473],[-7803,1333],[-6667,7713],[-2803,-6713],[-9394,-1190]],[[357272,775947],[6212,20043],[-4621,3809],[-12424,-4856],[-11667,9427],[-8030,-7189],[-8636,-381],[-303,36279],[8712,34850],[7879,8189],[757,17663],[8637,1238],[454,11426],[10909,7761],[10530,-8094],[-1818,12760],[-6591,4189],[1212,12474],[7046,2523],[12348,-4475],[-1742,4999],[9924,4618],[6591,-17472],[-10227,-29185],[10909,5618],[6061,-3143]],[[422727,890449],[5757,-24758],[9243,-18425],[8333,31709],[-4091,14378],[8106,8855],[303,13283],[5606,13188],[4243,20425],[10000,4809],[15606,-6999],[12273,3190],[6060,-8951],[3030,-22995],[-5227,-7951],[-3030,-18044],[-6743,1333],[-681,-12569],[9242,-4619],[-7500,-10188],[-7273,-18854],[-7045,-10045]],[[743636,736573],[6742,-95],[32348,-19425]],[[782726,717053],[-4393,-8998],[-20834,-14569],[-9242,-1142],[-1970,1142],[-8712,-2809],[-10303,11522],[-9545,3952],[-3940,6713],[-8106,0],[-1439,16377]],[[704242,729241],[606,1095],[11818,2238],[1212,6237],[13712,3904],[12046,-6142]],[[896969,774661],[14621,5428],[10152,-762],[606,8998],[-12046,-2333],[-2803,6713],[8409,8665],[152,9808],[14318,-286],[5757,-5380],[6440,1952],[9545,-10664],[12273,-8475],[2045,-8855],[19319,2428],[1818,-16140],[6060,-11712],[6364,-3095],[-6742,-5522],[-11213,285],[1364,-11140],[5303,-334],[-8560,-27042],[1742,-6237],[-8712,-16521]],[[973181,684440],[-3864,-761],[-11212,9760],[909,9046],[-14015,9045],[-19470,21520],[5076,-524],[-6136,14569],[-7046,3999],[-7197,12855],[-11136,2333],[-2121,8379]],[[432803,746286],[10151,7998],[13864,3047],[75,-6380],[15303,-428],[7425,2666],[-3182,11379],[-1288,714],[1894,15949],[3636,3381]],[[507196,752189],[10379,-7951],[4924,-8760],[-4393,-16806],[-5303,-6761],[-1440,-19139],[-8712,3238],[-379,-7808],[-12954,4142],[-9394,-4857]],[[479924,687487],[-5228,10855],[1213,667],[4545,4951],[-4242,5856],[8939,10094],[4318,10998],[-11969,-6666],[-12122,7570],[-21591,2047],[-10984,12427]],[[358030,764520],[-758,11427]],[[432803,746286],[-9243,-2666]],[[423560,743620],[-14924,476],[-16136,5760],[-18637,-1095],[-15833,15759]],[[452424,669967],[-11894,6808],[-1212,9665],[-8334,4190],[-7651,5570],[3712,7618],[-5379,5998],[9546,15093],[-10379,12712],[2727,5999]],[[479924,687487],[-1894,-7189],[5227,-6141],[-6894,-10237],[10227,-761],[-530,-5713],[8788,-6047]],[[494848,651399],[-20833,-9950],[-8182,-4571]],[[465833,636878],[-4470,12379],[10303,4094],[-6894,12950],[-7197,6427],[-5151,-2761]],[[726893,607646],[2121,-9475],[-5075,667],[-33485,-12617]],[[690454,586221],[-9546,14283],[-4318,7522]],[[676590,608026],[6364,13188],[5076,-2333],[5833,8808],[5000,-3190],[10227,10808],[-379,7951],[11288,-12617]],[[719999,630641],[-5530,-5237],[12197,-11045],[227,-6713]],[[910075,557846],[-5227,-16426],[-6819,-11188],[-28106,-28614]],[[869923,501618],[-1288,9903],[-14166,-2000]],[[854469,509521],[3939,13331],[-3788,8094],[455,19472],[6212,7999]],[[861287,558417],[3030,-6475],[19697,1000],[5076,3856],[12348,-3190],[8637,4238]],[[854469,509521],[-9621,-95],[-1137,9141],[-16894,-3428]],[[826817,515139],[1364,7094],[1515,2476],[152,190],[4394,17711],[-4697,25281]],[[829545,567891],[8333,4190]],[[837878,572081],[13864,-1762],[9545,-11902]],[[561060,553418],[2727,-10474],[-5530,-9760],[4924,-2952],[-7651,-5333]],[[555530,524899],[-8258,5571],[-28257,10903],[-9167,-9094],[-13030,-428]],[[496818,531851],[-1743,11188],[3940,9236],[-15379,476],[6288,20806],[7197,9712]],[[497121,583269],[4545,-6665],[10076,-4190],[10076,7713],[1666,-4856],[8409,4094],[12576,-1476],[-454,-5903],[11742,-16521],[5303,-2047]],[[741439,572414],[3484,5713]],[[744923,578127],[-11136,16378],[9849,4952],[1136,9617],[-9924,2238]],[[734848,611312],[3182,10426],[12348,905],[5606,-3571],[11894,8332]],[[767878,627404],[11970,143],[-5531,-9522],[7576,-2476],[-2197,-12712],[8561,-8665],[-2803,-10046],[10151,381],[12500,-7046],[-303,-8046]],[[807802,569415],[-303,190],[-14469,1952],[-18788,-11474],[-9091,-904],[-6591,6046],[-6970,-3475]],[[751590,561750],[682,9522],[-10833,1142]],[[687878,559988],[-757,-8427],[6969,-1476]],[[694090,550085],[-12954,-12664],[-7349,6999]],[[673787,544420],[-7954,-715],[-13182,13141],[303,6951],[-11288,6094],[-11439,-2095]],[[630227,567796],[-152,-190],[-9621,8522],[6439,5856],[-3106,10664],[8334,18092],[5530,-5523],[7121,4619],[11667,-11808],[8939,-2523],[2803,8522],[8409,3999]],[[690454,586221],[1363,-8570],[-5454,-9236],[1515,-8427]],[[726893,607646],[7955,3666]],[[744923,578127],[-9015,1000],[-6060,-4142],[-1440,1809],[-5000,-4665],[-6288,-5856],[-909,-381],[-6894,-2762],[-6742,5952],[-9318,-8332],[-5379,-762]],[[413257,525709],[-10985,18187],[-11818,-12426],[-7273,-4238],[-13560,810],[-13637,3237]],[[355984,531279],[-6742,2333],[-1818,13902],[3182,7618],[4091,20853],[-2122,12045],[3713,4142],[10303,-1999],[14469,4189],[6818,-3189]],[[387878,591173],[-151,-5571],[9091,-7617],[8863,0],[14925,-15188],[18712,-1952],[-6137,-21805],[-19924,-13331]],[[335151,502190],[530,10331],[7273,1523]],[[342954,514044],[10530,7618],[10455,-2952],[7121,-7141]],[[371060,511569],[-2576,-6809],[6137,-3475],[-833,-19472],[-16137,3570],[-1894,-3094],[76,0],[2727,-9998],[-12727,-2048]],[[345833,470243],[-8409,14902],[-3485,-3332],[-7348,7189],[-11364,-3666],[6061,7189],[-2879,7617],[16742,2048]],[[638105,487478],[-12575,-333]],[[625530,487145],[681,9855],[-6666,12664],[-11288,2190],[-1439,11189],[-6440,3666],[15000,5094],[0,48],[227,8665],[-8409,-286],[1137,9950],[5530,5999]],[[613863,556179],[12273,5094],[4091,6523]],[[673787,544420],[-16363,-27519],[227,-8379],[5454,-5095]],[[663105,503427],[-14924,-12569],[-10076,-3380]],[[426666,492953],[-1212,-1095]],[[425454,491858],[-15000,-23376],[-12727,3142]],[[397727,471624],[3257,6142],[-12272,7855],[-455,25567],[-5227,714]],[[383030,511902],[7954,6808],[9167,-5142],[-151,-10760],[8560,-1333],[4697,-6475],[7576,5618],[5833,-7665]],[[383030,511902],[-11970,-333]],[[342954,514044],[13030,17235]],[[413257,525709],[5303,-8332],[13712,-4190],[1894,-4665],[-7500,-15569]],[[387878,591173],[8637,1952],[4318,7903],[10076,6570],[13788,-5332],[13333,4713],[10379,48],[3560,13378],[12955,9570],[909,6903]],[[494848,651399],[8939,-6856],[3637,12426],[7803,1286],[5757,-12664],[1061,-10855],[-36591,-4381],[-13788,-7950],[1137,-10379],[12121,5856],[5909,-1571],[1363,-22853],[2576,-1095],[2349,-9094]],[[496818,531851],[-9394,-15140]],[[487424,516711],[-10152,2285],[-13560,3333],[-8031,-34184]],[[455681,488145],[-7272,1809],[-12046,-3952],[-10909,5856]],[[345833,460674],[0,9569]],[[397727,471624],[-6136,-18187]],[[391591,453437],[-9849,-7046],[-7803,3190],[-3182,333],[-227,95],[-15530,2428],[-9167,8237]],[[426363,447248],[-9015,-1333],[-9394,-5809],[-16363,13331]],[[455681,488145],[379,-2333]],[[456060,485812],[-18409,-24757],[-4621,9426],[-7955,-9712],[1288,-13521]],[[456060,485812],[9924,-5523]],[[465984,480289],[-3939,-7332]],[[462045,472957],[-2955,-7189],[3864,-8332],[-12803,-13711],[-8788,-10665]],[[441363,433060],[-2348,-2143]],[[439015,430917],[-12652,16331]],[[195833,460102],[-10151,7523],[-10606,-4999],[-6970,12426]],[[144924,521710],[9697,2951],[2046,-5618],[11969,2191],[4849,-3190],[31818,28851],[8636,-952],[16212,-905],[531,-7617],[12045,-6808],[-455,-3476],[12425,-5142],[2424,-95]],[[257121,521900],[6894,-21805]],[[264015,500095],[-14546,-1571],[-227,-11427],[-14924,-15616],[-5455,476],[-606,-8474],[-19621,6141],[-12803,-9522]],[[277500,466054],[-1137,8093],[-10909,13855],[-1439,12093]],[[257121,521900],[6742,2809],[11440,-5904],[9394,-18377],[12651,-9998],[12879,-5951],[10985,-14521],[15151,-9951],[1212,-15330],[5985,-6618]],[[343560,438059],[3864,-1476],[-6439,-10188],[7575,-7856],[-985,-9570]],[[347575,408969],[-9394,1429],[0,-10237],[-8712,9094],[-15075,6951],[-13258,-1000],[-16288,29376],[5682,5189],[-9091,4333],[-3939,11950]],[[880757,422729],[-10000,999],[-9015,-5237],[-17122,-2523],[-6742,2857],[-8182,-5190]],[[829696,413635],[-6060,8998],[-1061,12284],[-7576,2523]],[[814999,437440],[9849,9665],[-4697,9046],[5000,2571],[26591,27280],[8712,-7141],[1666,5094]],[[862120,483955],[3258,-619],[1515,-1285],[758,-8618],[7121,857],[4848,-6522],[-1212,-10713],[12273,-3285],[3939,-14854],[-4166,-11617],[-3637,-7237],[-6060,2667]],[[576590,447914],[-8636,334],[-5303,-8666],[-13258,1000],[-151,6094]],[[549242,446676],[-2197,19806],[13939,1333],[8334,9284]],[[569318,477099],[6969,-5856]],[[576287,471243],[4243,-6475]],[[580530,464768],[379,-9855],[-4319,-6999]],[[807802,569415],[5379,-2428],[16364,904]],[[826817,515139],[-454,-3380],[-43637,905],[-4015,-5809],[-9166,381]],[[769545,507236],[-2122,-714]],[[767423,506522],[-2272,11141],[-15152,8570],[-1894,8046]],[[748105,534279],[-2045,7951],[11439,8188],[-4697,1476],[-1212,9856]],[[701742,393258],[-1591,15378],[-4697,333],[-6515,10094],[-11288,-2905],[-6818,7332]],[[670833,423490],[3485,12903]],[[674318,436393],[16742,6998],[14318,-3047],[5985,9713],[15606,-11189]],[[726969,438868],[-3712,-7189],[9242,-3047],[-227,-11902],[-12197,-1571],[682,-9142]],[[720757,406017],[-3030,-8379],[-9016,-6142],[-6969,1762]],[[701742,393258],[-7121,3856],[-4849,-9617],[-7500,1667],[-9621,-7856]],[[672651,381308],[-7727,-1333],[-9319,5142],[-9394,143],[-8333,5379],[-14091,-5808]],[[623787,384831],[0,48]],[[623787,384879],[909,22805]],[[624696,407684],[11894,2666],[5379,7856],[13030,-6571],[11440,4761],[4394,7094]],[[774696,394639],[-7121,3951],[-20152,572],[-4545,-9570],[-5530,333]],[[737348,389925],[3409,7094],[-7576,5380],[-4697,-2714],[-7727,6332]],[[726969,438868],[25985,15521]],[[752954,454389],[909,0],[606,-47],[5303,-4666],[5151,5094],[7652,-1476],[10151,-10379],[-5530,-7855],[5076,-1048]],[[782272,434012],[909,-16282],[-6818,-10713],[-1667,-12378]],[[400378,381879],[-1742,-571],[-3333,1714]],[[395303,383022],[-10228,-4095],[-4394,7523],[-11590,7046],[-3864,6618],[-5076,-1666]],[[360151,398448],[-12576,10521]],[[343560,438059],[2273,22615]],[[439015,430917],[-8561,-6189],[1136,-6332],[-5833,-762],[-9621,-17853],[-5379,6522],[-6591,-16806],[3637,-4475],[-7425,-3143]],[[575530,367120],[-3031,15093],[2425,2761]],[[574924,384974],[9545,13331],[9243,7427]],[[593712,405732],[1893,-5047],[13788,-4523],[5606,-9807]],[[614999,386355],[0,-191]],[[614999,386164],[-1060,-11569],[-4849,-6665],[-9166,-2191],[-20834,3714],[-3560,-2333]],[[514924,371548],[-17500,524]],[[497424,372072],[-3940,15092],[-10833,6951],[-2576,17092]],[[480075,411207],[6212,1000],[15303,-5571]],[[501590,406636],[6061,-5141],[8106,-14569]],[[515757,386926],[-833,-15378]],[[258333,402161],[-227,5999],[-8637,3999],[12197,16949],[-6969,8903],[8333,10332],[-1515,3666],[15985,14045]],[[360151,398448],[-4470,-5142]],[[355681,393306],[-10757,-476],[-5000,-4999],[-8485,2523],[-4848,-12379],[-13864,-952],[-1818,-8951]],[[310909,368072],[-9091,13807],[-6515,3238],[4394,5522],[-8864,7809],[-2273,16520],[-6969,-666],[-10985,-9046],[-12273,-3095]],[[830529,371976],[-17196,2095],[-4546,18092],[833,7332],[8182,2857],[11894,11283]],[[880757,422729],[-12349,-26233],[-682,-1048],[-7727,-14854],[-20000,-7523],[-9470,-1095]],[[417651,364930],[-303,3190],[-19470,-857],[-2575,15759]],[[441363,433060],[7803,2952],[5985,-6094],[13712,-5237],[4167,-9951]],[[473030,414730],[76,-190]],[[473106,414540],[-76,190]],[[473030,414730],[-15833,4999],[530,-1904]],[[457727,417825],[-14091,3142],[-1364,-10093],[-7045,-13093],[-2349,-9427],[9546,-10045],[-10985,-3190],[-2424,6189],[-3940,-10522],[-7424,-5856]],[[830529,371976],[-8106,-4094],[-10606,4761],[-11742,-4904]],[[800075,367739],[76,10570],[-9091,142],[-5606,10475],[-10758,5713]],[[782272,434012],[16591,5380],[3863,-3666],[12273,1714]],[[561060,553418],[11894,5189],[4773,-3332],[4545,8331],[11591,2857],[20000,-10284]],[[625530,487145],[-1364,-8189],[-14773,-857],[-20000,-11046],[-13106,4190]],[[569318,477099],[1287,7094],[-6439,5904],[833,16425],[-9469,18377]],[[495378,296848],[16515,-6713]],[[511893,290135],[-14166,-21520],[1288,-7189]],[[499015,261426],[-682,-5332],[-12424,7189]],[[485909,263283],[-4697,4951],[1591,13569],[4772,12712],[7803,2333]],[[371136,290325],[1212,12474]],[[372348,302799],[6667,-714],[15151,20568],[2652,-11094],[7121,-380],[14470,-2143]],[[418409,309036],[-10606,-22519],[8484,-9380]],[[416287,277137],[-24318,-6522],[-7803,4237]],[[384166,274852],[5000,2571],[-10985,12664],[-7045,238]],[[752954,454389],[76,9713]],[[753030,464102],[9621,-8951],[8182,1143],[8636,30184],[-606,10379],[-6591,-571],[-2727,10950]],[[869923,501618],[-6060,-4808],[-1743,-12855]],[[753030,464102],[-8713,7332],[-2424,12521],[3712,6332],[21818,16235]],[[486818,466482],[1439,-6475],[9091,-3904],[-2576,-4190],[8940,-13997]],[[503712,437916],[-7273,-16711],[10833,-3714],[-5682,-10855]],[[480075,411207],[-6894,3333],[-75,0]],[[462045,472957],[17879,-8522],[6894,2047]],[[499090,475909],[-7878,714],[-4243,11807],[2046,6428]],[[489015,494858],[1288,9474],[-2879,12379]],[[549242,446676],[-6970,-5284],[-1288,-7427]],[[540984,433965],[-6363,2428],[-15834,-762],[-9166,5618],[-5909,-3333]],[[486818,466482],[8560,-5189],[3712,14616]],[[565833,428680],[2121,4047],[15227,-4809]],[[583181,427918],[9924,-4713],[11440,523]],[[604545,423728],[-2576,-12045],[-5227,-1714]],[[596742,409969],[-11061,-333],[-6666,9046],[-9546,3285],[-3636,6713]],[[465984,480289],[5682,2000],[6743,13711],[10606,-1142]],[[719999,630641],[9394,7332],[-3863,10950],[1060,9998],[7121,14188],[-1666,8618],[-15531,2285],[-4924,7427],[-11439,6523],[-9091,18567],[-455,953],[10303,5522],[3334,6237]],[[782726,717053],[8410,-4570]],[[791136,712483],[-4849,-15950],[8864,-6237],[-152,-13045],[-7576,-5189],[-1287,-11379],[-6894,-4951],[3939,-5952]],[[783181,649780],[-8712,-1999],[-9621,-14807],[3030,-5570]],[[748105,534279],[-3788,-3190],[0,47],[-15303,-2999],[-10984,8951],[1060,5665],[-9697,-143],[-1060,9570],[-14243,-2095]],[[674318,436393],[-2500,-476],[-607,-191],[-151,0],[-152,-190],[-151,0],[-7727,6665],[3181,11474]],[[666211,453675],[-378,7427],[22045,3809],[76,21758],[-2349,14997],[-8484,7237],[-14016,-5476]],[[791136,712483],[14015,-7808],[7272,8141],[16288,952],[3031,9951],[8712,-1714],[8636,4475],[8864,12140]],[[857954,738620],[19621,-333],[-227,-5094],[12348,-7189],[0,-18616],[-4848,-6570],[-7273,-25995],[-6515,810],[-379,-12855],[-15076,-3000],[-8409,-16425]],[[847196,643353],[-15985,-1095],[-1212,3999],[-985,-523],[-9545,-1619],[-7424,-2190],[-228,0],[-10227,7951],[-9621,-6523],[-8788,6427]],[[847196,643353],[530,-3618],[-2727,-18187],[6591,-1810],[1288,-7474]],[[852878,612264],[-3864,-15140],[-5303,-3095],[-5833,-4713],[-3106,-12665],[3106,-4570]],[[857954,738620],[9697,11665],[2727,4475],[3409,10427],[23182,9474]],[[973181,684440],[-4318,-4189],[12348,-16759],[4394,-12093],[-6212,667],[-19697,-7285],[8712,-10045],[-757,-6999],[606,-7522],[-10303,-1381],[-19622,-9522],[-1212,-9951]],[[937120,599361],[-21212,-11188],[-3106,12331],[-7273,8189],[-10303,571],[-9545,5285],[-10379,-14426],[-1894,5047],[-8712,-5666],[-2197,7427],[-9621,5333]],[[937120,599361],[-3333,-16568],[-10985,-4999],[3788,-7998],[-12879,-3000],[-3636,-8950]],[[519999,314892],[-5681,-5047],[-2425,-19710]],[[495378,296848],[-5606,5808]],[[489772,302656],[8788,3809],[4773,8570]],[[503333,315035],[10530,2809],[6136,-2952]],[[499015,261426],[8106,-5285],[11818,10475],[5757,-13379]],[[524696,253237],[-3030,-11379],[-7045,2524],[-5758,-12331],[5227,-11093]],[[514090,220958],[-15530,-334]],[[498560,220624],[-10379,7904],[606,7474]],[[488787,236002],[3182,3238],[-16591,9474],[7349,1429],[3182,13140]],[[433560,232717],[-12045,-5332],[-4470,-6046],[7576,-9665]],[[424621,211674],[-13258,-1333],[-11969,2523],[-6061,9855]],[[393333,222719],[833,1619],[0,7380]],[[394166,231718],[7652,14283],[10682,-2429],[-2576,6571],[4773,18948]],[[414697,269091],[8939,2857],[6667,8665]],[[430303,280613],[2348,-20187],[-2879,-8998],[7349,-3047],[-3561,-15664]],[[488787,236002],[-5151,-6808],[-10909,8856],[-5606,-6285],[-33561,952]],[[430303,280613],[5075,3904],[10682,-3142],[-1515,13283],[14242,9665]],[[458787,304323],[2652,-8332],[12576,7237],[15757,-572]],[[650378,184441],[-7651,1190]],[[642727,185631],[-3106,17854],[3560,10474],[-3030,10569]],[[640151,224528],[8106,10522],[530,10665],[-4318,5999],[-985,12712],[-3182,5046]],[[640302,269472],[5228,6332],[10151,3333],[10076,-6761]],[[665757,272376],[-2349,-18139],[-14469,-10474],[2727,-23234],[-4773,-5523],[10758,-18567],[-7273,-11998]],[[296060,239906],[1591,-1380],[-5757,-10665],[1288,-6237]],[[293182,221624],[-2652,-25328],[-7500,2714],[-455,-8856],[-7045,2285],[-3333,-9664],[-7728,4380],[-5833,-11522]],[[159924,218196],[10909,22520],[-4697,8189],[4015,4999],[9015,-3857],[834,7523],[14773,-2190],[5075,-1952],[2121,10998],[15379,3475],[7576,11903],[18409,9331],[7349,-3047],[5681,5666]],[[256363,291754],[3561,-8094],[10303,-905],[-2500,-5570],[6818,-3476],[1591,-19805],[3712,-11189],[5531,-4665],[4469,5951],[6212,-4095]],[[393333,222719],[-6136,-2095],[-9925,8808]],[[377272,229432],[-16666,-143],[1894,12474]],[[362500,241763],[26136,6808],[4621,13046],[4546,-5142],[-11061,-22139],[7424,-2618]],[[362500,241763],[-14167,5571],[1742,3094]],[[350075,250428],[6743,10998],[16136,13617]],[[372954,275043],[11212,-191]],[[416287,277137],[-1590,-8046]],[[564545,269758],[-7955,-1333],[-3333,-6189],[-11439,714],[-2273,-14140],[-14849,4427]],[[519999,314892],[12576,-3713]],[[532575,311179],[-7424,-7523],[5606,-5665],[4697,6665],[16970,-8998],[5833,-10998],[6970,-524],[227,381]],[[565454,284517],[7348,-7475],[-8257,-7284]],[[579621,249809],[-2652,8094],[-12424,11855]],[[565454,284517],[6439,6808],[7349,-7808],[606,5618],[-2879,6713],[12197,4999]],[[589166,300847],[12955,-6189]],[[602121,294658],[1515,-12522],[3333,-11188]],[[606969,270948],[-2500,-17854],[-3788,-3285]],[[600681,249809],[-1515,7427],[-9091,5333],[-2348,-8142],[-8106,-4618]],[[579621,249809],[-12652,-1714],[4924,-6570],[-9469,-15473],[-5379,4475],[-11591,238],[-3712,-6046]],[[541742,224719],[-7727,-5428],[-19925,1667]],[[335681,242858],[-15075,8475],[-3409,9284]],[[317197,260617],[-2046,12997],[13712,6761],[-378,11712],[4393,10665],[6819,1809],[7500,8903],[8636,3856]],[[355833,317320],[6970,1143],[-455,-20806],[-3333,-8712],[9166,-2428],[4773,-11474]],[[350075,250428],[-14924,1048],[530,-8618]],[[377272,229432],[-3863,-8093],[4091,-4333],[1288,-16711],[-6364,-809]],[[372424,199486],[-6667,11569],[-12348,5999],[-5985,15997],[-8030,714],[-3713,9093]],[[576590,447914],[-227,-7379],[6136,-334],[682,-12283]],[[565833,428680],[-4849,-4476],[-5909,5047],[-11818,-7522],[-8561,2428],[6288,9808]],[[580530,464768],[5985,-476],[12651,-8617],[758,-11093],[10681,-1905],[682,-12950]],[[611287,429727],[-6742,-5999]],[[623787,384879],[-8788,1476]],[[614999,386355],[0,-191]],[[593712,405732],[3030,4237]],[[611287,429727],[1137,-6570],[8560,-4285],[3712,-11188]],[[666211,453675],[-12575,11284],[-7425,-4809],[-2878,12141],[-8561,5998],[3333,9189]],[[574924,384974],[-10758,-3523],[-2121,-4904],[-17955,-2333],[-14621,8808],[-13712,3904]],[[632045,279137],[-7955,-9046],[-17121,857]],[[602121,294658],[2121,8570]],[[604242,303228],[10530,-1810],[7424,-12759],[6212,7665],[8182,1000]],[[636590,297324],[2425,-4904],[-6970,-13283]],[[632045,279137],[8257,-9665]],[[640151,224528],[-23409,19044],[-4470,-3856],[-10379,2190],[-1212,7903]],[[635227,327556],[2803,-4427],[16969,1666]],[[654999,324795],[7046,-9094],[-4697,-1380],[-13030,-1286],[-8031,2762],[303,-18473]],[[604242,303228],[2727,17139]],[[606969,320367],[4394,3428],[11136,-2095],[12728,5856]],[[562272,325557],[9318,-1000],[19167,-6856],[7424,-6380],[-12272,-999],[3257,-9475]],[[532575,311179],[6591,4713],[-3333,10141],[2197,8332]],[[538030,334365],[16439,-9856],[7803,1048]],[[443030,332889],[6439,-15045],[10303,-524],[4015,-7522],[-5000,-5475]],[[418409,309036],[5151,12474],[7273,381],[12197,10998]],[[557802,339364],[12273,-6190],[13258,-2809],[2121,-1238],[21515,-8760]],[[562272,325557],[-6818,5284],[2348,8523]],[[370303,355932],[0,47],[-2728,1286]],[[367575,357265],[-1591,16187],[-4469,2000],[-5834,17854]],[[417651,364930],[10000,-7760],[5152,2713],[9166,-3951]],[[441969,355932],[-3106,-8094],[4773,-4618],[-606,-10331]],[[372348,302799],[5000,3095],[3712,11807],[-4621,11188],[-1591,14664],[-5833,1048],[6060,7808],[-4772,3523]],[[337348,333555],[-7121,-1047],[5227,-10046],[8940,3142],[12954,2619],[-1515,-10903]],[[317197,260617],[-10985,-2143],[-10152,-18568]],[[256363,291754],[-303,5427],[-8863,3571],[5757,4237],[-6515,10522]],[[246439,315511],[9621,-7427],[3258,6903],[11288,1048],[12651,-3190],[-1666,5285],[14545,-6428],[18030,2143],[-4242,17663],[7273,-619],[2803,8998]],[[320000,339887],[6894,1191],[10454,-7523]],[[102500,328556],[3939,-7998],[6212,4237],[22046,4904]],[[134697,329699],[8257,-3523],[27803,-17473],[682,-8522],[8031,-6428],[7878,2238],[4167,-5523],[8939,4809],[19015,2190],[1667,14568],[15152,7475]],[[236288,319510],[7045,1857],[3106,-5856]],[[113333,187297],[-9924,8856],[-19470,32470],[-15606,19806],[-23030,34660],[-10379,21805],[1212,22615]],[[36136,327509],[16364,5761],[2954,7474],[20000,-5999],[5910,-10712],[21136,4523]],[[361515,348219],[6060,9046]],[[337348,333555],[9697,1333],[14470,13331]],[[36136,327509],[-3788,13330],[-23181,22377],[-7349,13093],[-1818,10998],[9924,5046],[9243,11046],[20303,5475],[17045,857],[31667,4428]],[[111894,403923],[-2121,-4095],[3712,-15045],[14924,-5475],[-4773,-5665],[909,-18473],[-6212,-12474],[11894,-4523],[4470,-8474]],[[800075,367739],[0,-95],[-5152,-1714],[-15227,3380],[-23636,-12045],[2121,-5047],[-16439,-4475],[-4773,2666]],[[736969,350409],[1742,6237],[-14697,333],[3334,11141],[-2424,9522]],[[724924,377642],[12424,12283]],[[461893,349743],[7273,-5999]],[[469166,343744],[6667,-4333],[9318,3333],[1970,-17901],[16212,-9808]],[[441969,355932],[8031,-5523],[11893,-666]],[[457727,417825],[-1515,-7951],[2500,-13378],[4924,856],[-1818,-13806],[5833,-9760],[-9924,-11998],[4166,-12045]],[[497424,372072],[-2728,-8523],[-9166,3571],[-3258,-10855],[-9166,-5047],[-3940,-7474]],[[261666,331222],[-10530,-8379],[-14848,11236]],[[236288,334079],[-455,15902]],[[235833,349981],[18182,7617],[-1364,8475],[8258,10474],[-7349,9284],[4773,16330]],[[310909,368072],[2045,-8903],[-4697,-2904]],[[308257,356265],[-13636,-10426],[-8409,1761],[-4849,-333],[-5075,11617],[-14622,-27662]],[[514924,371548],[10227,-14950],[8864,-6046],[-2197,-5999],[6212,-10188]],[[309545,355884],[-1288,381]],[[320000,339887],[-10455,15997]],[[236288,319510],[0,14569]],[[235833,349981],[-6894,11331],[2879,8141],[-8636,4856],[1969,8951],[-13333,4523],[-3939,8855],[3257,5856],[-4318,10713],[-14848,4951],[-3561,7237],[-13182,-5333],[3030,-4332],[-10681,-5713],[6136,-4999],[-2652,-10855],[-6742,3523],[-9242,-1762],[-3258,8332],[-12803,6951],[-1439,6665]],[[557802,339364],[-11439,-477],[-2424,11855],[1894,4857],[26666,-381],[3031,11902]],[[623787,384831],[5152,-6237],[-12424,-11379],[19469,-476],[2576,-11664],[-3333,-27519]],[[672651,381308],[16970,-1286],[7424,-10569],[2727,-11902],[7349,-1333]],[[707121,356218],[-2955,-20806],[15151,143]],[[719317,335555],[531,-1381],[757,-9284],[-12197,-1333],[-12878,-7522],[-8409,-48],[757,-8189],[-14091,13521],[-18788,3476]],[[724924,377642],[-15758,-7665],[-4394,-6237],[2349,-7522]],[[736969,350409],[-3864,-10236],[-12348,-762],[-1440,-3856]],[[477045,173110],[-16439,8712],[-12122,-3713],[-2197,8712],[-19318,3333]],[[426969,190154],[11212,17378],[-5227,6332],[-8333,-2190]],[[498560,220624],[-2879,-11950],[5531,-8950],[7121,-1667],[-530,-8903],[9545,-5237]],[[517348,183917],[-18485,-14140],[-9167,-2809]],[[489696,166968],[-3636,7713],[-9015,-1571]],[[532878,182632],[-2500,7332],[12955,11331],[3788,9427]],[[547121,210722],[7651,-857],[6515,5951],[6591,-1762],[-8636,-4523],[-152,-8950],[16061,-23377],[10076,-9950],[-3258,-5999],[10303,-4666],[4015,-6665],[-5378,-4904]],[[590909,145020],[-14319,4237],[-1439,9332],[-8864,1618]],[[566287,160207],[1364,14474],[-13939,-1238],[-12273,7856],[-8561,1333]],[[321439,175585],[-8864,6571],[4243,16663],[-4243,2190],[3182,11950],[-7424,-3142],[-5000,7237],[-10151,4570]],[[372424,199486],[-6894,-9856]],[[365530,189630],[-9924,-14425],[-16440,-2762],[-8409,4523],[-9318,-1381]],[[379545,167444],[-11515,9522],[-2500,12664]],[[426969,190154],[-7424,-809],[-8182,-9998],[2046,-3047],[-11894,-5047],[-12349,7189],[-9621,-10998]],[[541742,224719],[5379,-13997]],[[532878,182632],[-10303,-5856],[-5227,7141]],[[708257,253570],[-3182,-22186],[-11894,-381],[-6060,-9141],[2121,-9665],[7197,-10188],[-2955,-10331]],[[693484,191678],[-13939,-1381],[-13712,-8332],[-15455,2476]],[[665757,272376],[6364,1333],[23484,-6427],[12652,-13712]],[[584621,22043],[-19925,-10712],[-10833,1714],[-4470,-3380],[-5909,3809],[-15075,-476],[-1213,-3952],[0,16378],[-8106,10093],[-227,12569],[6212,16616],[-4015,10426],[1212,6380]],[[522272,81508],[6591,3428],[8939,-3142],[11061,9617],[1212,14616]],[[550075,106027],[8712,-2047],[12122,10379],[9545,-1190],[-606,-10998],[-7955,-5332],[6667,-2571],[3864,-11331],[-6894,-12427],[5833,-18187],[-5758,476],[-3560,-21614],[9924,856],[2652,-9998]],[[255454,110693],[-5227,-1000],[5909,-12569],[5227,5713],[13864,4190],[6212,5142],[11970,2380],[7348,-17091],[-757,-6380]],[[300000,91078],[-12197,-11903],[-7803,7237],[-7576,-6237],[-5227,-14569],[-5682,-666],[2500,-7380],[-20455,9237],[-3484,-2333],[984,8236],[-21363,8142]],[[444545,133403],[1212,10427],[-12273,7093],[-378,7999],[11287,6951],[19470,1524],[-1970,4046],[15152,1667]],[[489696,166968],[-75,-14426],[6666,-143]],[[496287,152399],[-17272,-5189],[-6137,-9474],[-25151,-11903],[-3182,7570]],[[527803,106694],[-6894,3666],[-5455,9522],[-7424,4713],[-11137,17997],[682,3666],[-1288,6141]],[[496287,152399],[7197,2000],[6288,-8522],[6970,-476],[14394,-10855],[-2576,-6523],[5758,-9665],[-6515,-11664]],[[522272,81508],[682,13283],[4849,11903]],[[566287,160207],[-4848,-7903],[5000,-8141],[-2046,-6761],[-11136,-8474],[3106,-7094],[-6288,-15807]],[[590909,145020],[-228,-1333],[758,-7618],[24318,-2190]],[[615757,133879],[8485,-10379],[-19167,-22995],[7879,-10379],[11970,-8285],[-5909,-7236],[13787,-8380],[758,-12426],[5909,-904]],[[639469,52895],[833,-13998],[5606,-6808],[-7878,95],[-4773,-5522],[-19091,-26662],[-11667,1571],[-7424,8427],[-4545,14521],[-5909,-2476]],[[630075,151066],[9394,5237],[3182,6666],[-5530,8998],[4166,6142],[1440,7522]],[[693484,191678],[4394,-9380],[13939,-6855],[228,-26710],[6212,3904],[7651,-6808],[17879,10760],[2500,-4523],[-985,-3475]],[[745302,148591],[-2424,-7761],[-7576,-619],[-6969,-7522],[-4622,3380],[-16212,-333],[-8485,-15902],[-9772,11379],[-11364,-11760],[-2273,14617],[-7651,6951],[-10833,-3524],[-27046,13569]],[[321439,175585],[-6515,-18615],[-3864,-3333],[-14166,-143],[-3106,-3189],[2197,-14093],[-17425,3380]],[[379545,167444],[6894,-12283],[1515,-10284]],[[387954,144877],[-151,-381],[-3561,-10569],[3788,-1714],[-4621,-11046],[-10228,-10331],[2500,-8665],[-24015,-4952],[-5909,2762],[-15985,-8570],[-6894,2666],[-13787,-5951],[303,5808],[-9394,-2856]],[[630075,151066],[-7727,-3856],[3409,-10046],[-10000,-3285]],[[745302,148591],[8031,-5666],[-6213,-8046],[5758,-3190],[-13561,-17996],[-2348,-10856],[-6439,-7331],[0,-8523],[-7803,-12950],[-19849,11141],[-4621,-2714],[-12349,-10331],[-14166,0],[-7424,-6856],[-10834,-1476],[-4773,-14140],[-9242,3238]],[[444545,133403],[-4773,-2333],[-8257,8522],[-2500,-7570],[-15606,5142],[-23182,11379],[-2273,-3666]]],"transform":{"scale":[0.000004184082269931677,0.0000038199460763730675],"translate":[-105.69470865776067,18.930196990170238]},"objects":{"municipalities":{"type":"GeometryCollection","geometries":[{"arcs":[[0,1,2,3,4]],"type":"Polygon","properties":{"cvegeo":"14067","nombre":"Puerto Vallarta"}},{"arcs":[[5,6,7,8,9,10]],"type":"Polygon","properties":{"cvegeo":"14043","nombre":"La Huerta"}},{"arcs":[[11,12,13]],"type":"Polygon","properties":{"cvegeo":"14081","nombre":"Santa María de los Ángeles"}},{"arcs":[[-12,14,15]],"type":"Polygon","properties":{"cvegeo":"14041","nombre":"Huejúcar"}},{"arcs":[[16,17]],"type":"Polygon","properties":{"cvegeo":"14042","nombre":"Huejuquilla el Alto"}},{"arcs":[[18,19,20,21,22]],"type":"Polygon","properties":{"cvegeo":"14115","nombre":"Villa Guerrero"}},{"arcs":[[23,24,-20,25,26]],"type":"Polygon","properties":{"cvegeo":"14104","nombre":"Totatiche"}},{"arcs":[[27,-15,-14,28,-27]],"type":"Polygon","properties":{"cvegeo":"14025","nombre":"Colotlán"}},{"arcs":[[29,30,-17,31,-23]],"type":"Polygon","properties":{"cvegeo":"14061","nombre":"Mezquitic"}},{"arcs":[[32,33,34]],"type":"Polygon","properties":{"cvegeo":"14116","nombre":"Villa Hidalgo"}},{"arcs":[[35,36]],"type":"Polygon","properties":{"cvegeo":"14064","nombre":"Ojuelos de Jalisco"}},{"arcs":[[37,-21,-25,38,39]],"type":"Polygon","properties":{"cvegeo":"14031","nombre":"Chimaltitán"}},{"arcs":[[40,-30,-22,-38,41,42]],"type":"Polygon","properties":{"cvegeo":"14019","nombre":"Bolaños"}},{"arcs":[[43,-42,-40,44,45,46]],"type":"Polygon","properties":{"cvegeo":"14076","nombre":"San Martín de Bolaños"}},{"arcs":[[47,48,49,50]],"type":"Polygon","properties":{"cvegeo":"14060","nombre":"Mexticacán"}},{"arcs":[[51,52,53,54]],"type":"Polygon","properties":{"cvegeo":"14072","nombre":"San Diego de Alejandría"}},{"arcs":[[-54,55,56,57,58]],"type":"Polygon","properties":{"cvegeo":"14074","nombre":"San Julián"}},{"arcs":[[59,60,61,62]],"type":"Polygon","properties":{"cvegeo":"14071","nombre":"San Cristóbal de la Barranca"}},{"arcs":[[63,64,65,66,67,68]],"type":"Polygon","properties":{"cvegeo":"14046","nombre":"Jalostotitlán"}},{"arcs":[[69,70,71,72,-49,73]],"type":"Polygon","properties":{"cvegeo":"14118","nombre":"Yahualica de González Gallo"}},{"arcs":[[-48,74,-65,75,-74]],"type":"Polygon","properties":{"cvegeo":"14117","nombre":"Cañadas de Obregón"}},{"arcs":[[76,77,78]],"type":"Polygon","properties":{"cvegeo":"14040","nombre":"Hostotipaquillo"}},{"arcs":[[79,80,81,82]],"type":"Polygon","properties":{"cvegeo":"14075","nombre":"San Marcos"}},{"arcs":[[83,84,85,-72,86,87]],"type":"Polygon","properties":{"cvegeo":"14029","nombre":"Cuquío"}},{"arcs":[[88,89,90,91]],"type":"Polygon","properties":{"cvegeo":"14007","nombre":"San Juanito de Escobedo"}},{"arcs":[[-92,92,-81,93,-77,94]],"type":"Polygon","properties":{"cvegeo":"14055","nombre":"Magdalena"}},{"arcs":[[-95,-79,95,-46,96,-62,97,98,99,-89]],"type":"Polygon","properties":{"cvegeo":"14094","nombre":"Tequila"}},{"arcs":[[100,-82,-93,-91,101,102]],"type":"Polygon","properties":{"cvegeo":"14036","nombre":"Etzatlán"}},{"arcs":[[103,-102,-90,-100,104,105]],"type":"Polygon","properties":{"cvegeo":"14003","nombre":"Ahualulco de Mercado"}},{"arcs":[[106,107,108,109,110,-106]],"type":"Polygon","properties":{"cvegeo":"14095","nombre":"Teuchitlán"}},{"arcs":[[111,-3,112,113,114]],"type":"Polygon","properties":{"cvegeo":"14080","nombre":"San Sebastián del Oeste"}},{"arcs":[[115,-114,116,117,118]],"type":"Polygon","properties":{"cvegeo":"14038","nombre":"Guachinango"}},{"arcs":[[119,120,121,122]],"type":"Polygon","properties":{"cvegeo":"14048","nombre":"Jesús María"}},{"arcs":[[123,124,125,126,127]],"type":"Polygon","properties":{"cvegeo":"14039","nombre":"Guadalajara"}},{"arcs":[[-68,128,-57,129,130,131,132]],"type":"Polygon","properties":{"cvegeo":"14078","nombre":"San Miguel el Alto"}},{"arcs":[[133,134,135,136,137]],"type":"Polygon","properties":{"cvegeo":"14105","nombre":"Tototlán"}},{"arcs":[[138,139,140,141,142,-134]],"type":"Polygon","properties":{"cvegeo":"14123","nombre":"Zapotlán del Rey"}},{"arcs":[[143,144,-137,145,146,147]],"type":"Polygon","properties":{"cvegeo":"14013","nombre":"Atotonilco el Alto"}},{"arcs":[[148,149,150,-118,151,-103,-104,-111,152]],"type":"Polygon","properties":{"cvegeo":"14006","nombre":"Ameca"}},{"arcs":[[153,154,155,156,157]],"type":"Polygon","properties":{"cvegeo":"14044","nombre":"Ixtlahuacán de los Membrillos"}},{"arcs":[[158,159,160,161,162]],"type":"Polygon","properties":{"cvegeo":"14002","nombre":"Acatlán de Juárez"}},{"arcs":[[163,-119,-151,164,165,166]],"type":"Polygon","properties":{"cvegeo":"14062","nombre":"Mixtlán"}},{"arcs":[[167,-120,168]],"type":"Polygon","properties":{"cvegeo":"14033","nombre":"Degollado"}},{"arcs":[[169,-149,-153,-110,170,171,172,173,174]],"type":"Polygon","properties":{"cvegeo":"14077","nombre":"San Martín Hidalgo"}},{"arcs":[[-121,-168,175,176,-148,177]],"type":"Polygon","properties":{"cvegeo":"14016","nombre":"Ayotlán"}},{"arcs":[[-60,178,-85,179,-126,180]],"type":"Polygon","properties":{"cvegeo":"14045","nombre":"Ixtlahuacán del Río"}},{"arcs":[[181,182,183,184]],"type":"Polygon","properties":{"cvegeo":"14004","nombre":"Amacueca"}},{"arcs":[[185,186,187,188,189]],"type":"Polygon","properties":{"cvegeo":"14052","nombre":"Juchitlán"}},{"arcs":[[190,191,-130,-56,-53,192,-122,-178,-147]],"type":"Polygon","properties":{"cvegeo":"14008","nombre":"Arandas"}},{"arcs":[[-131,-192,193]],"type":"Polygon","properties":{"cvegeo":"14125","nombre":"San Ignacio Cerro Gordo"}},{"arcs":[[194,195,-161,196,-172,-171,-109,197]],"type":"Polygon","properties":{"cvegeo":"14083","nombre":"Tala"}},{"arcs":[[198,199,-98,-61,-181,-125,200,201,-195,202]],"type":"Polygon","properties":{"cvegeo":"14120","nombre":"Zapopan"}},{"arcs":[[203,204,205,206]],"type":"Polygon","properties":{"cvegeo":"14070","nombre":"El Salto"}},{"arcs":[[-198,-108,207,-199,-203]],"type":"Polygon","properties":{"cvegeo":"14009","nombre":"El Arenal"}},{"arcs":[[-107,-105,-99,-200,-208]],"type":"Polygon","properties":{"cvegeo":"14005","nombre":"Amatitán"}},{"arcs":[[-75,-51,208,-34,209,210,211,-66]],"type":"Polygon","properties":{"cvegeo":"14091","nombre":"Teocaltiche"}},{"arcs":[[-133,212,-70,-76,-64,-69]],"type":"Polygon","properties":{"cvegeo":"14111","nombre":"Valle de Guadalupe"}},{"arcs":[[-191,-146,-136,213,214,-87,-71,-213,-132,-194]],"type":"Polygon","properties":{"cvegeo":"14093","nombre":"Tepatitlán de Morelos"}},{"arcs":[[215,216,217,-211]],"type":"Polygon","properties":{"cvegeo":"14035","nombre":"Encarnación de Díaz"}},{"arcs":[[-67,-212,-218,218,219,-58,-129]],"type":"Polygon","properties":{"cvegeo":"14073","nombre":"San Juan de los Lagos"}},{"arcs":[[-219,-217,220,-37,221,222]],"type":"Polygon","properties":{"cvegeo":"14053","nombre":"Lagos de Moreno"}},{"arcs":[[-55,-59,-220,-223,223]],"type":"Polygon","properties":{"cvegeo":"14109","nombre":"Unión de San Antonio"}},{"arcs":[[224,-182,225,226,227]],"type":"Polygon","properties":{"cvegeo":"14089","nombre":"Techaluta de Montenegro"}},{"arcs":[[-184,228,229,230,231,232]],"type":"Polygon","properties":{"cvegeo":"14082","nombre":"Sayula"}},{"arcs":[[233,234,235,236,237,238]],"type":"Polygon","properties":{"cvegeo":"14102","nombre":"Tonaya"}},{"arcs":[[239,-239,240,241,-226,-185,-233]],"type":"Polygon","properties":{"cvegeo":"14086","nombre":"Tapalpa"}},{"arcs":[[242,243,244,245,246]],"type":"Polygon","properties":{"cvegeo":"14112","nombre":"Valle de Juárez"}},{"arcs":[[247,248,-9,249,250]],"type":"Polygon","properties":{"cvegeo":"14068","nombre":"Villa Purificación"}},{"arcs":[[-236,251,252,253]],"type":"Polygon","properties":{"cvegeo":"14054","nombre":"El Limón"}},{"arcs":[[254,255,256,-189,257,-237,-254]],"type":"Polygon","properties":{"cvegeo":"14034","nombre":"Ejutla"}},{"arcs":[[258,-229,-183,-225,259,260,261]],"type":"Polygon","properties":{"cvegeo":"14014","nombre":"Atoyac"}},{"arcs":[[262,-262,263,264,265,266,267]],"type":"Polygon","properties":{"cvegeo":"14026","nombre":"Concepción de Buenos Aires"}},{"arcs":[[268,269,-230,-259,-263]],"type":"Polygon","properties":{"cvegeo":"14079","nombre":"Gómez Farías"}},{"arcs":[[270,271,272,-256,273]],"type":"Polygon","properties":{"cvegeo":"14110","nombre":"Unión de Tula"}},{"arcs":[[-274,-255,-253,274,275]],"type":"Polygon","properties":{"cvegeo":"14037","nombre":"El Grullo"}},{"arcs":[[276,-204,277,-201,-124]],"type":"Polygon","properties":{"cvegeo":"14098","nombre":"San Pedro Tlaquepaque"}},{"arcs":[[278,279,-205,-277,-128]],"type":"Polygon","properties":{"cvegeo":"14101","nombre":"Tonalá"}},{"arcs":[[280,281,-157,-156,282,-206,-280,283,-142]],"type":"Polygon","properties":{"cvegeo":"14051","nombre":"Juanacatlán"}},{"arcs":[[284,-88,-215]],"type":"Polygon","properties":{"cvegeo":"14001","nombre":"Acatic"}},{"arcs":[[-284,-279,-127,-180,-84,-285,-214,-135,-143]],"type":"Polygon","properties":{"cvegeo":"14124","nombre":"Zapotlanejo"}},{"arcs":[[-162,-196,-202,-278,-207,-283,-155,285]],"type":"Polygon","properties":{"cvegeo":"14097","nombre":"Tlajomulco de Zúñiga"}},{"arcs":[[286,-266,287,288,289]],"type":"Polygon","properties":{"cvegeo":"14057","nombre":"La Manzanilla de la Paz"}},{"arcs":[[-267,-287,290,-245,291]],"type":"Polygon","properties":{"cvegeo":"14059","nombre":"Mazamitla"}},{"arcs":[[292,293,-289,294,295]],"type":"Polygon","properties":{"cvegeo":"14096","nombre":"Tizapán el Alto"}},{"arcs":[[296,-264,-261,297,298]],"type":"Polygon","properties":{"cvegeo":"14092","nombre":"Teocuitatlán de Corona"}},{"arcs":[[299,-241,-238,-258,-188,300]],"type":"Polygon","properties":{"cvegeo":"14032","nombre":"Chiquilistlán"}},{"arcs":[[301,-295,-288,-265,-297,302]],"type":"Polygon","properties":{"cvegeo":"14107","nombre":"Tuxcueca"}},{"arcs":[[303,304,-165,-150,-170,305,306,-301,-187,307]],"type":"Polygon","properties":{"cvegeo":"14088","nombre":"Tecolotlán"}},{"arcs":[[308,-272,309,-251,310,311,312]],"type":"Polygon","properties":{"cvegeo":"14017","nombre":"Ayutla"}},{"arcs":[[313,314,315,-311,-250,-8,316,317]],"type":"Polygon","properties":{"cvegeo":"14100","nombre":"Tomatlán"}},{"arcs":[[318,-304,-308,-186,-190,-257,-273,-309,319]],"type":"Polygon","properties":{"cvegeo":"14090","nombre":"Tenamaxtlán"}},{"arcs":[[320,-1,321,-314,-318]],"type":"Polygon","properties":{"cvegeo":"14020","nombre":"Cabo Corrientes"}},{"arcs":[[-177,322,323,324,-144]],"type":"Polygon","properties":{"cvegeo":"14018","nombre":"La Barca"}},{"arcs":[[325,326,-227,-242,-300,-307,327]],"type":"Polygon","properties":{"cvegeo":"14010","nombre":"Atemajac de Brizuela"}},{"arcs":[[-328,-306,-175,328]],"type":"Polygon","properties":{"cvegeo":"14024","nombre":"Cocula"}},{"arcs":[[-329,-174,-173,-197,-160,329,-326]],"type":"Polygon","properties":{"cvegeo":"14114","nombre":"Villa Corona"}},{"arcs":[[330,331,332,-167,333,334]],"type":"Polygon","properties":{"cvegeo":"14012","nombre":"Atenguillo"}},{"arcs":[[-298,-260,-228,-327,-330,-159,335]],"type":"Polygon","properties":{"cvegeo":"14119","nombre":"Zacoalco de Torres"}},{"arcs":[[336,-334,-166,-305,-319,-320,-313,337]],"type":"Polygon","properties":{"cvegeo":"14011","nombre":"Atengo"}},{"arcs":[[-335,-337,-338,-312,-316,338,-331]],"type":"Polygon","properties":{"cvegeo":"14028","nombre":"Cuautla"}},{"arcs":[[339,-4,-112,-115,-116,-164,-333]],"type":"Polygon","properties":{"cvegeo":"14058","nombre":"Mascota"}},{"arcs":[[-332,-339,-315,-322,-5,-340]],"type":"Polygon","properties":{"cvegeo":"14084","nombre":"Talpa de Allende"}},{"arcs":[[-302,340,-158,-282,-281,-141,341,-296]],"type":"Polygon","properties":{"cvegeo":"14030","nombre":"Chapala"}},{"arcs":[[-163,-286,-154,-341,-303,-299,-336]],"type":"Polygon","properties":{"cvegeo":"14050","nombre":"Jocotepec"}},{"arcs":[[342,343,344,-293,-342,-140]],"type":"Polygon","properties":{"cvegeo":"14066","nombre":"Poncitlán"}},{"arcs":[[-343,-139,-138,-145,-325,345]],"type":"Polygon","properties":{"cvegeo":"14063","nombre":"Ocotlán"}},{"arcs":[[346,-344,-346,-324]],"type":"Polygon","properties":{"cvegeo":"14047","nombre":"Jamay"}},{"arcs":[[347,348,-234,-240,-232,349,350,351]],"type":"Polygon","properties":{"cvegeo":"14113","nombre":"San Gabriel"}},{"arcs":[[352,353,354,355]],"type":"Polygon","properties":{"cvegeo":"14121","nombre":"Zapotiltic"}},{"arcs":[[356,-248,-310,-271,-276,357,358]],"type":"Polygon","properties":{"cvegeo":"14015","nombre":"Autlán de Navarro"}},{"arcs":[[359,-358,-275,-252,-235,-349,360]],"type":"Polygon","properties":{"cvegeo":"14106","nombre":"Tuxcacuesco"}},{"arcs":[[-350,-231,-270,361,-353,362]],"type":"Polygon","properties":{"cvegeo":"14023","nombre":"Zapotlán el Grande"}},{"arcs":[[363,364,-247,365]],"type":"Polygon","properties":{"cvegeo":"14069","nombre":"Quitupan"}},{"arcs":[[366,367,368]],"type":"Polygon","properties":{"cvegeo":"14065","nombre":"Pihuamo"}},{"arcs":[[369,370,-6]],"type":"Polygon","properties":{"cvegeo":"14022","nombre":"Cihuatlán"}},{"arcs":[[371,-352,372,373]],"type":"Polygon","properties":{"cvegeo":"14122","nombre":"Zapotitlán de Vadillo"}},{"arcs":[[374,375]],"type":"Polygon","properties":{"cvegeo":"14103","nombre":"Tonila"}},{"arcs":[[-368,376,-376,-373,-351,-363,-356,377]],"type":"Polygon","properties":{"cvegeo":"14108","nombre":"Tuxpan"}},{"arcs":[[-355,378,379,380,-369,-378]],"type":"Polygon","properties":{"cvegeo":"14087","nombre":"Tecalitlán"}},{"arcs":[[381,-243,-365,382,383]],"type":"Polygon","properties":{"cvegeo":"14056","nombre":"Santa María del Oro"}},{"arcs":[[-10,-249,-357,384]],"type":"Polygon","properties":{"cvegeo":"14021","nombre":"Casimiro Castillo"}},{"arcs":[[-359,-360,385,386,-370,-11,-385]],"type":"Polygon","properties":{"cvegeo":"14027","nombre":"Cuautitlán de García Barragán"}},{"arcs":[[-379,-354,-362,-269,-268,-292,-244,-382,387]],"type":"Polygon","properties":{"cvegeo":"14085","nombre":"Tamazula de Gordiano"}},{"arcs":[[-384,388,-380,-388]],"type":"Polygon","properties":{"cvegeo":"14049","nombre":"Jilotlán de los Dolores"}},{"arcs":[[-386,-361,-348,-372,389]],"type":"Polygon","properties":{"cvegeo":"14099","nombre":"Tolimán"}}]}}}