{"type":"Topology","arcs":[[[129805,236714],[21303,-5871],[5775,5931],[17421,2097],[1894,-839],[852,-539],[568,-180],[6817,-3954],[94,-1078],[0,-120],[-2461,-4434]],[[182068,227727],[-190,-60]],[[181878,227667],[-189,-119]],[[181689,227548],[379,599],[-3598,4014],[3219,-4613]],[[181689,227548],[189,119]],[[182068,227727],[12876,-2037],[189,180],[1420,240],[95,0],[2083,-480],[3030,-1078],[0,-120],[4355,-1977],[757,-180],[-14296,-13240],[-10036,-17435],[-947,-14678],[-20072,-10365],[6628,-9586],[17894,12821],[4829,-21449],[8521,-15936],[-758,-7010],[9847,-7729],[5681,4973],[5491,-10006],[-6059,-1497],[6343,-15997],[0,-12582],[-8426,-2456],[10225,-12402],[-7953,-2756],[10699,-16176],[-6344,-8208]],[[218140,40561],[-9657,2756],[-9941,9226],[-18747,3595],[-12687,10065],[-17042,659],[-3692,8927],[-10131,2816],[-8521,15338],[-19883,-1438],[-15716,20310],[3503,18094],[-8995,19292],[2273,23126],[-1326,39302]],[[87578,212629],[-13255,17675],[3787,11802],[14391,120],[5302,8028],[2557,2277],[1704,0],[15338,3175],[-1894,-15876],[14297,-3116]],[[482957,336528],[8521,-1198],[-6059,-22886],[14581,-6351],[-9658,-18453],[-18936,-3176],[-3881,-17973],[-3598,10604],[-18747,1019],[1042,-23067],[-11267,-9406],[3503,-8208],[-1609,-16356],[-6912,-22767],[10699,-7908],[-3977,-10125]],[[436659,180277],[-3503,-8208],[-14864,1737],[852,9766],[-9089,-2037],[-2652,-11983],[-8615,-13240],[-15433,-3415],[-568,-16297],[-22912,-5991],[5396,-2037],[-2272,-15337],[4261,-19053],[-17895,1378],[-8615,-13180]],[[340750,82380],[-16948,419],[-15622,6471],[-23575,15397],[189,13001],[-5586,-7848],[-11361,-1378],[-11551,-15398],[-3219,-50266],[2746,-9826],[-7764,-12821],[-9941,6770],[-19978,13660]],[[87578,212629],[-46487,659],[-9090,420],[-15622,8507],[-3503,22947],[-11929,19591],[-947,11324],[24901,5212],[54251,4194],[63624,6470],[10225,-539],[14297,-20190],[16000,-8148],[3977,16835],[30297,5812],[30487,17434],[41848,18932],[27741,30076],[32853,20550],[33138,16536]],[[383639,389251],[14486,5692],[6343,5152],[20072,-13719],[5681,10304],[7669,-10604],[-6817,-5572],[17705,-16835],[6722,8268],[12877,-10485],[-4450,-12462],[13255,-12941],[5775,479]],[[623461,967467],[0,-839],[-1515,-63088],[15433,-4733],[30108,1378],[3219,-8628],[-3219,-16116],[14580,-2996],[-284,-7968],[17137,1078],[18462,-5032],[5681,11503],[13255,8867],[30392,-40201],[19220,-25583],[-10320,120],[-1042,-11383],[10510,-659],[-852,-13720]],[[784226,789467],[-3598,-31874]],[[780628,757593],[-13823,1079],[3692,7549],[-22628,6111],[8994,22647],[-18273,-4254],[-378,-14679],[-9658,2636],[95,9586],[-9657,1738],[-1988,13780],[-17137,4853],[-9468,-4614],[0,-10484],[-15906,1857],[1609,14319],[-11077,-8268],[-33138,2337],[-38345,-13900]],[[593542,789886],[-2083,1678],[-189,38104],[1704,13241],[-5491,41579],[16190,44754],[-2083,21629],[13066,19531],[-1326,17674],[3409,11324],[7479,599],[-757,-32532]],[[780628,757593],[-3787,-30196],[-10983,1019],[-5113,-25882],[5208,-8388],[-28404,-1019]],[[737549,693127],[0,25883],[-21303,-1319],[-12403,14859],[-19220,-8328],[95,20790],[-25847,2276],[-12877,9706],[-17515,240],[-8805,9166],[-3977,-5392],[-9278,5812],[-14865,599]],[[591554,767419],[1988,22467]],[[717856,651668],[10225,-5452],[-16095,-31874],[15054,-3894],[7858,9227],[7480,-8089],[-7953,-12222],[5302,-27919],[12781,-3774],[-2177,-9467],[-8427,-1258],[1799,-18692],[16474,-13780],[17895,2037],[-379,-38644],[-14107,719]],[[763586,488586],[1231,24444],[-35032,-59],[-28593,1977],[-7574,-44336],[-17516,5452],[-25563,-1018],[0,17375],[-5681,59],[0,48290],[-8237,8448],[-757,-18094],[-18747,4254],[-1325,19052],[5775,16596],[-18273,-5213],[5870,16117],[-14107,-2097],[-10036,3535],[-94,11084],[11740,4673],[-18557,1917],[-8237,7309],[-18084,6830],[-21303,2876]],[[530486,618057],[9468,22946],[11456,11564],[33990,23845],[18462,30915]],[[603862,707327],[95,-180]],[[603957,707147],[17326,-2277],[2841,4134],[20924,-8747],[3597,-14499],[17705,5093],[-4639,-18393],[12971,-2217],[8427,-8028],[-7007,-8508],[28783,2936],[12971,-4973]],[[663226,116650],[3503,0],[474,-20431],[-3030,-95320]],[[664173,899],[-34369,-899],[-67506,1078],[-119769,-239],[-94,48409],[-39481,360],[-7291,3834],[-21871,-60],[-33042,28998]],[[436659,180277],[7575,-12402],[18841,1498],[-7953,-16177],[14486,-60],[1230,8268],[21871,-239],[-1041,-13061],[10698,-1259],[2557,26422],[22912,-180],[0,44635],[33138,539],[7006,7369],[-1136,-11083],[24616,539],[852,13720],[15622,120],[-1136,-12702],[3125,-89569],[42889,479],[190,-10664],[10225,180]],[[991762,350668],[1325,-39962],[-2367,-6710],[663,-93823],[7385,-60],[1231,-21389],[-5018,-60],[1704,-30315],[-5870,0],[-1893,-23846],[4639,1019],[-95,-25822],[-17137,-420],[-662,-20190],[17420,-240],[-5680,-8148],[189,-13001],[-13160,839],[189,-22048],[16095,-120],[0,-4373],[95,-41160],[-101780,-240],[-224862,300]],[[663226,116650],[95,8747],[49706,1737],[2272,63567],[-6343,240],[2272,25283],[-17989,-1138],[-5586,3595],[-1609,27080],[-8616,240],[852,26721],[7101,9586],[9846,-1019],[-6722,8448],[947,12402],[27741,-6411],[9089,82439],[-7574,1079],[0,10485],[-29919,659]],[[688789,390390],[1894,16955],[47907,-8568],[-3219,9886],[23197,-8208]],[[758568,400455],[45446,1138],[1420,10844],[55103,-1557],[3692,33611],[28499,-3116],[1041,-66083],[32286,1617],[40428,-179],[1325,-27560],[23954,1498]],[[482957,336528],[8332,13061],[16474,-15158],[14297,8628],[-4734,-36786],[25184,-12762],[42890,-8627],[-6912,-33971],[18084,-659],[3977,76868],[45824,-3954],[3125,32892],[23385,-360],[3125,18693],[12781,15997]],[[737549,693127],[1894,-8867],[-12687,4194],[0,-19112],[11645,1498],[-852,-21149],[-16569,12282],[-3124,-10305]],[[603957,707147],[-95,180]],[[603862,707327],[-7479,10964],[2840,7009],[-8426,15278],[3219,11743],[-2462,15098]],[[812629,779521],[44784,-59673],[-1799,-19651],[5302,-5871],[-284,-15158],[18557,-32593],[14864,-1438],[-4734,-9586],[6912,-13779],[6154,-659],[10604,-16117],[34653,-32353],[44783,-41938],[-95,-46852],[0,-48948],[3219,-240],[-3219,-45174],[-568,-38823]],[[758568,400455],[2272,61830],[2746,26301]],[[784226,789467],[12308,-2517],[2556,-21568],[13539,14139]],[[383639,389251],[21398,13481],[9562,10544],[26321,17315],[27835,20909],[40902,39303],[12024,18633],[-757,13780],[6627,27260],[-2651,25822],[7764,22467],[-6060,6351],[3882,12941]]],"transform":{"scale":[0.000003347899767804425,0.0000030355513216883863],"translate":[-92.46921819912578,17.812803863932977]},"objects":{"municipalities":{"type":"GeometryCollection","geometries":[{"arcs":[[0,1,2,3,4,-2,5,6,7]],"type":"Polygon","properties":{"cvegeo":"04007","nombre":"Palizada"}},{"arcs":[[8,9,10,-6,1,-5,-4,-3,-2,-1,-8,11,12]],"type":"Polygon","properties":{"cvegeo":"04003","nombre":"Carmen"}},{"arcs":[[13,14,15,16]],"type":"Polygon","properties":{"cvegeo":"04001","nombre":"Calkiní"}},{"arcs":[[17,18,19,-16]],"type":"Polygon","properties":{"cvegeo":"04005","nombre":"Hecelchakán"}},{"arcs":[[20,21,22,23,24]],"type":"Polygon","properties":{"cvegeo":"04002","nombre":"Campeche"}},{"arcs":[[25,26,-10,27]],"type":"Polygon","properties":{"cvegeo":"04011","nombre":"Candelaria"}},{"arcs":[[28,-26,29,30,31]],"type":"Polygon","properties":{"cvegeo":"04010","nombre":"Calakmul"}},{"arcs":[[-28,-9,32,-30]],"type":"Polygon","properties":{"cvegeo":"04009","nombre":"Escárcega"}},{"arcs":[[33,-25,34,35,-19]],"type":"Polygon","properties":{"cvegeo":"04008","nombre":"Tenabo"}},{"arcs":[[36,-32,37,-21,-34,-18,-15,38]],"type":"Polygon","properties":{"cvegeo":"04006","nombre":"Hopelchén"}},{"arcs":[[39,-22,-38,-31,-33,-13]],"type":"Polygon","properties":{"cvegeo":"04004","nombre":"Champotón"}}]}}}