{"type":"Topology","arcs":[[[762168,909086],[702,-45]],[[762870,909041],[1933,-8422],[-10806,-10384],[-11597,535],[-3427,8111],[-18362,178],[-10192,-6418],[-25215,8824],[-29345,12746],[-32419,10829],[-6238,10117],[-24249,18940],[-12827,3298],[-14057,-1872],[-1318,7264],[-19153,16266],[-11422,-1515],[-8610,3610]],[[525566,981148],[-2723,16578],[46652,2273],[15990,-1649],[43226,-11676],[64488,-13013],[4744,-11186],[16254,-23619],[24337,-8735],[7995,5080],[15375,-6150],[-2196,-11275],[-8874,2719],[5184,-10206],[6150,-1203]],[[906167,869156],[25830,-38861]],[[931997,830295],[-7029,-10295],[-14496,-45011],[-30048,-10473],[-11948,-1114],[2020,-17826]],[[870496,745576],[-31189,10339],[-30926,29993],[12300,30126],[5271,33914],[-16605,3788],[3515,9849],[-13706,7041],[3514,7799],[10719,9537],[-1494,10829],[-7731,8334]],[[804164,907125],[12915,10295],[16605,6150],[39009,-11721],[10279,-20589],[10192,-14261],[13003,-7843]],[[984009,860599],[15990,-23486],[-30047,-28700],[-26270,-15197],[-16957,13325],[-966,12122],[6238,11632]],[[906167,869156],[33737,-11944],[15727,10161],[15111,-6952],[13267,178]],[[482340,496501],[-4217,-12211],[176,-21703],[-7995,446]],[[470304,463033],[-8698,-3566],[-7556,-10250],[-18714,446],[-4305,-10696]],[[431031,438967],[-13354,580]],[[417677,439547],[-6414,3119],[2196,9671],[-10718,3521]],[[402741,455858],[-3163,8021],[3866,10250]],[[403444,474129],[21349,535],[12564,-5972],[21437,6061],[3251,10206],[-7819,8423]],[[454226,493382],[12563,15241],[15551,-12122]],[[456949,644146],[14760,-713],[11685,-21793],[14233,-9492],[-3602,-6284]],[[494025,605864],[-8610,3298],[0,-9582],[-12651,11186],[-10543,-5169],[-17836,5615],[-8346,-13236],[-17220,-4278],[-10895,6818],[3515,10696],[-3251,5125]],[[408188,616337],[9137,3743],[14409,27185],[25215,-3119]],[[574942,359730],[-8698,-2629],[2460,-10294]],[[568704,346807],[-3777,-624],[-2636,-16757],[-10455,-936],[-5360,-5838],[-24951,-2273],[-703,-3788]],[[520822,316591],[-6062,7666],[-13003,1604],[16253,17737],[1230,5660],[9313,-8289],[13970,2406],[-5623,4679],[7995,4190],[-7380,9536],[9313,1783],[3338,14216]],[[550166,377779],[12828,-7620],[13705,2005],[-1757,-12434]],[[494025,605864],[9137,-3298],[-1932,-6551],[15375,-3921],[527,-5036],[-20559,-18762],[-703,-6462],[15639,-7398],[-3690,-14751],[-7468,-6952],[14321,-8780],[-7029,-3253],[-8698,-18717],[-7204,-3298]],[[491741,498685],[-9401,-2184]],[[454226,493382],[-15376,3342],[-15638,-223],[-21701,-11676],[1933,-10696]],[[402741,455858],[-8610,3966],[-15024,-5571],[-6677,6462],[-11597,-5437],[-12037,3833],[-13354,-13860],[-17660,6239]],[[317782,451490],[-11070,3788],[6326,11231],[-7732,4813],[1933,10294],[-10806,2050],[-25918,10339],[-5711,-2361],[-10455,17202],[-5008,-2050],[-16957,3164],[-1669,9091]],[[230715,519051],[7029,11498],[-615,10072],[6589,12790],[-14760,11587],[1669,7754],[8962,7131]],[[239589,579883],[31013,980],[7908,-1961],[9840,9938],[16429,-490],[4569,-7799],[12388,-2852],[15111,6328],[24688,6462],[440,3655],[18274,2094],[5096,-2629],[0,31374]],[[385345,624983],[22843,-8646]],[[469249,385445],[1757,-3699],[27851,1292],[-3514,-11721],[14409,-4857],[3163,10695],[7028,-1381],[352,11230],[12300,-5704]],[[532595,381300],[17571,-3521]],[[520822,316591],[2460,-3253],[-17660,-7843],[-23897,133]],[[481725,305628],[615,10473],[-9489,4278],[-3075,9181],[-11245,8155],[8961,19030],[-8698,4100],[-13618,7219],[6502,16088],[7204,2540]],[[458882,386692],[10367,-1247]],[[665700,393957],[-14497,2228],[-10016,-15197],[-13881,-10740]],[[627306,370248],[1493,-7621],[-13354,1471],[615,9537],[-5096,891],[-13969,18807],[9928,16890],[-10192,6596],[-13618,-2630]],[[583113,414189],[7995,24466]],[[591108,438655],[5623,11855]],[[596731,450510],[1406,-4368],[18626,-20143],[48937,-32042]],[[417677,439547],[-1845,-6640],[24336,-7220],[-4832,-3877],[4832,-10651],[-7116,-11543]],[[433052,399616],[1405,-15196],[-7028,-4368],[-1757,-12478],[-27588,3431],[88,-10873],[-11685,-4323]],[[386487,355809],[-14497,7754],[-12739,-5214],[-2372,10874],[-13091,5125]],[[343788,374348],[8434,9626],[-1932,7309],[-9226,-1204],[-14057,14038],[-12827,446]],[[314180,404563],[-9137,10295],[8522,24243],[5886,936],[-1669,11453]],[[620277,327376],[7819,-4724],[18099,-133],[-176,-2764],[24688,-356],[18538,-5927],[3866,-6863],[15903,936]],[[709014,307545],[87,-12345],[-6677,-1872],[-703,-12344],[9489,-6106]],[[711210,274878],[-24337,1694],[-12476,11810],[-14672,2362],[-8258,-2764]],[[651467,287980],[-6326,5393],[-4130,14038],[-10542,1783],[-13531,-4680],[-8083,847],[-2372,14216]],[[606483,319577],[13794,7799]],[[620453,328758],[-176,-1382]],[[606483,319577],[-7468,3432],[-17835,2986],[-10191,11096],[-2285,9716]],[[574942,359730],[13003,1248],[10104,-8556],[-6941,-16400],[29608,-3610],[-263,-3654]],[[762870,909041],[37691,-4233],[3603,2317]],[[870496,745576],[4569,-41223],[-40942,-29769],[-34879,-25358]],[[799244,649226],[-18802,14395],[5272,2896],[-352,14395],[-17572,-3432],[-12036,5304],[-14584,1604],[-23195,-6150],[-18274,5081],[-26358,2718],[-24688,-7621],[-7907,11543],[-13003,-669],[-3514,14618],[-11510,-3476],[-6501,13235],[-8874,179],[-23458,12567]],[[573888,726413],[-3163,10740],[2372,19698],[-18450,3966],[-791,14350],[-18801,4011],[-1494,6418],[-25566,23129],[-7556,-3164],[-6414,5259],[-1493,8824],[-10719,2763]],[[481813,822407],[1406,2584],[20119,-802],[14848,4902],[88,15375],[-3954,29904],[-4920,23797],[-15023,47150],[-29521,9983],[0,8779],[8259,-44],[3954,7353],[-11334,14216],[61852,-16400],[-2021,11944]],[[290546,390837],[-1054,-3610],[18011,-6863],[-615,-6774]],[[306888,373590],[-15727,-25937],[-1669,-17781]],[[289492,329872],[-16342,-5125],[5975,-8423],[-3163,-13637],[7292,6818],[8434,-2183],[-439,-12122],[-10719,-936],[-19680,-7264],[-4832,-18717],[-6501,-6061],[-18275,-1070],[-6238,2808],[-11685,1069],[-6677,-6863],[-22052,2808],[-1845,4679],[8170,9404],[8435,17647],[8698,9537],[-10719,4323],[791,11765],[7819,-1247],[3514,16890],[6063,7442],[-3515,21525],[-7028,8378]],[[204973,371317],[20295,2674],[15199,-3520],[5447,12300],[21965,13414],[7028,-5526],[15639,178]],[[493234,442978],[-4217,-9938]],[[489017,433040],[-5447,-5348],[-6501,6284],[-15551,446],[-17308,-2986],[527,6908],[-13706,623]],[[470304,463033],[-967,-6596],[11773,-7398],[3427,4011],[8697,-10072]],[[706993,349525],[351,-134]],[[707344,349391],[-5271,-15419],[3865,-8601],[-8697,802],[-3339,-5660],[24161,134],[-5096,-12835]],[[712967,307812],[-3953,-267]],[[620453,328758],[18450,10250]],[[638903,339008],[17484,11631],[25918,-3387],[11948,9849],[12740,-7576]],[[627306,370248],[12651,-5660],[-6413,-7977],[5359,-17603]],[[532595,381300],[7907,15152],[10631,3432]],[[551133,399884],[13442,3476],[15902,-178],[2636,11007]],[[579335,490485],[7205,-5125]],[[586540,485360],[-7732,-8869],[-16342,-1114],[-6062,-6997],[-18713,-311]],[[537691,468069],[-10895,-5749],[6326,-8958],[-11509,-5170],[-10719,0],[-11334,-6328],[-6326,1114]],[[491741,498685],[14057,-2808],[176,6462],[37076,89],[0,3699],[23458,-3476],[-11685,-6328],[-2987,-6952],[27499,1114]],[[827095,403716],[-3866,-3921],[11861,-4190],[12124,-18182],[2109,-18762],[-7820,-13325],[-16781,668],[-2108,-24243],[-14145,1426],[3690,-11765],[7819,-3744],[-6765,-7977],[12827,-3431],[12564,-10696],[-7380,-8066],[2724,-6061],[3250,-4056],[-5886,-11854],[-879,-10384],[7292,-11676],[-12827,-1872],[-15639,-13993],[5535,-5838],[-20119,-10027],[-3690,-14127],[-3954,-2719],[-7380,2897],[-7028,10963],[-2109,15107],[-22404,-2272],[-2372,8289],[-14233,7932],[-11070,9983],[-7468,-1827],[-6677,5036]],[[706290,241009],[8434,9046],[-7643,8602],[4129,16221]],[[712967,307812],[12037,-1827],[13266,5660],[2021,4724],[17484,-3343],[-7117,9849],[5535,12389],[9665,4011],[-13179,6729],[5711,5883],[-13618,2718],[1933,5527]],[[746705,360132],[22755,24198],[1757,10830],[19504,10963],[1670,9893],[22228,1382],[17044,-8779],[-4568,-4903]],[[448954,674807],[-791,-11409],[10280,-4323],[6238,-11721],[-7732,-3208]],[[385345,624983],[-19768,89],[-4481,9269],[-13881,-2183],[-5535,4813],[5007,11676],[-19855,1025],[-12828,-2496],[3515,9047],[-8083,4367],[3690,10250],[-20471,-3075],[-18275,-5704]],[[274380,662061],[440,13013],[-4130,9314],[7117,8735],[3953,11988],[10719,1560],[-9225,7308],[5096,6596]],[[288350,720575],[2548,-1872],[10982,21614]],[[301880,740317],[703,-401]],[[302583,739916],[28378,-35696],[15990,-6418],[17484,2808],[12476,-9493],[4920,5215],[44631,-758],[20823,-7264],[1669,-13503]],[[239589,579883],[1757,9403],[10191,4991],[-4129,10250],[-9664,9938],[6237,10651],[19593,3610],[8083,6418],[-6414,7576],[-3426,9759],[9752,-1470],[2811,11052]],[[230715,519051],[-11334,-3164],[-6589,2718],[-10807,-4768],[-3162,-7086],[-11773,-535],[-23810,-2629],[-19417,-9403],[-13178,44]],[[130645,494228],[5623,6952],[14848,1159],[6589,5081],[3163,10874],[7995,-535],[14848,9670],[7995,-1381],[1757,10250],[-9752,-3922],[-1054,8824],[-12300,2763],[2372,8423]],[[172729,552386],[-4305,35073],[-16693,-6596],[2548,21748],[3250,10161],[-9137,8690],[-17923,7665]],[[130469,629127],[8347,6952],[10455,-6462],[7292,15375],[-18275,803],[2812,5303],[-5974,12567],[12915,13459],[-8786,13102],[8083,25402],[-5360,-133],[-9664,10517],[17308,8066],[17923,12033]],[[167545,746111],[-1230,-9894],[25040,-14483],[25654,-669],[-966,5348],[9313,1426],[17132,-4813],[10279,1248],[6941,-7621],[9840,535],[10631,9359],[8171,-5972]],[[343788,374348],[-22667,8334],[-4130,-8379],[-10103,-713]],[[290546,390837],[6677,9225],[15376,758],[1581,3743]],[[386487,355809],[-4832,-11721],[-11597,1604],[-2548,-11453],[-14321,-9715],[14321,-23397],[-9225,-8690]],[[358285,292437],[-5975,4991],[-5535,8423],[-25479,1515],[-8785,-3699],[3426,10919],[11510,6506],[0,7398],[-8347,-1069],[-5711,7398],[-3602,-4279],[-14760,4992],[-5535,-5660]],[[706290,241009],[-16605,267],[-703,3120],[-28730,17068],[-16078,4546],[6941,9359],[352,12611]],[[665700,393957],[615,-357],[25742,1337],[-5447,-22817],[14584,-2853],[-4656,-12656],[10455,-7086]],[[707344,349391],[7380,4412],[10016,-1916],[-2987,6952],[13881,2897],[11071,-1604]],[[481725,305628],[-15814,45],[-264,-11275],[7995,-4234],[-14584,-30304],[-14321,-5927],[-16693,-20634]],[[428044,233299],[-14760,1381],[-2548,8468],[-14672,-2630],[-967,7933]],[[395097,248451],[-88,7933],[-6413,-89],[-791,8913],[-15463,2406],[-10543,-6194],[-1494,-16980],[-15550,1293]],[[344755,245733],[-440,4010],[-12827,2184],[7556,7755],[13793,5793],[-7028,6328],[-967,9314],[14761,7175],[-1318,4145]],[[433052,399616],[23019,-5793],[2811,-7131]],[[551133,399884],[-11510,21436],[9138,9537],[42347,7798]],[[389035,107670],[3163,-6017],[-12564,-23842]],[[379634,77811],[-5447,11275],[-10894,4501],[-12213,45],[-14057,7219],[-17396,-4234],[-6326,3699]],[[313301,100316],[11685,26784]],[[324986,127100],[18099,-7843],[7995,1069],[15463,-8022],[22492,-4634]],[[452556,129195],[5711,-6953],[18011,-2139],[1933,-8066],[-8259,-13280],[-1230,-9359],[4481,-10250],[-10895,-6863],[-13090,11810]],[[449218,84095],[10455,6818],[-7029,10651],[-7380,-1381],[-5184,11364],[7117,7308],[-3602,4457],[8961,5883]],[[255754,167610],[-15111,-7933],[-10807,-14885],[-7819,3566]],[[222017,148358],[6150,6328],[5096,15731],[-5711,8200],[-12036,7443],[12827,356],[6501,6908],[8962,-4858],[175,6373],[14058,13904]],[[258039,208743],[5008,-6239],[23985,-3565],[527,-8601],[-13530,-624],[-1054,-7487],[-6765,1560],[-3339,-11587],[-7117,-4590]],[[220348,130442],[9400,535],[5536,-5749]],[[235284,125228],[4041,-11275]],[[239325,113953],[4744,-10294],[-12563,-17381]],[[231506,86278],[-6678,11855],[-9049,-1204],[-4217,-11631],[-10367,6417],[-10192,5660],[615,5348],[-11861,713],[7995,9581],[-6062,5749],[2197,6730],[10894,4545],[15024,-3877],[439,7309],[10104,-3031]],[[259357,57355],[2723,-9358],[-9049,-15331],[-8874,-8378]],[[244157,24288],[-9752,-3833],[-1933,4546],[-11685,-7219],[-11685,3921],[-5272,6239],[-2723,8512]],[[201107,36454],[12212,847],[-176,12300],[27500,13637],[966,5036],[11685,1560],[6063,-12479]],[[395097,248451],[-13706,-2808],[-11685,-19385],[1054,-7933],[-7819,-3075],[7117,-10027],[-20032,-4234]],[[350026,200989],[-17484,7799],[-88,5080]],[[332454,213868],[2109,12390],[-8171,7085]],[[326392,233343],[16957,4368],[1406,8022]],[[408188,198895],[2460,1158]],[[410648,200053],[5799,-6729],[-1670,-8423],[29960,-19297],[-703,-1025],[-3866,-5838],[-11948,-5169]],[[428220,153572],[-17923,17558],[-5535,-6417],[-30575,-312],[-12388,13281],[-10631,1916]],[[351168,179598],[2636,12612],[-3778,8779]],[[350026,200989],[19944,-2406],[21174,-9047],[14848,3342],[2196,6017]],[[428220,153572],[527,-892]],[[428747,152680],[-5447,-3520],[1493,-8111],[-8610,2763],[-9752,-19742],[-16869,-11365],[-527,-5035]],[[324986,127100],[-5622,5437]],[[319364,132537],[-3075,3610],[13881,8111]],[[330170,144258],[7995,-312],[1669,10161],[7996,5481],[-1582,5437],[8698,3253],[-3778,11320]],[[379634,77811],[-11070,-7086],[-3602,-8958]],[[364962,61767],[-20822,758],[-1670,5080],[-30223,4279],[-3602,-2808]],[[308645,69076],[-6150,3610]],[[302495,72686],[88,13904],[7204,8245]],[[309787,94835],[3514,5481]],[[308645,69076],[-6941,-12389],[8874,-7220],[-4832,-11007],[-13179,0],[2460,-16267],[10016,-2985],[-2460,-9671]],[[302583,9537],[-5272,-7799],[-5535,3120],[-13793,-4858],[-6151,1916],[-13618,15464],[528,5527],[-14585,1381]],[[259357,57355],[5974,-490],[12652,8156],[1405,7353],[23107,312]],[[332454,213868],[-14408,-3565],[-18450,2808],[-8698,-5393],[-24601,1649]],[[266297,209367],[12213,3788],[1845,6908],[16517,11409],[3602,-4056],[20383,-624],[-2636,6997],[8171,-446]],[[364962,61767],[-4569,-8110]],[[360393,53657],[-9664,-16935],[3602,-9983],[-7468,-5481],[11158,-7978],[176,179],[-4745,-6106],[-14233,-4768],[-23194,9626],[-13442,-2674]],[[449218,84095],[439,-7443],[-11861,-10116],[-5799,2986],[-6765,-8245],[-5886,2184],[-7380,-12345],[-9752,-3743],[-3251,-7977],[-10367,2362],[-13530,11052],[-8259,-4323],[-6414,5170]],[[428747,152680],[10543,-17380],[13266,-6105]],[[428044,233299],[-10455,-17158],[-6941,-16088]],[[319364,132537],[-10016,-7665],[-5535,-9404],[-20471,1560],[3514,3476],[-15287,8423],[-39185,5348],[2900,-9047]],[[220348,130442],[1669,17916]],[[255754,167610],[9401,-5526],[21701,1693],[19417,-11720],[5798,1426],[18099,-9225]],[[239325,113953],[16869,-5793],[29520,-1293],[11070,-2317],[13003,-9715]],[[201107,36454],[-2987,1025],[-1582,21392],[-6853,1470],[-14057,-5481],[-1318,9715],[15990,7442],[42436,4100],[-1230,10161]],[[258039,208743],[8258,624]],[[172729,552386],[-7556,1203],[-12300,-4590],[-4657,7754],[-19328,-1515],[-4657,-8111],[-14848,-579],[-10894,9626],[-18187,-3432],[-14936,4234]],[[65366,556976],[1230,9270],[12388,26561],[19065,12567],[29345,15954],[3075,7799]],[[130645,494228],[-16166,-2362],[-15463,5304],[-20910,-12523],[-16342,1203],[2812,-8779],[-12740,-4011]],[[51836,473060],[-2987,1872],[439,35785],[11949,13192],[4129,33067]],[[204973,371317],[-14233,-2985],[-18099,6551],[-11597,-4501],[-4920,-19119],[-6502,-12344],[-351,-12434],[-9401,-8289],[4744,-13459],[-9664,-29680],[-10719,17246],[-6677,23174],[16517,20411],[-5359,14350],[6414,6908],[-3603,4857],[5535,12924],[22668,9047],[5271,26561],[-7028,2540],[-20471,-45],[-15288,4992],[-32419,-1694],[-13003,-12300],[15990,-5971],[-2724,-4056],[2724,-13771],[11949,-12478],[-9225,-2050],[20031,-11631],[-7556,-13726],[-12124,-5705],[-5359,-11141],[-7029,2941],[-12652,-5258],[11861,27318],[-7643,16355],[-11510,-4322],[2021,-4680],[-14321,4189],[-8171,-2362],[-1405,-11676],[7643,-3921],[2109,-11944],[-12212,7576],[-12652,-7264],[-527,-10696],[-10016,-1158],[-176,5080],[-15814,5214],[264,5705],[14672,15464],[-6941,15375],[16869,14795],[-7995,13058],[7204,16757],[11597,15152],[9489,-4635],[29608,2317],[-8610,10028],[1142,17469],[-12300,9849],[-4393,8155],[1230,4680]],[[799244,649226],[-85486,-60297],[-65806,-18360],[-30486,-4635],[-12916,1782],[0,9270],[-6325,624],[-527,11319],[-12301,-222],[-4305,-20010],[-11860,-10963],[11509,-9671],[-8610,-1872],[-967,-10161],[13794,-5481],[-351,-9849],[7380,-9270],[-12652,-20945]],[[448954,674807],[31014,401],[17132,10294],[7732,14662],[-3427,10874],[-11597,134],[-6853,6328],[8698,-45],[5271,10607],[19241,-10116],[4305,8824],[40766,-7576],[12652,7219]],[[302583,739916],[5359,-44],[88,20723],[2724,8244],[-4569,6774],[12915,2318],[-8434,13325],[-3163,11898],[15375,-1916],[10894,6863],[-20558,4323],[4832,15063]],[[318046,827487],[4129,535],[6062,2897],[18626,-8200],[15287,15865],[16606,-8156],[4480,6017],[18363,-7131],[2723,7844],[16430,-18584],[11948,5214],[10280,-7398],[24776,1382],[14057,4635]],[[586540,485360],[10191,-34850]],[[469249,385445],[11334,3520],[5359,9270],[6853,-223],[2197,14840],[6940,11587]],[[501932,424439],[23458,6373],[10807,8022],[5974,15107],[-5974,2986],[1494,11142]],[[301880,740317],[-35143,43362],[-12652,28433]],[[254085,812112],[3866,17603],[9137,-1782],[28730,1426],[7995,4545],[8522,-7397],[5711,980]],[[501932,424439],[-5008,8289],[-7907,312]],[[167545,746111],[23546,14751],[6765,-9581],[21350,21614],[-1055,14394],[-1581,7175],[17220,401],[12212,7933],[8083,9314]]],"transform":{"scale":[0.0000036078200300274507,0.000004080926014460828],"translate":[-104.3500981092627,21.044223308429014]},"objects":{"municipalities":{"type":"GeometryCollection","geometries":[{"arcs":[[0,1,2]],"type":"Polygon","properties":{"cvegeo":"32027","nombre":"Melchor Ocampo"}},{"arcs":[[3,4,5,6]],"type":"Polygon","properties":{"cvegeo":"32007","nombre":"Concepción del Oro"}},{"arcs":[[7,-4,8]],"type":"Polygon","properties":{"cvegeo":"32041","nombre":"El Salvador"}},{"arcs":[[9,10,11,12,13,14,15]],"type":"Polygon","properties":{"cvegeo":"32005","nombre":"Calera"}},{"arcs":[[16,17,18]],"type":"Polygon","properties":{"cvegeo":"32006","nombre":"Cañitas de Felipe Pescador"}},{"arcs":[[19,20,21,22]],"type":"Polygon","properties":{"cvegeo":"32008","nombre":"Cuauhtémoc"}},{"arcs":[[-18,23,24,-16,25,-14,26,27,28,29,30]],"type":"Polygon","properties":{"cvegeo":"32010","nombre":"Fresnillo"}},{"arcs":[[31,32,-22,33,34,35]],"type":"Polygon","properties":{"cvegeo":"32012","nombre":"Genaro Codina"}},{"arcs":[[-15,-26]],"type":"Polygon","properties":{"cvegeo":"32013","nombre":"General Enrique Estrada"}},{"arcs":[[36,37,38,39,40]],"type":"Polygon","properties":{"cvegeo":"32016","nombre":"General Pánfilo Natera"}},{"arcs":[[-13,41,42,43,44,45,-27]],"type":"Polygon","properties":{"cvegeo":"32020","nombre":"Jerez"}},{"arcs":[[46,47,48,49,50]],"type":"Polygon","properties":{"cvegeo":"32024","nombre":"Loreto"}},{"arcs":[[51,-51,52,-20,53]],"type":"Polygon","properties":{"cvegeo":"32025","nombre":"Luis Moya"}},{"arcs":[[-2,54,-6,55,56,57,58]],"type":"Polygon","properties":{"cvegeo":"32026","nombre":"Mazapil"}},{"arcs":[[59,60,61,62]],"type":"Polygon","properties":{"cvegeo":"32031","nombre":"Monte Escobedo"}},{"arcs":[[63,64,-11,65]],"type":"Polygon","properties":{"cvegeo":"32032","nombre":"Morelos"}},{"arcs":[[66,67,68,-47,-52,69,70]],"type":"Polygon","properties":{"cvegeo":"32035","nombre":"Noria de Ángeles"}},{"arcs":[[71,-70,-54,-23,-33,72,73,-38]],"type":"Polygon","properties":{"cvegeo":"32036","nombre":"Ojocaliente"}},{"arcs":[[74,75,76,-66,-10,-25,77]],"type":"Polygon","properties":{"cvegeo":"32037","nombre":"Pánuco"}},{"arcs":[[78,79,-48,-69,80,81]],"type":"Polygon","properties":{"cvegeo":"32038","nombre":"Pinos"}},{"arcs":[[82,-19,-31,83,84,85,86,87]],"type":"Polygon","properties":{"cvegeo":"32039","nombre":"Río Grande"}},{"arcs":[[-30,88,-84]],"type":"Polygon","properties":{"cvegeo":"32040","nombre":"Sain Alto"}},{"arcs":[[-85,-89,-29,89,90,91,92,93]],"type":"Polygon","properties":{"cvegeo":"32042","nombre":"Sombrerete"}},{"arcs":[[94,-60,95,-45]],"type":"Polygon","properties":{"cvegeo":"32043","nombre":"Susticacán"}},{"arcs":[[-44,96,97,-61,-95]],"type":"Polygon","properties":{"cvegeo":"32046","nombre":"Tepetongo"}},{"arcs":[[-80,98,-49]],"type":"Polygon","properties":{"cvegeo":"32052","nombre":"Villa García"}},{"arcs":[[99,-71,-72,-37]],"type":"Polygon","properties":{"cvegeo":"32053","nombre":"Villa González Ortega"}},{"arcs":[[-81,-68,100]],"type":"Polygon","properties":{"cvegeo":"32054","nombre":"Villa Hidalgo"}},{"arcs":[[-35,101,102,103,104,-97,-43,105]],"type":"Polygon","properties":{"cvegeo":"32055","nombre":"Villanueva"}},{"arcs":[[-74,106,-39]],"type":"Polygon","properties":{"cvegeo":"32057","nombre":"Trancoso"}},{"arcs":[[107,108,109,110]],"type":"Polygon","properties":{"cvegeo":"32001","nombre":"Apozol"}},{"arcs":[[111,112]],"type":"Polygon","properties":{"cvegeo":"32002","nombre":"Apulco"}},{"arcs":[[113,114,115]],"type":"Polygon","properties":{"cvegeo":"32003","nombre":"Atolinga"}},{"arcs":[[116,117,118,119]],"type":"Polygon","properties":{"cvegeo":"32004","nombre":"Benito Juárez"}},{"arcs":[[120,121,122]],"type":"Polygon","properties":{"cvegeo":"32011","nombre":"Trinidad García de la Cadena"}},{"arcs":[[123,124,125,126,-104]],"type":"Polygon","properties":{"cvegeo":"32015","nombre":"El Plateado de Joaquín Amaro"}},{"arcs":[[127,128,129,130,131]],"type":"Polygon","properties":{"cvegeo":"32018","nombre":"Huanusco"}},{"arcs":[[132,133,-111,134,135,136,-130]],"type":"Polygon","properties":{"cvegeo":"32019","nombre":"Jalpa"}},{"arcs":[[137,138,139,140,141,-109]],"type":"Polygon","properties":{"cvegeo":"32023","nombre":"Juchipila"}},{"arcs":[[-140,142,143,-121,144]],"type":"Polygon","properties":{"cvegeo":"32028","nombre":"Mezquital del Oro"}},{"arcs":[[-126,145,146]],"type":"Polygon","properties":{"cvegeo":"32030","nombre":"Momax"}},{"arcs":[[147,148,-143,-139]],"type":"Polygon","properties":{"cvegeo":"32033","nombre":"Moyahua de Estrada"}},{"arcs":[[-113,149,-148,-138,-108,-134,150]],"type":"Polygon","properties":{"cvegeo":"32034","nombre":"Nochistlán de Mejía"}},{"arcs":[[-103,151,-128,-132,-124]],"type":"Polygon","properties":{"cvegeo":"32044","nombre":"Tabasco"}},{"arcs":[[-136,152,-117,153,-114,154]],"type":"Polygon","properties":{"cvegeo":"32045","nombre":"Tepechitlán"}},{"arcs":[[155,-141,-145,-123,156,-119]],"type":"Polygon","properties":{"cvegeo":"32047","nombre":"Teúl de González Ortega"}},{"arcs":[[-125,-131,-137,-155,-116,157,-146]],"type":"Polygon","properties":{"cvegeo":"32048","nombre":"Tlaltenango de Sánchez Román"}},{"arcs":[[-135,-110,-142,-156,-118,-153]],"type":"Polygon","properties":{"cvegeo":"32058","nombre":"Santa María de la Paz"}},{"arcs":[[-92,158,159]],"type":"Polygon","properties":{"cvegeo":"32009","nombre":"Chalchihuites"}},{"arcs":[[-91,160,161,-159]],"type":"Polygon","properties":{"cvegeo":"32021","nombre":"Jiménez del Teul"}},{"arcs":[[-28,-46,-96,-63,162,-161,-90]],"type":"Polygon","properties":{"cvegeo":"32049","nombre":"Valparaíso"}},{"arcs":[[-57,163,-78,-24,-17,-83,164]],"type":"Polygon","properties":{"cvegeo":"32051","nombre":"Villa de Cos"}},{"arcs":[[-88,165,166,-58,-165]],"type":"Polygon","properties":{"cvegeo":"32014","nombre":"General Francisco R. Murguía"}},{"arcs":[[167,-40,-107,-73,-32,168,169,-76]],"type":"Polygon","properties":{"cvegeo":"32017","nombre":"Guadalupe"}},{"arcs":[[-166,-87,170,171]],"type":"Polygon","properties":{"cvegeo":"32022","nombre":"Juan Aldama"}},{"arcs":[[-170,172,-64,-77]],"type":"Polygon","properties":{"cvegeo":"32050","nombre":"Vetagrande"}},{"arcs":[[-173,-169,-36,-106,-42,-12,-65]],"type":"Polygon","properties":{"cvegeo":"32056","nombre":"Zacatecas"}},{"arcs":[[-86,-94,173,-171]],"type":"Polygon","properties":{"cvegeo":"32029","nombre":"Miguel Auza"}}]}}}