{"type":"Topology","arcs":[[[862044,295633],[6096,-12725]],[[868140,282908],[-12271,715],[-3830,-4016],[-10239,-17856],[-8754,-4772],[2188,-5925],[-8363,278],[-2501,-8431],[-10317,1153],[-782,-6164],[-10239,-676],[-4768,-21514],[-5002,-398],[5862,-10339],[-782,-7516],[-6644,-1193],[4143,-6721],[8520,-1591],[6487,-24815],[-11490,-3062],[13757,-2068],[4142,-5369],[9301,-2386],[-8675,-12208]],[[817883,138034],[-4925,-2704],[-6643,5766],[-6488,-4852],[-11880,1114],[-1407,-6005]],[[786540,131353],[-30874,23304],[-10161,954],[703,7874],[-7816,5687],[-9926,14475],[2970,4176],[-11646,14078],[-22198,18014]],[[697592,219915],[5237,31218],[19384,1710],[-547,14674],[13365,1671],[19932,-4653],[4064,-8630],[19618,-8271],[5706,1869],[15554,15032],[6097,-3142],[1485,9664],[14225,4653],[-10942,9106],[22432,26446],[28842,-15629]],[[381585,835082],[10864,-13322],[469,-6403],[16101,-6124],[1954,-6959],[6410,-477],[4924,7357],[44239,-1869],[8754,-12130]],[[475300,795155],[313,-13680],[7035,-9146],[-28060,-12447],[1797,-11613],[-1876,-10816],[-10473,-6125]],[[444036,731328],[-12819,-3778],[5315,-2863],[-19462,-6959],[-8363,2028],[-2267,-7278],[-6565,2347],[-6801,-8232],[-15085,-6999],[-9692,5329],[1016,-5568],[-19071,-3380],[-5159,-12845]],[[345083,683130],[-8754,1988],[-23839,2784]],[[312490,687902],[-3517,4295],[-13913,2306],[-14538,5727],[4455,10260],[-10630,8828],[-7191,-4891],[-547,6403],[-12897,875],[-4611,4891],[-2345,-10260],[-20635,-835],[-7972,-7556],[-31108,-40],[-4299,7993],[547,8948],[-6878,1949],[-6410,8550]],[[170001,735345],[-1641,4414]],[[168360,739759],[10005,2267],[13912,-2267],[2658,14635],[10395,2028],[157,10538],[-8285,119],[11880,23782],[-3595,4732],[24308,-1591],[3048,10499],[6331,-3897],[2971,5965],[12349,-8590],[0,6124],[8441,3738],[5784,12408],[9380,676],[10942,5727],[-2266,20719],[3048,5090]],[[289823,852461],[2423,4016],[18681,-2386],[-7582,-14595],[12740,-5050],[27748,6522],[5471,5528],[-1329,6522],[5550,4732],[-1329,12885],[4846,-199]],[[357042,870436],[-3205,-2068],[27748,-33286]],[[566984,610355],[6722,-3619],[-6800,-3897],[5784,-8351],[-1173,-29150],[15242,-4971],[12271,-21157],[22511,-14634],[-4768,-1790],[3908,-8232],[11021,1194]],[[631702,515748],[2970,-6403],[-8207,-6363],[-9614,-795],[78,-4733],[-13131,-3539],[-10239,-9783],[-78,-7914],[6565,-15787],[-2188,-4256],[11958,-2386],[2345,-7794],[-21572,-5289],[1563,-12050],[3283,1114],[9926,-14356],[8285,-2188],[4690,-7118],[-2267,-5329],[8833,-5329]],[[624902,395450],[-3283,-16702],[-5706,-7795],[-23605,-1272],[-1250,-9187],[8441,-10737],[-11568,-318],[1407,-5727],[-17430,11970],[-8051,875],[12506,-8072],[-1407,-5290]],[[574956,343195],[-19227,14158],[-49633,27121],[-19697,14476],[-46975,27280],[-32046,14993],[-6878,8073]],[[400500,449296],[5627,755],[45256,-23741],[19931,8391],[704,25491],[4846,3897],[2501,17856],[9223,79],[3283,8312],[-5315,7516],[-16180,5647],[-3361,6800],[-7894,-39],[-6566,6641],[626,5249],[-27982,13203]],[[425199,535353],[16336,2505],[14929,14237],[1172,10022],[15789,8908],[625,8987]],[[474050,580012],[14460,438],[14694,-8352],[12193,-3738],[2736,21395],[-9848,7079],[13600,3778],[3283,-10419],[20634,-3023],[-10317,26844],[17743,0],[13756,-3659]],[[400500,449296],[-5159,7158],[-23292,11532],[-15163,10062],[-4456,6005],[-1172,11970],[-11568,10697]],[[339690,506720],[8676,4971],[7582,9187],[-5237,9504],[9145,16146],[19384,2585],[3595,11532]],[[382835,560645],[13444,80],[10317,-17021],[9927,-1551],[8676,-6800]],[[812568,409130],[19149,-15191],[1173,-10737],[6409,159],[10083,-16186],[3282,-9822],[-2501,-12249],[20948,-10141],[1563,-3539],[-9067,-7755],[11255,-874],[10318,-9624],[-2345,-5409],[-21338,7278],[-1798,-14794],[2345,-4613]],[[697592,219915],[-2189,5131],[-13600,9703],[-1250,4175],[-30171,19964],[3596,6601],[-12741,12845],[-3673,7397]],[[637564,285731],[30014,3261],[1172,13998],[15945,14476],[-4768,6482],[3049,17816],[5627,4215],[-859,6999],[-8755,10022],[14539,6044],[7112,13323]],[[700640,382367],[391,4732],[23136,-3142],[11802,3142],[0,6880],[-11177,4692]],[[724792,398671],[9536,-2863],[26262,5727],[8676,12487],[14616,2982],[28686,-7874]],[[345083,683130],[10630,875],[-4846,-8948],[5159,-12567],[1798,-17418],[13053,-1670],[-1876,-6482],[9145,-1750],[-8129,-6920],[11959,-22309],[7425,-2227],[-469,-5488],[-15398,119],[-1719,-12288],[-7113,3658]],[[364702,589715],[-4846,12408],[-12272,3778],[9224,3221],[-8286,10300],[-2735,9345],[4299,8670],[-17196,8629],[-1251,6125],[-14694,-10817],[-1719,3738],[-15789,-8391],[-14929,-4454],[-3283,3181]],[[281225,635448],[4065,4812],[3361,16424],[6018,3460],[15711,80],[-3205,8550],[3048,5329],[-5940,8510],[8207,5289]],[[999999,134773],[-5081,-2187],[938,-11016],[-5784,79],[-5158,-10220],[-11881,-4136],[7504,-16464],[-5941,-15827]],[[974596,75002],[-9613,4335],[-4065,9345],[-6175,-716],[-6174,10936],[-4221,-5010],[-15007,-637],[-18134,14516],[-12740,-4574],[-5159,-9902],[-7816,-2187],[9771,-10419],[-6722,-2545],[-15789,5845],[-9536,-1272],[-12662,-7238]],[[850554,75479],[-8910,3699],[-27826,29070],[-27278,23105]],[[817883,138034],[6174,-5011],[3205,7596],[13444,1034],[6253,-4136],[7972,2545],[4299,-5210],[13287,7636],[-9926,25173],[7972,21275],[19385,-5289],[-2580,4892],[27200,1869],[5081,6562]],[[919649,196970],[8129,-18095],[10395,-2267],[3205,-15986],[-3674,-13004],[11803,-7357],[10395,-2227],[12975,6323],[21260,-2386],[5862,-7198]],[[444036,731328],[-1173,-8987],[5394,-19327],[14459,-716],[-2266,-17617],[-14851,-9863],[-156,-13401],[-5472,-1114],[4065,-7715],[-9692,-1312],[-1407,-11374],[-13444,-9186],[-11490,-11930],[11412,2187],[156,-7795],[8285,0],[5003,-9345],[9457,-4414],[12428,4255],[11724,-2784],[10786,-16782],[-3204,-4096]],[[382835,560645],[-3673,6880],[-8754,1153],[1407,10101],[-14695,4255],[7582,6681]],[[281225,635448],[-15007,-3778],[-2657,-13004],[5471,-2982],[-6956,-9584],[234,-11612]],[[262310,594488],[-16414,15310],[-29310,12766],[-20479,6402],[-24464,5329],[-11490,239],[-27904,11174],[-28450,5130]],[[103799,650838],[29388,756],[3752,14277],[12506,16384],[-5393,7635],[-1642,20441],[11177,15151],[7504,1512],[8910,8351]],[[168360,739759],[-3283,4693],[-18680,-7198],[-15164,11970],[157,-6920],[-8911,3301],[-2579,-6005],[-5471,14913],[-6332,5726],[5237,13164],[-7347,6521],[14773,12965],[-14460,9266],[6018,18611],[-11333,5488],[2735,6243],[8364,4017],[16023,1949],[-860,16344],[-4533,3341]],[[122714,858148],[10082,5328],[6879,-2266],[1172,9027],[9458,5488],[-18915,1511],[5784,2267],[4455,13362],[23683,4971],[10630,4295],[13678,-1392],[-78,12208],[3830,3301]],[[193372,916248],[10630,-2267],[-4299,-3897],[8598,-13242],[8050,-2068],[12506,4573],[-938,6403],[12428,-2387],[9223,9903],[7894,-239],[3908,-5607],[-12740,-6960],[1954,-3499],[-8285,-6999],[9926,-955],[12428,-12606],[14616,2545],[3439,-24855],[7113,-1630]],[[974596,75002],[-1719,-159],[-5159,-8073],[78,-10658],[6019,-15947],[8441,1710],[6253,-15589],[-703,-13878],[-6175,-4176],[-9145,4573],[-7425,-2465],[-1876,4732],[-14069,0],[-547,4852],[-14695,6005],[-5393,-3142],[-4533,-2943],[5784,-9942],[0,-9822],[-6019,-80],[-14069,15311],[-13600,23224],[-14069,14078],[-16492,13362],[-14929,9504]],[[637564,285731],[-7660,14714],[-27982,23264],[-26966,19486]],[[624902,395450],[16414,-1630],[13053,4016],[19149,-15430],[2032,3579],[25090,-3618]],[[240972,998607],[12037,-2943],[17664,318],[4143,-3937],[7269,7000],[5471,-5170],[7660,6124],[13757,-1949],[3126,-6323],[-13053,-9743],[1173,-11532],[13209,-5329],[8519,5607],[-547,-8630],[12350,637],[14069,-13203],[-235,-8829],[7895,-1909],[-157,-12129],[-2032,-4334],[-16414,-9624],[7348,-2585],[22276,-22509],[937,-7277],[-10395,-9902]],[[193372,916248],[8129,4096],[547,9107],[6643,1949],[6410,14435],[9457,2148],[-4924,4533],[9301,12209],[12819,19924],[10552,1153],[-19228,2466],[7894,10339]],[[710410,438837],[-625,-8232],[-7972,-4892],[3830,-7794],[16961,-20123],[2188,875]],[[631702,515748],[6174,-1750],[38143,-33485],[5472,-14594],[13287,-20123],[15632,-6959]],[[868140,282908],[5159,-4852],[-5159,-12090],[4377,-20520],[4065,-8232],[2110,8272],[17899,4534],[4143,-6801],[6487,-5448],[2032,-11453],[9067,-6005],[-3752,-6681],[9380,-5289],[-7426,-9982],[3127,-1391]],[[542676,745923],[12818,-5886],[33688,-20719],[-1563,-8351],[13365,-6044],[4924,5130],[6175,-3739],[-391,-6442],[-6722,-1352],[5159,-7118],[-39002,-17339],[-9536,2028],[-1954,-9703],[7425,-2227],[-1876,-12766],[-13444,-6482],[9536,-19844],[-9067,1153],[14773,-15867]],[[475300,795155],[14304,7278],[11255,835],[17274,-6919],[10239,-7278],[-469,-6045],[7504,-10220],[-4846,-16861],[13131,-7119],[-1016,-2903]],[[103799,650838],[-22902,22032],[-10708,3499],[-13913,13641],[-18993,4851],[-23917,-1789],[-4377,26485],[-5628,11135],[3126,18492],[-6487,12050],[9692,23940],[24230,31496],[5784,16822],[6956,8868],[13679,5329],[3439,-2347],[5862,-5806],[9223,-1869],[78,0],[6722,3102],[7504,9743],[15554,9863],[13991,-2227]],[[339690,506720],[-12740,9664],[-3596,9226],[-23761,33922],[-23370,16384],[-7425,14794],[-6488,3778]]],"transform":{"scale":[0.000004055390042538327,0.000004573241479550426],"translate":[-109.44769991052256,22.467699219734197]},"objects":{"municipalities":{"type":"GeometryCollection","geometries":[{"arcs":[[0,1,2,3,4]],"type":"Polygon","properties":{"cvegeo":"25012","nombre":"Mazatlán"}},{"arcs":[[5,6,7,8,9,10,11,12,13]],"type":"Polygon","properties":{"cvegeo":"25017","nombre":"Sinaloa"}},{"arcs":[[14,15,16,17,18,19,20]],"type":"Polygon","properties":{"cvegeo":"25006","nombre":"Culiacán"}},{"arcs":[[-19,21,22,23]],"type":"Polygon","properties":{"cvegeo":"25018","nombre":"Navolato"}},{"arcs":[[24,-5,25,26,27,28]],"type":"Polygon","properties":{"cvegeo":"25016","nombre":"San Ignacio"}},{"arcs":[[-9,29,30,31]],"type":"Polygon","properties":{"cvegeo":"25015","nombre":"Salvador Alvarado"}},{"arcs":[[32,33,34,-3,35,36]],"type":"Polygon","properties":{"cvegeo":"25014","nombre":"Rosario"}},{"arcs":[[37,-20,-24,38,-30,-8]],"type":"Polygon","properties":{"cvegeo":"25013","nombre":"Mocorito"}},{"arcs":[[-10,-32,39,40,41]],"type":"Polygon","properties":{"cvegeo":"25011","nombre":"Guasave"}},{"arcs":[[-12,42,43,44]],"type":"Polygon","properties":{"cvegeo":"25010","nombre":"El Fuerte"}},{"arcs":[[45,-34]],"type":"Polygon","properties":{"cvegeo":"25009","nombre":"Escuinapa"}},{"arcs":[[-27,46,-17,47]],"type":"Polygon","properties":{"cvegeo":"25008","nombre":"Elota"}},{"arcs":[[48,-13,-45,49]],"type":"Polygon","properties":{"cvegeo":"25007","nombre":"Choix"}},{"arcs":[[50,-28,-48,-16,51]],"type":"Polygon","properties":{"cvegeo":"25005","nombre":"Cosalá"}},{"arcs":[[52,-36,-2]],"type":"Polygon","properties":{"cvegeo":"25004","nombre":"Concordia"}},{"arcs":[[53,-21,-38,-7,54]],"type":"Polygon","properties":{"cvegeo":"25003","nombre":"Badiraguato"}},{"arcs":[[-43,-11,-42,55]],"type":"Polygon","properties":{"cvegeo":"25001","nombre":"Ahome"}},{"arcs":[[-39,-23,56,-40,-31]],"type":"Polygon","properties":{"cvegeo":"25002","nombre":"Angostura"}}]}}}