{"type":"Topology","arcs":[[[2700,23431],[3431,2004],[-591,-17419],[-5090,-8016],[-450,20965],[2700,2466]],[[334392,441498],[6075,-52875],[-225,-55033],[-2559,-11407],[-1913,21273],[-4134,9557],[-2784,43780],[2840,12949],[2700,31756]],[[973534,631879],[1407,-8633]],[[974941,623246],[-141,-57500],[-1209,-37459],[2896,-9249],[-2221,-23124],[5793,-14182],[1491,-30214],[6187,-33143]],[[987737,418375],[-1209,-36381],[-5372,-23431],[-3487,-60737],[-8606,74148],[-9984,59966],[-2109,18807]],[[956970,450747],[1603,14491],[646,64128],[2025,6474],[760,80469],[1631,32218]],[[963635,648527],[1040,20040],[3207,-11561],[-788,-52567],[6525,11407],[-85,16033]],[[934611,821334],[8915,-36997],[4810,-10174]],[[948336,774163],[-3122,-26052],[4893,-42238],[-1097,-11716]],[[949010,694157],[-646,-42238],[2334,-17266],[1659,-36226],[-618,-22198],[-3235,-2775],[-3206,-20965],[-1519,-34068]],[[943779,518421],[-9055,35610],[-10069,30522],[2700,29598],[-394,22660],[-3853,25282],[-2981,3545],[-787,-23431],[-1856,13565],[-2278,-16957],[-4219,32527],[-17802,43934],[1293,7554],[7594,-29906],[-928,23894],[2109,2158],[1941,47171],[2812,20194],[2897,-23431],[4528,38538],[3487,9250],[-112,-18807],[5118,19269],[2559,-8633],[5934,27748],[2194,-8941]],[[956970,450747],[-13191,67674]],[[949010,694157],[2138,308],[6750,-29289],[5737,-16649]],[[951795,813318],[6440,-1387],[5372,-30369],[4921,-3237],[3432,11562],[2699,-22815]],[[974659,767072],[-1012,-51950],[-3769,-34068],[3656,-49175]],[[948336,774163],[1743,2158],[-1237,45321],[2953,-8324]],[[983378,931400],[2278,-2774],[-647,-35302],[-2194,-7553],[85,-44088]],[[982900,841683],[-3966,-56883],[-4275,-17728]],[[951795,813318],[281,18653],[3965,41621],[7341,-17265]],[[963382,856327],[3993,6937],[5006,-50408],[4388,-925],[281,24510],[3740,21428],[1744,37768],[-1294,6782],[2138,28981]],[[988299,999999],[479,-19886]],[[988778,980113],[-4978,-22815],[-422,-25898]],[[963382,856327],[1490,12333],[-281,55187],[-1265,10174]],[[963326,934021],[928,24510],[3065,-27593],[1772,7553],[1181,-24510],[9337,38538],[2278,30677],[6412,16803]],[[934611,821334],[8915,16032],[-928,28056],[3797,33452],[1716,35764],[-1407,5549],[1322,34222],[56,1234],[844,11870],[8606,-36843],[5794,-16649]],[[997496,749807],[1491,-33760],[-2307,-53800],[85,-40697],[3009,-32681],[0,-53029],[-6215,-49946],[-1210,-28518],[-787,3237]],[[991562,460613],[-844,23277],[478,62433],[-2334,43471],[-3122,-5549],[141,29135],[-6469,27285],[-618,-20194],[-3853,2775]],[[982900,841683],[1603,-6012],[-2419,-42239],[2250,617],[-1069,-29752],[2110,-1541],[112,-32527],[6694,30214],[5315,-10636]],[[991562,460613],[-3403,14491],[-1856,-22044],[1434,-34685]],[[999999,852011],[-1800,-38539],[-253,-43009],[-450,-20656]],[[988778,980113],[-254,-11870],[4135,-58270],[2756,-15261],[2025,-30831],[2559,-11870]]],"transform":{"scale":[0.00001127071312666369,0.0000011797748141988234],"translate":[-114.75704142097541,18.332580809698943]},"objects":{"municipalities":{"type":"GeometryCollection","geometries":[{"arcs":[[[0]],[[1]],[[2,3,4,5,6]]],"type":"MultiPolygon","properties":{"cvegeo":"06009","nombre":"Tecomán"}},{"arcs":[[7,8,9,10]],"type":"Polygon","properties":{"cvegeo":"06007","nombre":"Manzanillo"}},{"arcs":[[-6,11,-10,12]],"type":"Polygon","properties":{"cvegeo":"06001","nombre":"Armería"}},{"arcs":[[13,14,-7,-13,-9,15]],"type":"Polygon","properties":{"cvegeo":"06004","nombre":"Coquimatlán"}},{"arcs":[[16,17,-14,18,19]],"type":"Polygon","properties":{"cvegeo":"06010","nombre":"Villa de Álvarez"}},{"arcs":[[20,21,-20,22,23]],"type":"Polygon","properties":{"cvegeo":"06003","nombre":"Comala"}},{"arcs":[[-23,-19,-16,-8,24]],"type":"Polygon","properties":{"cvegeo":"06008","nombre":"Minatitlán"}},{"arcs":[[25,26,-3,-15,-18,27]],"type":"Polygon","properties":{"cvegeo":"06002","nombre":"Colima"}},{"arcs":[[28,-4,-27]],"type":"Polygon","properties":{"cvegeo":"06006","nombre":"Ixtlahuacán"}},{"arcs":[[29,-28,-17,-22,30]],"type":"Polygon","properties":{"cvegeo":"06005","nombre":"Cuauhtémoc"}}]}}}