{"type":"Topology","arcs":[[[150227,162633],[-6776,1193],[-25795,19021],[-4312,3818],[9394,3681],[7238,12306],[10010,3034],[6853,9646]],[[146839,215332],[2002,-9305],[-4081,-2966],[21714,-2420],[3619,-6307],[-10549,0],[-9317,-31701]],[[235851,47552],[-26257,5693],[-39347,25839],[3080,5795],[-6776,4772],[2926,7090],[-23331,9408],[-9856,12647],[-8547,4431],[-17402,14385],[2849,6545]],[[113190,144157],[5775,-1977],[7007,3784],[3234,-3784],[20020,-7874],[-154,-6750],[36421,-5385],[1386,-6341],[21021,-9135],[1463,-16431],[19173,-9817],[-8393,-8760],[23408,-11283],[77,-6170],[-8778,-3307],[1001,-3375]],[[522215,334060],[3927,-18987],[-18249,-34],[-6237,-17930],[20944,-3477],[2233,-10840],[6468,-12101],[-10626,-3647],[1386,-6068],[9394,-6647],[3927,-15987]],[[535382,238342],[-1309,-11863],[-5544,-9681],[-15323,1296],[-4697,-8829],[-1617,-13635],[17171,-3989],[7315,-11453],[18634,-1534],[-3234,-18816],[-6006,2624],[-2464,-6851],[6006,-5523],[11088,-1090],[6776,-7329],[6545,-375],[-1540,-9102],[12320,-1909],[-10010,-7431]],[[569493,122852],[3311,-7192],[10626,-2625],[-2618,-14112],[6699,-546],[1309,5829],[19019,-1636],[0,-5283],[7161,5010],[11858,205],[-3850,-10840],[-10549,-170],[-2772,-9681],[-20097,-14181],[2156,-6920],[-11473,-8385],[-7084,-12647]],[[573189,39678],[-5390,921],[-4543,7806],[7777,-2080],[1925,8624],[-13475,4705],[-7007,-3886],[-21329,6681],[-14245,18066],[-4158,8556],[-56519,9954],[-37884,8931],[-14014,1261],[-40887,-1738]],[[363440,107479],[-17633,16021],[-4928,7158],[-11781,3205],[-22869,21782],[-1925,18748],[-20559,2045],[3003,7841],[-30492,5931],[4543,12374]],[[260799,202584],[22176,-4261],[-2002,7397],[4851,-34],[4466,8010],[22484,2591],[-16632,7840],[10472,1636],[-77,8011],[27489,-545],[9625,18680],[17171,0],[6545,-18374],[11473,103],[462,11010],[19019,-1568],[-847,-9272],[5621,68],[1694,11522],[9394,16328],[-4543,3000],[11011,18475],[6314,-1397],[31262,-239],[9471,9306],[29414,-9749],[10781,5590],[-8086,4704],[-6853,-238],[3311,10772],[-5005,7601],[-10780,9272]],[[480480,318823],[-9779,5829],[-7700,9170],[-23485,18441],[27951,-10703],[21098,5045],[2387,-8931],[15016,545],[1925,7056],[3850,-17623],[10472,6408]],[[225379,204765],[-10395,-7090],[-4928,477],[3157,-9783],[-6699,-29418],[-13321,3920],[-24640,614],[-17248,-8113]],[[151305,155372],[-1078,7261]],[[146839,215332],[3927,6409]],[[150766,221741],[10472,5795],[-3388,-6443],[9009,-1977],[12705,12135]],[[179564,231251],[3773,-3442],[1540,-14590],[15169,-1807],[15015,-9544],[2695,5590],[7623,-2693]],[[476784,832492],[21098,27645],[5699,5658],[13783,20317],[75614,19089],[13706,-25634],[31647,7942],[-1771,-17725]],[[636560,869784],[-2002,-20726],[56903,-4295],[-2310,-36167],[-8547,-16123],[10087,750],[14091,-2250],[12166,-4636],[19635,-1568],[6160,1261],[14707,8727],[-1617,3647],[7392,4670],[17248,3579]],[[780473,806653],[17094,-17589],[5852,-682],[3542,-17419],[8162,-886]],[[815123,770077],[-25795,-9408],[-20482,-16158],[-10780,-15067]],[[758066,729444],[-7161,3614],[-16863,-3989],[-6006,-5965],[-9163,-1398],[-52283,-3102]],[[666590,718604],[-121814,24884],[-8547,12783],[-59445,76221]],[[801879,614603],[-22561,5488],[-48202,14214]],[[731116,634305],[-2233,10363],[-13706,4125],[-3234,15203],[-1001,21611]],[[710942,685607],[37730,-1874],[4620,9919],[-9933,4602],[20251,14215],[20482,5658]],[[784092,718127],[29183,682],[3619,-8317]],[[816894,710492],[-8008,-18953],[-9625,-955],[8085,-17248],[22022,-2898],[-11242,-9919],[13090,-7090],[-2079,-5659],[-6237,1261],[-7161,-5045],[-13860,-29383]],[[363440,107479],[2387,-12681],[1771,-9135],[-54208,12544],[-44506,-55222],[-770,-5795],[-6699,1909],[-9548,5488],[-16016,2965]],[[113190,144157],[7546,11931],[13552,4397],[17017,-5113]],[[225379,204765],[35420,-2181]],[[181335,456197],[40964,-30611],[-29183,-11079]],[[193116,414507],[-48818,-18714],[-12166,-6988]],[[132132,388805],[-53669,14181],[-5236,5045],[-9933,1090],[-13321,19533],[-6237,1261],[-17479,11249],[-77,7227],[16401,8624],[1078,5283],[8547,2591],[-2541,11045],[-6776,1772],[-3927,6306],[154,16635],[-5082,5522],[-3003,10363],[-10857,2454],[5390,44655],[-1386,4057],[-5621,5522],[-3311,10465],[3773,15476],[-13167,10908],[8393,5488],[-14245,1636],[4312,17283],[11935,-2523],[3619,8147],[-11858,2591],[14476,26384],[24101,35281],[9394,10158],[21021,29588],[77,6068],[1232,1806]],[[78309,751976],[54362,-19975],[-53515,-109320],[7238,7159],[16247,-4295],[11396,4329],[-4081,-6715],[13937,-682],[3311,-4738],[-14014,-10840],[5159,-2932],[-8085,-61801],[36267,-4500],[-25718,-24270],[-14322,34],[-2233,-18578],[18711,-24270],[28798,-14828],[29568,443]],[[179564,231251],[3927,7738],[-7469,1875],[14245,20248],[-3927,6068],[11627,1466],[1925,10465],[-19327,2931],[770,13533],[11704,-5181],[-77,10431],[10549,-1091],[1078,5999],[-10934,1057],[1617,5659],[56364,-4943],[7238,-4159],[-4235,12749],[7700,12578],[-16786,921],[-924,8215],[-6083,7636],[1617,7124]],[[240163,352570],[2618,19873],[38577,22259],[12166,-3136],[17710,-19839],[13937,-6476],[27489,1227],[30107,16737],[11319,2522],[-40117,-52631],[-1309,-7431],[32956,-648],[7854,-1329],[-693,8487],[6391,-11862],[-19404,-26895],[26565,4874],[5005,-15476],[36190,7466],[-5082,15134],[25949,8625],[6083,-4227],[154,-6443],[10549,-613],[-4697,16055]],[[641796,689528],[-10703,-648],[-1155,-16294],[14476,-3716],[3080,-7499],[21175,-7329],[-8932,-10533],[13090,-4909],[-2310,-11146],[-10241,-2080],[-16709,2625]],[[643567,627999],[-11935,3341],[616,3613],[-12782,-1943],[8162,7193],[-15785,5317],[-14091,-2147],[-847,21680],[-8855,-205],[-18095,22430],[8008,4806],[22561,-8999],[15246,8351],[27566,1534],[-1540,-3442]],[[359590,751295],[10626,-8079],[3388,3681],[-231,11386],[10010,9033],[154,5897],[10318,-2284],[6545,-6545],[19789,-11828],[17248,-4534],[17556,-13669],[2156,-3852],[2849,-22055],[-1155,-16600],[3003,-11249],[-6083,-23828],[13244,-1432],[3080,-3817],[9086,102],[5159,-4091],[-2464,-5965],[5467,-2795],[12937,-13874],[11396,-5011],[10241,-1022],[2002,4704],[16093,-4193],[25718,-3579],[9163,-5318],[20482,-6749],[-231,-5693]],[[597136,598036],[-25487,-7943],[3850,-10874],[19558,-21884]],[[595057,557335],[3234,-13396],[9779,-10670],[-5082,-13396],[8162,-171],[-7700,-19021]],[[603450,500681],[-5313,-12919],[14630,-3170],[5852,-5079]],[[618619,479513],[-10087,-10738],[-15939,-5318]],[[592593,463457],[-7623,6034],[-5621,-716],[-28259,14794],[-2926,10976],[12166,-1874],[13321,1943],[-10318,2556],[-16478,10329],[-13090,5011],[-1078,12067],[-25487,27884],[-13938,-171],[-5775,-4056],[-10857,1806]],[[476630,550040],[-12397,6750],[-10010,10260],[-11473,23862],[-11011,-7125],[-4081,6613],[10318,23521],[-10857,6306],[-11011,2284],[-4543,-2897],[-8470,7294],[11242,1841],[9548,9545],[-16401,10703],[-15862,-7601],[-8932,9544],[770,6238],[-7623,18544],[-19481,26623],[12243,7772],[308,3204],[-9317,37974]],[[734658,178075],[7007,-2387],[5082,-17043],[10087,-6136],[-16478,2999],[4004,-5658],[8239,-1705],[-3388,-4295],[-9779,2352],[-8547,-1363],[15015,-4977],[-154,-8181],[-5621,-2386],[3927,-10295],[22407,-4533]],[[766459,114467],[-4158,-29350],[22946,-14623],[-24024,-15647],[7084,-15782],[-2079,-29009],[1386,-7465],[-11627,-137],[-13244,5318],[-13783,-7772],[-29568,9136],[-11396,5999],[-8932,10908],[-9009,15749],[-34188,8965],[-14553,-4704],[-11319,-7875],[-3157,-1772],[-33033,3238],[-616,34]],[[569493,122852],[44275,-4022],[2618,5181],[9009,-750],[4158,23487],[13552,409],[-539,8624],[15477,1602],[-9163,3102],[-18788,1909],[-8701,12033],[20790,443]],[[642181,174870],[9625,-4704],[14784,511],[52822,11897],[3927,-3784],[11319,-715]],[[546085,467071],[-1078,-7363]],[[545007,459708],[12089,-8386],[3927,-10908]],[[561023,440414],[-24101,-11692]],[[536922,428722],[-9009,11215],[-18634,2011],[-847,6852],[14938,18168]],[[523370,466968],[5852,1568],[16863,-1465]],[[710557,693823],[385,-8216]],[[731116,634305],[-5390,1568],[-7777,-11010],[5775,-3136],[-7469,-4943],[26488,-14146],[77,-15851],[-12936,3852],[-20174,-8692]],[[709710,581947],[-56056,-1978]],[[653654,579969],[-17556,28157],[-5929,16260],[8547,-307],[8778,-4840],[-3927,8760]],[[641796,689528],[3311,170]],[[645107,689698],[65450,4125]],[[784631,204561],[9548,-12510],[13937,784],[8932,-5011],[14014,-2386],[2233,-3307],[-19173,-136]],[[814122,181995],[-28336,4192],[-14399,-5283],[-9317,750],[-15323,-4193],[-5775,5181],[-6314,-4567]],[[642181,174870],[11704,2489],[5544,15441],[14938,5591],[-12397,4431],[-23408,818],[-7623,6000],[-1925,-5045],[-8008,-955],[-1925,-4670],[-14707,9306],[13706,5523],[5313,12919],[-28413,2659],[13552,-12476],[-32648,238],[2541,20555],[24409,7193],[-9856,3852],[-8932,-2284],[-7546,7806],[462,-6647],[-9317,-11045],[-14707,4807],[-16940,2420],[-616,-5454]],[[522215,334060],[28336,-4772],[3388,18305],[4697,-13805],[8162,-4909],[16555,-5727],[12936,13533]],[[596289,336685],[12243,-13362],[20328,511],[6160,5556],[8239,1909],[22176,-5386],[9394,-7533],[10087,-4432],[4158,-6067],[11704,2590]],[[700778,310471],[6699,-5454],[17325,-6953],[8008,-8591],[6468,-2147],[2695,-22225],[17171,-2216],[2926,-5284],[-9471,-18441],[13552,-17658],[6006,-16055],[12474,-886]],[[709710,581947],[-3080,-11897],[29953,-20725],[14322,2386],[-1694,-8352],[8085,4943],[16478,-2420],[12859,4908],[34342,6920],[1309,-5011],[13013,-1431],[6083,-6375],[16247,-7806],[1617,-2897]],[[859244,534190],[-61985,-10806],[-38038,-26180],[847,-22736]],[[760068,474468],[-16555,-9852],[-6237,16124]],[[737276,480740],[-6006,5863],[-21791,9851],[-4928,9647],[-11935,8761],[-9394,1738],[-13475,11488],[-21637,7840],[-5082,15714],[-13937,-374],[1309,5215],[-35343,852]],[[597136,598036],[-1771,-13772],[2002,-3715],[39424,-1125],[16863,545]],[[853238,762373],[-15708,4772],[-22407,2932]],[[780473,806653],[-4543,3613],[10010,8591],[9086,749],[-3388,4296],[12936,477]],[[804574,824379],[11088,-7193],[7392,-14283],[5852,35],[3542,-12783],[6083,-3171],[2772,-15475],[12166,-3171],[-231,-5965]],[[78309,751976],[9933,15953],[9548,-5317],[10395,10090],[25410,32929],[1540,5351],[11165,9545],[12320,15714],[6468,-5283],[12705,2965],[18249,-3681],[8778,2250],[3696,13839],[5159,5420],[9856,1875],[10010,14624],[19635,3034],[12166,6135],[-847,3136]],[[264495,880555],[28028,-13396],[27643,-11010],[42504,-26282]],[[362670,829867],[-41580,-51166],[20636,-4943],[-4081,-6067],[15554,-10499],[4620,1568],[1771,-7465]],[[476630,550040],[17556,-18680],[7239,-13464]],[[501425,517896],[-18404,-10840],[-5775,3033],[-9625,-5181],[-15169,818]],[[452452,505726],[-11473,7159],[-41888,-1125],[3080,-7704],[-14938,5693],[-11165,-13056],[19173,-11419],[10626,-21885],[-24948,3716],[-12397,-1432],[-10472,10056],[-21021,6136],[-16478,8760],[-13321,-17930],[-8008,3579],[-3773,-7260],[-9163,647],[-6545,6136],[2002,-38962],[-45507,19975],[-54901,-613]],[[853238,762373],[11473,-4363],[-2156,-5693]],[[862555,752317],[-19481,-4943],[2926,-8487],[-5390,-1807],[9933,-3886],[-12397,-14965],[-21252,-7737]],[[784092,718127],[-18865,1330]],[[765227,719457],[308,8147],[-7469,1840]],[[592593,463457],[-8624,-7328],[-18480,-580],[-9086,1773],[-1540,4056],[-9856,-1670]],[[546085,467071],[-33957,44450],[-10703,6375]],[[362670,829867],[15092,17589],[64680,-10362],[34342,-4602]],[[666590,718604],[-20328,-7192],[-1155,-21714]],[[765227,719457],[-29029,-7227],[-17325,-13840],[-8316,-4567]],[[590976,431347],[18095,10022],[4235,9953],[21021,21305]],[[634327,472627],[12320,-8147],[8393,-2386],[14014,6136],[6237,-5420],[25179,5761],[3773,-3580]],[[704243,464991],[5467,-7431],[13706,-3102],[15862,-15851],[-5236,-8112],[-10472,-5489],[3619,-3852],[-10010,1023],[-25564,-18203]],[[691615,403974],[-20251,9374],[-2156,11147],[-12474,7124],[-26873,-4908],[-10626,3477],[-18788,-3852],[-9471,5011]],[[523370,466968],[-5159,-2386],[-11550,9409],[-4312,-4500],[-11243,102],[-1078,-4499],[-13937,-546],[-770,10465],[-12782,16158],[-6853,-273],[-3234,14828]],[[859475,534224],[-231,-34]],[[801879,614603],[87472,-14556]],[[889351,600047],[3080,-2420]],[[892431,597627],[-15708,-8692],[-16324,-54541],[-924,-170]],[[636560,869784],[70763,-5250],[10626,955],[0,5386],[12782,-35],[1694,6613],[23331,-204],[-7469,11010]],[[748287,888259],[20559,-7090],[7161,-10431],[-2695,-2863],[16247,-10056],[6160,-1500],[4774,-6818],[4081,-25122]],[[1000000,604922],[-21714,-17896],[-16170,-11113],[-45969,34497],[-23716,-12783]],[[889351,600047],[-5698,16737],[33418,3784],[-308,20316],[23870,2659],[1848,2454],[-8393,12852],[14245,6169]],[[948333,665018],[9548,-5351],[6391,-12817],[13783,-2182],[-1309,-6034],[11011,-9442],[-1848,-6545],[4774,-2761],[924,-9067],[8393,-5897]],[[862555,752317],[4928,-7670],[12936,-2761],[-7854,-3954],[7777,-9272],[-3311,-5283],[15400,-16976],[-1155,-6783],[8316,-6716],[9086,-1670],[2079,-7159],[29183,-8249],[8393,-10806]],[[590976,431347],[-13244,-6954],[-17402,9578],[693,6443]],[[618619,479513],[15708,-6886]],[[150766,221741],[4004,18680],[-5852,9715],[-924,49734],[21714,26657],[-13475,14487],[-13937,45064],[-10164,2727]],[[193116,414507],[27797,-19839],[12089,14419],[8008,-3477],[-9779,-15373],[-7623,-8215],[8085,-8727],[-7931,-2113],[9471,-4602],[2695,-13737],[4235,-273]],[[737276,480740],[-4312,-2045]],[[732964,478695],[-44583,10090],[-12320,-5284],[-1694,5693],[-6930,3340],[2618,7466],[-7700,-69],[-7854,7431],[-13706,5591],[-11935,-12067],[-13629,-5625],[-11781,5420]],[[536922,428722],[-21483,-11385],[25333,-29384],[4004,3954],[8008,-4499],[6699,-9477],[14861,-5488],[26873,-20419],[-18480,-443],[13629,-5079],[-5929,-2590],[5852,-7227]],[[691615,403974],[22869,-18748],[5467,0],[2926,-9783]],[[722877,375443],[-54054,-32929],[24871,-20350],[7084,-11693]],[[814276,406394],[-1617,-4704],[-18634,-13464],[-1232,1806],[-13860,20930],[-56056,-35519]],[[704243,464991],[28721,13704]],[[760068,474468],[7623,-5250],[12397,6647],[5698,-647],[6699,5761],[10703,-6204],[27566,-5284],[-1232,-12647],[1078,-18543],[-2618,-4159],[3234,-9408],[-12628,-9170],[-4312,-9170]],[[814122,181995],[7084,-3580],[-1386,-4397],[13167,-1432],[2002,-5420],[17248,-4465],[-4466,-13635],[13398,-2045],[21714,2522],[17248,-6272],[2618,-6954],[-4543,-2966],[7931,-6749],[-7777,-2079],[-15554,2863],[-1540,-6715],[-27181,6920],[-35959,5965],[-28490,-3511],[-22792,-13294],[-385,-2284]],[[264495,880555],[-7623,2523],[6083,18885],[9317,749],[3157,8182],[-1155,7874],[7315,7806],[-2079,6613],[16786,14351],[616,8215],[10780,6579],[539,8590],[16632,2523],[14322,5999],[3696,-4397],[7931,7499],[19789,-1432],[11473,-2795],[-847,3886],[12320,16294],[9394,1500],[9163,-4397],[15631,-3307],[2849,2318],[10549,-8522],[23177,-3340],[16324,5590],[6006,-3750],[17788,-409],[8393,2489],[9086,-4193],[9163,886],[15708,-5113],[11550,1807],[21175,-375],[6853,7976],[1540,-9476],[9163,511],[10318,4807],[2002,-6818],[12782,2693],[-4235,-4022],[10241,-8250],[4235,-10124],[12936,852],[-2233,-8044],[3773,-7056],[4081,8726],[6622,1432],[2387,-11011],[-3080,-8760],[17633,-716],[7546,-7329],[21868,-2557],[1232,-4431],[12782,-14180],[13090,-3171],[15631,-7601],[1617,-4875]]],"transform":{"scale":[0.000004116562280373202,0.0000053352665252561555],"translate":[-103.95990113019599,24.54244218589869]},"objects":{"municipalities":{"type":"GeometryCollection","geometries":[{"arcs":[[[0,1]],[[2,3]]],"type":"MultiPolygon","properties":{"cvegeo":"05035","nombre":"Torreón"}},{"arcs":[[4,5,6,7,8,9,10]],"type":"Polygon","properties":{"cvegeo":"05024","nombre":"Parras"}},{"arcs":[[11,12,-2,13,14,15]],"type":"Polygon","properties":{"cvegeo":"05017","nombre":"Matamoros"}},{"arcs":[[16,17,18,19,20,21]],"type":"Polygon","properties":{"cvegeo":"05038","nombre":"Zaragoza"}},{"arcs":[[22,23,24,25,26]],"type":"Polygon","properties":{"cvegeo":"05037","nombre":"Villa Unión"}},{"arcs":[[-9,27,-4,28,-12,29]],"type":"Polygon","properties":{"cvegeo":"05036","nombre":"Viesca"}},{"arcs":[[30,31,32,33]],"type":"Polygon","properties":{"cvegeo":"05034","nombre":"Sierra Mojada"}},{"arcs":[[-10,-30,-16,34,35]],"type":"Polygon","properties":{"cvegeo":"05033","nombre":"San Pedro"}},{"arcs":[[36,37]],"type":"Polygon","properties":{"cvegeo":"05032","nombre":"San Juan de Sabinas"}},{"arcs":[[38,39,40,41,42,43,44]],"type":"Polygon","properties":{"cvegeo":"05031","nombre":"San Buenaventura"}},{"arcs":[[45,46,-7,47,48]],"type":"Polygon","properties":{"cvegeo":"05030","nombre":"Saltillo"}},{"arcs":[[49,50,51,52,53]],"type":"Polygon","properties":{"cvegeo":"05029","nombre":"Sacramento"}},{"arcs":[[54,-24,55,56,57,-37,58,59]],"type":"Polygon","properties":{"cvegeo":"05028","nombre":"Sabinas"}},{"arcs":[[60,61,-49,62,-5,63,64,65]],"type":"Polygon","properties":{"cvegeo":"05027","nombre":"Ramos Arizpe"}},{"arcs":[[66,67,68,69,-40,70,-57]],"type":"Polygon","properties":{"cvegeo":"05026","nombre":"Progreso"}},{"arcs":[[71,-19,72,73]],"type":"Polygon","properties":{"cvegeo":"05025","nombre":"Piedras Negras"}},{"arcs":[[74,75,76,-45,77,78,79,-34]],"type":"Polygon","properties":{"cvegeo":"05023","nombre":"Ocampo"}},{"arcs":[[-72,80,81,-26,82,83,-20]],"type":"Polygon","properties":{"cvegeo":"05022","nombre":"Nava"}},{"arcs":[[84,-50,85,-78,-44]],"type":"Polygon","properties":{"cvegeo":"05021","nombre":"Nadadores"}},{"arcs":[[86,-22,87,-59,-38,-58,-71,-39,-77]],"type":"Polygon","properties":{"cvegeo":"05020","nombre":"Múzquiz"}},{"arcs":[[-84,88,-60,-88,-21]],"type":"Polygon","properties":{"cvegeo":"05019","nombre":"Morelos"}},{"arcs":[[89,90,91,92]],"type":"Polygon","properties":{"cvegeo":"05018","nombre":"Monclova"}},{"arcs":[[-79,-86,-54,93]],"type":"Polygon","properties":{"cvegeo":"05016","nombre":"Lamadrid"}},{"arcs":[[94,-67,-56,-23,95,96,97]],"type":"Polygon","properties":{"cvegeo":"05015","nombre":"Juárez"}},{"arcs":[[98,99,-73,-18]],"type":"Polygon","properties":{"cvegeo":"05014","nombre":"Jiménez"}},{"arcs":[[100,-97,101,102]],"type":"Polygon","properties":{"cvegeo":"05013","nombre":"Hidalgo"}},{"arcs":[[-96,-27,-82,103,-102]],"type":"Polygon","properties":{"cvegeo":"05012","nombre":"Guerrero"}},{"arcs":[[-6,-63,-48]],"type":"Polygon","properties":{"cvegeo":"05011","nombre":"General Cepeda"}},{"arcs":[[-90,104,-51,-85,-43,105]],"type":"Polygon","properties":{"cvegeo":"05010","nombre":"Frontera"}},{"arcs":[[-35,-15,106,-32,107]],"type":"Polygon","properties":{"cvegeo":"05009","nombre":"Francisco I. Madero"}},{"arcs":[[-41,-70,108,109]],"type":"Polygon","properties":{"cvegeo":"05008","nombre":"Escobedo"}},{"arcs":[[-31,-80,-94,-53,110,-64,-11,-36,-108]],"type":"Polygon","properties":{"cvegeo":"05007","nombre":"Cuatro Ciénegas"}},{"arcs":[[-93,111,112,-65,-111,-52,-105]],"type":"Polygon","properties":{"cvegeo":"05006","nombre":"Castaños"}},{"arcs":[[113,-112,-92,114,-109,-69,115]],"type":"Polygon","properties":{"cvegeo":"05005","nombre":"Candela"}},{"arcs":[[116,-46,-62]],"type":"Polygon","properties":{"cvegeo":"05004","nombre":"Arteaga"}},{"arcs":[[-55,-89,-83,-25]],"type":"Polygon","properties":{"cvegeo":"05003","nombre":"Allende"}},{"arcs":[[-99,-17,-87,-76,117]],"type":"Polygon","properties":{"cvegeo":"05002","nombre":"Acuña"}},{"arcs":[[-115,-91,-106,-42,-110]],"type":"Polygon","properties":{"cvegeo":"05001","nombre":"Abasolo"}}]}}}