{"type":"Topology","arcs":[[[225111,360656],[0,-3440],[46205,0],[3450,-7764],[13307,3292],[31789,-2113],[34376,1130],[-14909,-27323],[13923,-786],[56555,-11401],[13184,28306],[74421,-10861],[176072,-13317]],[[673484,316379],[-26491,-38921],[-4682,-18084],[-7147,-7667],[-4312,-20394],[-15402,-12334],[-4682,-10320],[-5791,-33221],[-8748,-13809],[-493,-20689],[-21562,-23195],[-5175,-9877],[-4436,-28257],[-8994,-787],[-13677,-12285],[-8995,4718],[-40660,98],[0,68750],[-85264,197],[-123,15529],[-29941,4619],[-23533,-2211],[-5175,3784],[-16388,-4030],[-13553,3538],[-15895,-8649],[-10103,-27765],[-23780,-18380],[493,-13465],[-36225,-16020],[2834,-7371],[-10966,-12483],[739,-13072],[-20946,-8452],[-5298,-13268],[-38443,-22606],[-19468,9337],[-4805,7715],[-15525,-982],[-16757,11204],[-18482,-934],[-22425,-6142],[-7146,-8306],[0,3588],[-20946,98],[-247,18085],[17127,-688],[-246,10663],[7392,6684],[-22671,196],[863,16561],[22301,344],[123,21181],[-6037,-836],[2464,19559],[7639,0],[-2217,24866],[6530,49],[-1602,17544],[-9610,49],[-863,76957],[3080,5504],[-1725,32778],[740,31844],[4189,37054],[-4189,196],[0,40150]],[[58157,374318],[45958,-2654],[6161,-6438],[18605,1180],[15648,10320],[-246,-12384],[42262,147],[-123,-4128],[38689,295]],[[751971,132046],[-7886,-2900],[23164,22213],[-15278,-19313]],[[786347,227824],[10843,-14693],[-739,-10812],[-10104,25505]],[[925701,787409],[-64071,295],[-16633,-8993],[10719,-2310],[-16510,-11106],[-23041,10074]],[[816165,775369],[11335,147],[0,28257],[-60497,295],[1109,61920],[41892,-443],[7763,10910],[-124,13318],[15279,-885],[-370,12384],[20946,-492]],[[853498,900780],[-369,-4815],[116560,-50]],[[969689,895915],[-370,-14104],[24150,-6044],[-15156,-20836],[-16017,-15185],[-9857,-26832],[-10597,-15038],[-16141,-10467]],[[308649,619784],[21563,-2162],[9487,-7568],[-5545,-27471],[-23410,1720],[8502,-5749],[-3450,-7470],[16880,3489],[19221,-1769],[-986,-15824],[-28955,-196],[0,-17741],[-6037,148],[-17373,-39609],[-7886,1081],[-10596,-30026],[-22302,1376],[-7639,-3931],[13430,-8748],[-1725,-39854],[-27107,3587],[-2587,-15775],[11828,-2457],[-2587,-15185],[15278,-15234],[-30187,-295],[-1355,-13465]],[[58157,374318],[123,38429],[-58280,34400],[29818,15381],[-1233,7716],[30311,245],[-1725,-15185],[15771,295],[247,8109],[-9857,540],[3819,24031],[19345,-2457],[14785,-4374],[1972,8305],[13060,-1032],[863,6045],[-20823,-1573],[9118,14940],[26614,10762],[4435,-6733],[13184,2507],[4313,16266],[7762,4521],[18359,98],[19344,35039],[32282,638],[3820,21427],[26984,11351],[17249,4472],[26861,-1326],[1971,12629]],[[925701,787409],[-19098,-16905],[616,-4669],[-17619,-7076],[-5298,-8059],[-39182,-26734]],[[845120,723966],[-22918,5995],[-3327,-3587],[23657,-4128]],[[842532,722246],[-45712,-22802],[-22055,-20099]],[[774765,679345],[-10227,491],[-7146,8060],[-13061,1228],[-10226,-11352],[16757,-6241],[-5175,-6683],[-27354,10074],[-29817,-5406],[-21686,18281],[-3203,7372],[-17989,12629],[-52366,98],[-29571,-20197],[-45220,1425]],[[518481,689124],[9488,6389],[75406,49584]],[[603375,745097],[51750,148],[-862,-14743],[35362,-1867],[-493,18330],[56308,-590],[-9610,18576],[20453,-836],[-1971,-5012],[20946,147],[-123,10910],[41030,5209]],[[755790,655707],[-1601,-3096],[-26245,-23097],[-19468,-33810],[-2217,-16020],[5544,-22212],[12568,-13760],[-15648,7764],[6900,-17052],[-17373,-18134]],[[698250,516290],[0,88457],[-49778,0],[0,19460],[-134180,835],[-7639,57939]],[[506653,682981],[-739,6340],[12567,-197]],[[774765,679345],[-18975,-23638]],[[308649,619784],[-6776,590],[43001,16168],[39059,393],[17126,9976],[12568,-99],[37210,-2408],[27970,18478],[27846,20099]],[[698250,516290],[-30311,-4472],[-24026,-26389],[-39182,-7224],[1725,-21770],[13307,-9583],[9857,3735],[2711,-17003],[7146,884],[13923,13072],[25505,3637],[9364,-6880],[13061,8108],[-5791,4374],[21439,2506],[1232,9681],[14909,-9042],[-11582,-34990],[-21809,-9779],[-10350,-9632],[-12075,8060],[-31789,-14448],[-5667,-9190],[-4190,-21328],[-9980,-6929],[1479,-8059],[20699,-5848],[8872,12580],[23657,19706],[15771,5259],[23164,-2507],[-36348,-30566],[-3943,-29977],[-5544,-5897]],[[845120,723966],[-2588,-1720]],[[996795,721214],[-12074,-15725],[-21316,-18576],[-4929,-148],[-26491,-25357],[-34499,-19510],[-13061,18134],[1602,19657],[34869,37692],[11582,3833],[10843,-7568],[21069,1376],[35609,12974],[-3204,-6782]],[[603375,745097],[64564,73468],[17496,20001],[-739,132537],[19221,-1916],[7886,-7077],[10843,3244],[32282,-6094],[51010,-4079]],[[805938,955181],[1232,-3145],[35978,590],[493,-15726],[10227,-393],[-370,-35727]],[[847215,999999],[2341,-835],[-10843,-8551],[-21932,-7814],[-20454,-2260],[-27230,688],[-2957,5602],[-27230,-9190],[24027,13957],[24766,-6929],[23780,1720],[23903,6585],[11829,7027]],[[805938,955181],[43371,10762],[3080,20296],[-9857,2261],[16881,9435],[7639,-5160],[35116,-6388],[8871,-15726],[25752,-22999],[14785,-40984],[6654,540],[3696,16315],[9734,4472],[739,9436],[-10473,14693],[9857,-3096],[2464,-17003],[-9733,-18871],[5175,-17249]]],"transform":{"scale":[0.0000025725766441489064,0.0000037008228293713358],"translate":[-89.29660929296921,17.89628098713332]},"objects":{"municipalities":{"type":"GeometryCollection","geometries":[{"arcs":[[[0,1,2]],[[3]],[[4]]],"type":"MultiPolygon","properties":{"cvegeo":"23004","nombre":"Othón P. Blanco"}},{"arcs":[[5,6,7,8]],"type":"Polygon","properties":{"cvegeo":"23005","nombre":"Benito Juárez"}},{"arcs":[[9,-3,10]],"type":"Polygon","properties":{"cvegeo":"23006","nombre":"José María Morelos"}},{"arcs":[[11,12,13,14,15,16,-6]],"type":"Polygon","properties":{"cvegeo":"23008","nombre":"Playa del Carmen"}},{"arcs":[[17,18,19,-15,20]],"type":"Polygon","properties":{"cvegeo":"23009","nombre":"Tulum"}},{"arcs":[[21,-19,22,-1,-10]],"type":"Polygon","properties":{"cvegeo":"23002","nombre":"Felipe Carrillo Puerto"}},{"arcs":[[[23,-13]],[[24]]],"type":"MultiPolygon","properties":{"cvegeo":"23001","nombre":"Cozumel"}},{"arcs":[[[25,26,-7,-17]],[[27]]],"type":"MultiPolygon","properties":{"cvegeo":"23007","nombre":"Lázaro Cárdenas"}},{"arcs":[[-27,28,-8]],"type":"Polygon","properties":{"cvegeo":"23003","nombre":"Isla Mujeres"}}]}}}