{"type":"Topology","arcs":[[[189229,623906],[10594,-101458],[-13831,-6414]],[[185992,516034],[-31195,54228]],[[154797,570262],[34432,53644]],[[277516,820116],[-45909,-32070],[68275,-32945]],[[299882,755101],[-7357,-54810],[-24721,-19825],[22661,-64140]],[[290465,616326],[-32078,15743],[-14714,-25073],[-52973,25656]],[[190700,632652],[21778,21575],[2354,874],[26780,41108]],[[241612,696209],[11184,44898],[-34138,12828],[-17363,51312]],[[201295,805247],[76221,14869]],[[465862,230904],[-9123,18075],[-5592,27114]],[[451147,276093],[6475,1749]],[[457622,277842],[25014,-32653]],[[482636,245189],[-16774,-14285]],[[494997,157726],[-18835,1749]],[[476162,159475],[-32666,4373]],[[443496,163848],[-883,22158]],[[442613,186006],[17363,-7289]],[[459976,178717],[35021,-20991]],[[447910,111370],[-4414,19534]],[[443496,130904],[0,32944]],[[476162,159475],[-28252,-48105]],[[380223,185423],[-31195,38483],[27958,29447]],[[376986,253353],[3237,-67930]],[[359917,339358],[0,-26239]],[[359917,313119],[-294,-12536]],[[359623,300583],[-25309,-35860],[-589,874]],[[333725,265597],[4415,65598],[21777,8163]],[[391701,653061],[36197,2915],[27369,-48980]],[[455267,606996],[-25603,-51895],[-37963,51021]],[[391701,606122],[-295,0]],[[391406,606122],[295,46939]],[[406121,190962],[883,4082]],[[407004,195044],[20306,41107]],[[427310,236151],[5591,-33819]],[[432901,202332],[-14714,-8163],[-12066,-3207]],[[626544,401457],[16186,-106122],[-21777,-4956]],[[620953,290379],[-4120,6997]],[[616833,297376],[-32666,35568]],[[584167,332944],[-10595,16327]],[[573572,349271],[26781,58600]],[[600353,407871],[26191,-6414]],[[620953,290379],[5591,-87172]],[[626544,203207],[-108004,34985],[-16775,1749],[-14714,4957]],[[487051,244898],[20600,24781]],[[507651,269679],[63273,-37609],[45909,65306]],[[359917,313119],[19129,30321],[5003,-47522]],[[384049,295918],[19423,-16910]],[[403472,279008],[-26486,-25655]],[[376986,253353],[-17363,47230]],[[487051,244898],[-4415,291]],[[457622,277842],[5297,17493]],[[462919,295335],[13243,20991],[31489,-46647]],[[673337,748396],[32372,-47231]],[[705709,701165],[-22661,-1166],[-7651,-55976],[-38552,12245]],[[636845,656268],[15891,40816]],[[652736,697084],[20601,51312]],[[700706,800291],[65921,-51312],[12066,-47814]],[[778693,701165],[-42378,-6997],[-30606,6997]],[[673337,748396],[27369,51895]],[[277516,820116],[25603,-11662]],[[303119,808454],[9123,-46939]],[[312242,761515],[-12360,-6414]],[[414067,89504],[-23544,20992],[-17068,23906]],[[373455,134402],[30312,36735]],[[403767,171137],[29134,31195]],[[432901,202332],[9712,-16326]],[[443496,130904],[-29429,-41400]],[[505591,425364],[-18540,-6414]],[[487051,418950],[-16775,16327]],[[470276,435277],[22072,94460]],[[492348,529737],[28840,-1458],[-15597,-102915]],[[432901,83965],[-18834,5539]],[[447910,111370],[-15009,-27405]],[[449382,53061],[-16481,30904]],[[494997,157726],[-589,-2624]],[[494408,155102],[4120,-38776],[1177,2041],[25309,13994]],[[525014,132361],[-11183,-31195]],[[513831,101166],[-42672,-5248],[-21777,-42857]],[[470276,435277],[-26192,-9038]],[[444084,426239],[-6474,-22449]],[[437610,403790],[-14420,-292]],[[423190,403498],[3825,37026],[-29429,53645],[-14420,-15744]],[[383166,478425],[8535,127697]],[[391701,606122],[-295,0]],[[455267,606996],[37081,-31778]],[[492348,575218],[0,-45481]],[[580047,479300],[22954,55393]],[[603001,534693],[47970,-1166]],[[650971,533527],[33549,-36734]],[[684520,496793],[-21484,-26531]],[[663036,470262],[-20306,16326],[-23543,-35276],[5297,-15161]],[[624484,436151],[-44437,43149]],[[624484,436151],[7063,-9038]],[[631547,427113],[-5003,-25656]],[[600353,407871],[-56504,5831]],[[543849,413702],[-1766,66472]],[[542083,480174],[-2354,7289],[40318,-8163]],[[783107,238775],[12949,-49854],[-59447,-79592],[-12360,-14285],[-47087,45481]],[[677162,140525],[-17657,63265],[12066,17201]],[[671571,220991],[22954,-7580],[43555,-16327],[45027,41691]],[[418481,339358],[-8240,16035],[12949,48105]],[[437610,403790],[11772,-42566],[-30901,-21866]],[[663036,470262],[-31489,-43149]],[[420835,983672],[15598,-68804],[73278,-10204],[41495,29737],[13537,-26822],[36787,92420],[19129,-46939],[-2355,-95335],[45321,-16618],[4709,-875],[32372,-39941]],[[652736,697084],[-48558,40816],[-13243,-86297],[-27074,13702]],[[563861,665305],[-58564,83965],[5886,23324],[-82108,4665],[4415,-82508]],[[433490,694751],[-53267,-874]],[[380223,693877],[-21483,46064],[-46498,21574]],[[303119,808454],[14126,30029],[40024,91837],[-7358,59183],[59741,-3207],[1766,-5247],[9417,2623]],[[384049,295918],[34432,43440]],[[444084,426239],[10595,-875]],[[454679,425364],[22954,-71720]],[[477633,353644],[-1471,0],[-13243,-58309]],[[451147,276093],[-28546,-25656]],[[422601,250437],[-3826,3790],[-294,292]],[[418481,254519],[294,0],[-15303,24489]],[[373455,134402],[-5298,2624]],[[368157,137026],[12066,48397]],[[418481,254519],[-11477,-59475]],[[406121,190962],[-2354,-19825]],[[636845,656268],[-11772,-24490],[48852,-30029],[-22954,-68222]],[[603001,534693],[-80047,-17492],[-14126,83965],[-17657,-9330]],[[491171,591836],[-1766,24490]],[[489405,616326],[74456,48979]],[[778693,701165],[-18541,-61224],[38258,-34694],[-12654,-42274]],[[785756,562973],[-25015,-11079]],[[760741,551894],[-28252,-42857],[-47969,-12244]],[[427310,236151],[-4709,14286]],[[465862,230904],[-4120,-37318]],[[461742,193586],[-1766,-14869]],[[626544,203207],[1766,-1166]],[[628310,202041],[-9711,-33528],[-54150,-74927]],[[564449,93586],[-9123,85131],[-15303,-2915]],[[540023,175802],[-59741,22740],[-18540,-4956]],[[482048,51312],[-32666,1458],[0,291]],[[513831,101166],[-31783,-49854]],[[543849,413702],[28252,-63265]],[[572101,350437],[-7358,-4082],[0,-874],[-4120,1749],[-883,0],[-44437,26822]],[[515303,374052],[3825,55102]],[[519128,429154],[22955,51020]],[[564449,93586],[-17657,-44898],[-43261,-48688],[-21483,51312]],[[525014,132361],[12949,38776]],[[537963,171137],[2060,4665]],[[359917,339358],[10595,113411]],[[370512,452769],[12654,25656]],[[368157,137026],[-10888,-34985],[-15303,27696],[8534,22449],[-35315,41983],[-8240,45772]],[[306945,239941],[25898,24782]],[[332843,264723],[882,874]],[[537963,171137],[-3532,0],[-11477,-7580],[-1766,-1166],[-8534,-2916],[-18246,-4373]],[[154797,570262],[-45910,-18368],[-39729,29738]],[[69158,581632],[-3237,30612],[31783,23324],[89465,99125],[21777,-44606],[32666,6122]],[[190700,632652],[-1471,-8746]],[[306945,239941],[-30312,59476],[2354,38775]],[[278987,338192],[52090,-48979],[1766,-24490]],[[492348,381924],[22955,-7872]],[[572101,350437],[1471,-1166]],[[584167,332944],[-25309,-24489],[-74162,50728]],[[484696,359183],[0,292],[-4708,9329],[12360,13120]],[[778104,265597],[5003,-26822]],[[671571,220991],[82401,78426],[24132,-33820]],[[278987,338192],[-31489,18367],[-12360,28863],[-29429,70554],[-589,875],[0,3790]],[[205120,460641],[60036,1458],[7357,39650],[46204,8746]],[[318717,510495],[19717,-75510],[32078,17784]],[[380223,693877],[11478,-40816]],[[318717,510495],[10005,44606],[-38257,61225]],[[677162,140525],[-11771,5247],[-37081,56269]],[[760741,551894],[13537,-91836],[7357,-22741]],[[781635,437317],[60330,-53935],[-17657,-63557]],[[824308,319825],[-16481,-27697],[-21483,-2915],[-8240,-23616]],[[205120,460641],[-19128,55393]],[[433490,694751],[55915,-78425]],[[491171,591836],[1177,-16618]],[[477633,353644],[7063,5539]],[[917892,320408],[-47675,-34111],[-45909,33528]],[[781635,437317],[10595,24782],[40612,-49271],[4120,-3207],[52678,-875],[-5591,-40525],[25014,-13702],[17952,67638]],[[927015,422157],[17952,6122],[-27075,-107871]],[[932606,461807],[36787,-44898],[30606,-15452],[-13832,-78425],[-41495,-32945],[-26780,30321]],[[927015,422157],[5591,39650]],[[160388,848396],[15303,-51021],[25604,7872]],[[69158,581632],[-17657,-3207],[-51501,142274],[25309,69971],[10006,583],[4709,12245],[48263,-8164],[31784,58893],[26780,-30904],[13537,25073]],[[519128,429154],[-13537,-3790]],[[785756,562973],[62978,67639],[-2355,-41691],[38847,-23615],[15009,-39942],[2942,-292],[29429,-63265]],[[487051,418950],[5297,-37026]],[[454679,425364],[15597,9913]]],"transform":{"scale":[0.0000010770842085778744,6.238057056731864e-7],"translate":[-98.70856615684242,19.104971533515616]},"objects":{"municipalities":{"type":"GeometryCollection","geometries":[{"arcs":[[[0,1,2]],[[3,4,5,6,7,8]]],"type":"MultiPolygon","properties":{"cvegeo":"29020","nombre":"Sanctórum de Lázaro Cárdenas"}},{"arcs":[[9,10,11,12]],"type":"Polygon","properties":{"cvegeo":"29060","nombre":"Santa Isabel Xiloxoxtla"}},{"arcs":[[13,14,15,16,17]],"type":"Polygon","properties":{"cvegeo":"29059","nombre":"Santa Cruz Quilehtla"}},{"arcs":[[18,19,-15,20]],"type":"Polygon","properties":{"cvegeo":"29058","nombre":"Santa Catarina Ayometla"}},{"arcs":[[21,22]],"type":"Polygon","properties":{"cvegeo":"29057","nombre":"Santa Apolonia Teacalco"}},{"arcs":[[23,24,25,26]],"type":"Polygon","properties":{"cvegeo":"29056","nombre":"Santa Ana Nopalucan"}},{"arcs":[[27,28,29,30]],"type":"Polygon","properties":{"cvegeo":"29055","nombre":"San Lucas Tecopilco"}},{"arcs":[[31,32,33,34]],"type":"Polygon","properties":{"cvegeo":"29053","nombre":"San Juan Huactzinco"}},{"arcs":[[35,36,37,38,39,40]],"type":"Polygon","properties":{"cvegeo":"29052","nombre":"San José Teacalco"}},{"arcs":[[41,42,43,44,-37]],"type":"Polygon","properties":{"cvegeo":"29050","nombre":"San Francisco Tetlanohcan"}},{"arcs":[[-25,45,46,47,48]],"type":"Polygon","properties":{"cvegeo":"29049","nombre":"San Damián Texóloc"}},{"arcs":[[-44,49,-12,50,51]],"type":"Polygon","properties":{"cvegeo":"29048","nombre":"La Magdalena Tlaltelulco"}},{"arcs":[[52,53,54,55]],"type":"Polygon","properties":{"cvegeo":"29047","nombre":"Lázaro Cárdenas"}},{"arcs":[[56,57,-53,58]],"type":"Polygon","properties":{"cvegeo":"29046","nombre":"Emiliano Zapata"}},{"arcs":[[59,60,61,-4]],"type":"Polygon","properties":{"cvegeo":"29045","nombre":"Benito Juárez"}},{"arcs":[[62,63,64,65,-16,-20,66]],"type":"Polygon","properties":{"cvegeo":"29044","nombre":"Zacatelco"}},{"arcs":[[67,68,69,70]],"type":"Polygon","properties":{"cvegeo":"29043","nombre":"Yauhquemehcan"}},{"arcs":[[71,-67,-19,72]],"type":"Polygon","properties":{"cvegeo":"29042","nombre":"Xicohtzinco"}},{"arcs":[[73,-73,-21,-14,74,75,76,77]],"type":"Polygon","properties":{"cvegeo":"29041","nombre":"Papalotla de Xicohténcatl"}},{"arcs":[[78,79,80,81,82,83,-30,-29,84,85,-70]],"type":"Polygon","properties":{"cvegeo":"29040","nombre":"Xaltocan"}},{"arcs":[[86,87,88,89,90,91]],"type":"Polygon","properties":{"cvegeo":"29039","nombre":"Xaloztoc"}},{"arcs":[[-92,92,93,-41,94,95,96]],"type":"Polygon","properties":{"cvegeo":"29038","nombre":"Tzompantepec"}},{"arcs":[[97,98,99]],"type":"Polygon","properties":{"cvegeo":"29037","nombre":"Ziltlaltépec de Trinidad Sánchez Santos"}},{"arcs":[[100,-81,101]],"type":"Polygon","properties":{"cvegeo":"29036","nombre":"Totolac"}},{"arcs":[[-91,102,-93]],"type":"Polygon","properties":{"cvegeo":"29035","nombre":"Tocatlán"}},{"arcs":[[103,-59,-56,104,105,106,107,-61,108]],"type":"Polygon","properties":{"cvegeo":"29034","nombre":"Tlaxco"}},{"arcs":[[-47,109,-102,-80,110,111,112,-51,-11,113,114,115]],"type":"Polygon","properties":{"cvegeo":"29033","nombre":"Tlaxcala"}},{"arcs":[[116,117,-23,-48,-116,118,-32,119,-64]],"type":"Polygon","properties":{"cvegeo":"29032","nombre":"Tetlatlahuca"}},{"arcs":[[-55,120,-88,121,122,123,-105]],"type":"Polygon","properties":{"cvegeo":"29031","nombre":"Tetla de la Solidaridad"}},{"arcs":[[124,125,126,-89,-121,-54,-58]],"type":"Polygon","properties":{"cvegeo":"29030","nombre":"Terrenate"}},{"arcs":[[-17,-66,-34,127,-114,-10,128,129]],"type":"Polygon","properties":{"cvegeo":"29029","nombre":"Tepeyanco"}},{"arcs":[[130,131,132,133,-129,-13,-50,-43]],"type":"Polygon","properties":{"cvegeo":"29028","nombre":"Teolocholco"}},{"arcs":[[134,-78,135]],"type":"Polygon","properties":{"cvegeo":"29027","nombre":"Tenancingo"}},{"arcs":[[-96,136,137,138,139]],"type":"Polygon","properties":{"cvegeo":"29026","nombre":"Santa Cruz Tlaxcala"}},{"arcs":[[140,-136,-77,141,142,-133]],"type":"Polygon","properties":{"cvegeo":"29025","nombre":"San Pablo del Monte"}},{"arcs":[[-24,143,144,-82,-101,-110,-46]],"type":"Polygon","properties":{"cvegeo":"29024","nombre":"Panotla"}},{"arcs":[[145,146,147,-26,-49,-22,-118]],"type":"Polygon","properties":{"cvegeo":"29023","nombre":"Natívitas"}},{"arcs":[[-130,-134,-143,148,-75,-18]],"type":"Polygon","properties":{"cvegeo":"29022","nombre":"Acuamanala de Miguel Hidalgo"}},{"arcs":[[149,150,-7,151,-3]],"type":"Polygon","properties":{"cvegeo":"29021","nombre":"Nanacamilpa de Mariano Arista"}},{"arcs":[[152,153,-147]],"type":"Polygon","properties":{"cvegeo":"29019","nombre":"Tepetitla de Lardizábal"}},{"arcs":[[154,-138,155,-39,156,157]],"type":"Polygon","properties":{"cvegeo":"29018","nombre":"Contla de Juan Cuamatzi"}},{"arcs":[[-142,-76,-149]],"type":"Polygon","properties":{"cvegeo":"29017","nombre":"Mazatecochco de José María Morelos"}},{"arcs":[[158,-100,159]],"type":"Polygon","properties":{"cvegeo":"29016","nombre":"Ixtenco"}},{"arcs":[[160,161,162,-144,-27,-148,-154]],"type":"Polygon","properties":{"cvegeo":"29015","nombre":"Ixtacuixtla de Mariano Matamoros"}},{"arcs":[[163,-31,-84,-83,-145,-163,164,-5,-62,-108]],"type":"Polygon","properties":{"cvegeo":"29014","nombre":"Hueyotlipan"}},{"arcs":[[165,-131,-42,-36,-94,-103,-90,-127,166,167,168,-160,-99]],"type":"Polygon","properties":{"cvegeo":"29013","nombre":"Huamantla"}},{"arcs":[[169,-1,-152,-6,-165,-162]],"type":"Polygon","properties":{"cvegeo":"29012","nombre":"Españita"}},{"arcs":[[-28,-164,-107,170,-123,171,-85]],"type":"Polygon","properties":{"cvegeo":"29011","nombre":"Muñoz de Domingo Arenas"}},{"arcs":[[-113,172,-157,-38,-45,-52]],"type":"Polygon","properties":{"cvegeo":"29010","nombre":"Chiautempan"}},{"arcs":[[-40,-156,-137,-95]],"type":"Polygon","properties":{"cvegeo":"29009","nombre":"Cuaxomulco"}},{"arcs":[[173,-168,174,175]],"type":"Polygon","properties":{"cvegeo":"29008","nombre":"Cuapiaxtla"}},{"arcs":[[176,-176,177]],"type":"Polygon","properties":{"cvegeo":"29007","nombre":"El Carmen Tequexquitla"}},{"arcs":[[178,-8,-151,179]],"type":"Polygon","properties":{"cvegeo":"29006","nombre":"Calpulalpan"}},{"arcs":[[-97,-140,180,-71,-86,-172,-122,-87]],"type":"Polygon","properties":{"cvegeo":"29005","nombre":"Apizaco"}},{"arcs":[[181,-178,-175,-167,-126]],"type":"Polygon","properties":{"cvegeo":"29004","nombre":"Atltzayanca"}},{"arcs":[[-124,-171,-106]],"type":"Polygon","properties":{"cvegeo":"29003","nombre":"Atlangatepec"}},{"arcs":[[182,-158,-173,-112,183,-69]],"type":"Polygon","properties":{"cvegeo":"29002","nombre":"Apetatitlán de Antonio Carvajal"}},{"arcs":[[-68,-181,-139,-155,-183]],"type":"Polygon","properties":{"cvegeo":"29001","nombre":"Amaxac de Guerrero"}}]}}}