{"type":"Topology","arcs":[[[510139,388369],[3533,10573],[-13345,8591],[-29962,-283],[-9552,17181],[5365,25583],[-9028,4531]],[[457150,454545],[131,11895],[14261,-6325],[16617,4437],[9943,-7458],[35458,7646],[7196,-13499],[28130,25488],[16747,-16237],[18710,-3965],[6935,-15198],[-1440,-24450]],[[609838,416879],[-6672,-25489]],[[603166,391390],[-13084,11328],[-23028,-4625],[-11121,-14161],[-24729,18598],[-6411,-12084],[-14654,-2077]],[[603166,391390],[-16878,-25300],[-9159,1605],[-6150,-27754],[-18448,-15765],[3664,-27093],[23158,-8685]],[[579353,288398],[785,-23129]],[[580138,265269],[-19364,-25960],[-18317,566],[-1047,-9818],[-16093,9913]],[[525317,239970],[-8505,8685],[7327,20485],[-10467,4248],[2094,23223],[-25645,16331]],[[490121,312942],[-785,25866],[-131,1983]],[[489205,340791],[15308,8118],[-4448,22751],[10074,16709]],[[128222,589634],[-14523,-6702],[-5234,9062],[-14785,-7835],[5365,-21429],[-12822,-49184],[-6411,-39460]],[[79812,474086],[-38467,4626],[-23813,-10196],[-5626,-22750]],[[11906,445766],[-2616,2548],[-5627,1228],[3010,25488],[10467,9535],[48541,56735],[11775,22185],[9028,32568],[6281,17748],[22242,5947]],[[115007,619748],[3664,-28509],[9551,-1605]],[[435823,733503],[-4579,-19447],[-14785,-4248],[1701,17464],[-11645,-8213],[2355,-20863],[-32578,-12650],[-7851,-13499]],[[368441,672047],[-37943,-2455],[-15439,-29642],[-22111,-3776]],[[292948,636174],[5626,19636],[-7327,18786],[-21850,21618],[-22505,566],[-10074,-11894],[-6019,20862],[-29308,21524],[-10074,6703],[-5495,660]],[[185922,734635],[1308,13877],[-15046,19919],[34018,14444],[10728,-1322]],[[216930,781553],[18318,6891],[-1832,-19730],[12430,-7741],[39382,21618],[14131,-11989],[17532,6420],[-4449,27848],[9290,22751],[12822,8308],[-14915,16992],[-17140,2832],[10467,60323],[-27476,-3682],[-14523,-1982],[-1440,35872],[6804,9913],[1570,36344]],[[277901,992541],[23551,7458],[19233,-2077],[11383,-11706],[30878,1605],[-1047,-7080],[24075,-23223],[42130,4154],[32055,-6514],[28523,-20391],[4187,-16426],[20280,-4059],[7719,-5003],[-9551,-23695]],[[511317,885584],[-6280,-12744],[-23682,2171],[-1570,-19164],[-29046,-11422],[-2094,-23790],[-12429,-25110],[6542,-12367],[-7458,-29076],[523,-20579]],[[816302,682998],[-4841,-6797]],[[811461,676201],[-7589,15765],[9551,6325],[-11121,24072],[19626,34740],[-11122,18597],[20150,-2360],[-3664,31530],[14131,16709],[-1963,14350]],[[839460,835929],[43439,1510],[-3141,-10479],[8636,-23128],[15570,-6986],[16093,13216],[20803,-6136],[16224,17370],[-523,-52015]],[[956561,769281],[-20935,-9157],[-12168,-19164],[-7588,-40876],[-10991,-39649]],[[904879,660435],[-18055,14161],[-15963,3021],[-10205,-14916]],[[860656,662701],[-25252,20580],[-19102,-283]],[[744079,612196],[-66859,6891],[-1439,4909]],[[675781,623996],[-10729,33041],[17140,6986],[15701,-11706],[22112,21429]],[[720005,673746],[15308,-2832],[9813,-19258],[21065,-24922]],[[766191,626734],[-5627,-17181],[-16485,2643]],[[860656,662701],[6149,-3682],[-12429,-56546],[4710,-11706]],[[859086,590767],[-16355,-472],[-10336,9062],[2747,13122],[-15308,7269],[916,10101],[-18448,15388]],[[802302,645237],[9159,30964]],[[859086,590767],[1439,-5287],[-4448,-13688],[-15963,7269],[131,-11706],[-13084,-38421],[-39513,377],[-23813,15954]],[[763835,545265],[-3532,42009],[-5365,6608],[-10859,18314]],[[766191,626734],[31662,8402],[4449,10101]],[[419338,88266],[-21458,-11517],[-17140,19258],[-9289,-21146]],[[371451,74861],[-1309,25488],[8505,10668],[-9813,12177]],[[368834,123194],[-2094,22185],[20019,-16898],[13738,2171],[18841,-42386]],[[720005,673746],[-12561,27754],[4056,18881],[12430,11233],[-8897,5948],[-916,20202],[9028,26149],[18840,-1982],[-392,9723],[30224,15860],[-8897,21995],[14784,44747],[4972,9534],[-9551,25961]],[[773125,909751],[17663,-7930],[5495,-25300],[8374,8591],[29308,-31247],[5495,-17936]],[[956561,769281],[-6411,-19447],[15177,-33890],[8504,10762],[26168,-8308],[-10336,-15198],[2093,-16426],[-18579,-189],[-37420,-40310],[-24336,6042],[-6542,8118]],[[523616,228358],[10467,-15104],[-8112,-1322],[-8766,-21712],[15439,-26244],[6672,1794],[3402,-30681]],[[542718,135089],[-21981,-20296],[-13999,-5853],[-11514,-6892],[3925,-13027],[-15439,-29076],[-18841,-11989]],[[464869,47956],[-18186,20957],[8897,9913],[-7850,8779]],[[447730,87605],[4579,14443]],[[452309,102048],[8897,11517],[20803,9818],[-5364,18975],[-32841,12178],[393,-5381]],[[444197,149155],[-13084,8213],[7196,17842],[-3009,13971]],[[435300,189181],[14915,4154],[8897,22279]],[[459112,215614],[30486,6797],[4710,19258],[7719,-12178],[21589,-1133]],[[647127,601246],[28654,22750]],[[763835,545265],[-7327,3965],[-785,-21618],[-28261,-20108],[-33102,-1321],[-16355,6325],[-7719,14538]],[[670286,527046],[-16878,38988],[-6281,35212]],[[287060,312942],[-7327,17465],[29700,22467],[14392,-6608]],[[323825,346266],[-523,-21146]],[[323302,325120],[-11645,3682],[-10598,-21902]],[[301059,306900],[-13999,6042]],[[452309,102048],[-16747,5287],[12691,34079],[-4056,7741]],[[671333,246011],[-15963,-28226],[-13869,1039],[-18055,-12462],[-2879,7836],[-24990,11800]],[[595577,225998],[-785,28509],[-14654,10762]],[[579353,288398],[23159,3209],[13607,16615],[16878,3304],[2224,9346],[15832,-2077],[5756,14538]],[[656809,333333],[-1177,-19069],[7981,-23317],[0,-24734],[7720,-20202]],[[663482,353818],[1570,-21146],[-8243,661]],[[609838,416879],[9290,660]],[[619128,417539],[5888,-20957],[8243,-2926],[4579,-19541],[8897,2643],[16747,-22940]],[[420123,201265],[15177,-12084]],[[447730,87605],[-28392,661]],[[368834,123194],[-26168,2644],[-916,-10951],[-8112,-5192],[-15046,-20768],[2617,-18409],[10859,-6608]],[[332068,63910],[-15046,-2077],[-30616,6703],[-2486,40498],[7981,3871],[-13738,17086],[916,19919],[23551,-3115],[785,27660]],[[303415,174455],[7196,11611],[40167,11517],[16617,-24450],[20280,14444],[18579,1416],[-1832,13216],[15701,-944]],[[698809,232417],[6934,-27848]],[[705743,204569],[10336,-10951],[-19364,-4531],[-14654,-52676],[16355,2265],[-7850,-15576],[17532,-10479]],[[708098,112621],[-3663,-25488],[13084,-8307],[-1963,-38800],[-35326,-3776]],[[680230,36250],[-2748,12461],[-16224,8591]],[[661258,57302],[523,21901],[-3663,8685],[-3009,-1605],[-2879,3304],[-523,661],[-1963,1133],[-6280,6986],[-131,0],[-6803,-10573],[-11383,0],[-10337,37666],[-18448,-94],[8897,22939],[-19233,15671]],[[586026,163976],[2878,25394],[-7327,22751],[14000,13877]],[[671333,246011],[24990,-5947],[2486,-7647]],[[523616,228358],[1701,11612]],[[586026,163976],[-20542,-23600],[-22766,-5287]],[[720528,194940],[11252,-18881],[-13084,-17086],[-262,-19069],[-10336,-27283]],[[705743,204569],[14785,-9629]],[[655501,72595],[5757,-15293]],[[680230,36250],[-26168,-12744],[-9944,-18219],[3664,22184],[-27084,378],[14392,13027],[-18186,-2926]],[[616904,37950],[15700,44840],[13477,3021],[9420,-13216]],[[436347,309827],[28915,-3587],[24859,6702]],[[459112,215614],[1701,10573],[-17009,10573],[-9420,42858]],[[434384,279618],[1963,30209]],[[616904,37950],[-7458,-15010],[-16747,3870],[-23159,-11989],[-12560,-14821],[-13608,1416],[-4971,20768],[-13477,11801],[-4579,-22657],[-30224,14255],[-15962,189],[-4710,-16426],[-18187,11517],[13607,27093]],[[670286,527046],[1047,-10951],[-15570,-19541],[2355,-8591],[-23813,-11894],[-1831,-28793],[6149,-19824],[-19495,-9913]],[[457150,454545],[-18318,-1982],[-13999,15198]],[[424833,467761],[-8243,23884]],[[416590,491645],[23813,13216],[14653,18597],[13346,15860],[16224,5286],[4972,22751],[29569,6892],[-6411,24638],[13477,-2643],[23289,15199],[26691,7930],[26429,1321]],[[602642,620692],[28916,-3965],[15569,-15481]],[[128222,589634],[654,-16898],[22112,-5758],[-1963,-11423],[27607,5664],[-1178,-22279],[-17139,1700],[-1309,-23129],[7851,-8307]],[[164857,509204],[-4841,-43331],[-10729,-8024]],[[149287,457849],[-15177,2549],[-15047,18880],[-22112,5098],[-17139,-10290]],[[149287,457849],[-5234,-6608],[26691,3682],[-7588,-31531],[4317,-16803]],[[167473,406589],[-21457,-3682],[-13869,-34457]],[[132147,368450],[-12953,-8024],[-131,-12461],[-16878,-5947],[-3794,-16520],[-15178,11989],[-14915,-9063],[654,11517],[-16355,-2738]],[[52597,337203],[7196,23035],[-6803,29453],[-21196,6514],[2093,21240],[-8373,12933],[-12299,-1699],[-1309,17087]],[[167473,406589],[22112,-755]],[[189585,405834],[8112,-19825],[15177,-9062],[-10205,-58152]],[[202669,318795],[-12037,10668],[-36243,-5004],[-8897,13405],[13346,189],[-2748,22845],[-15831,-1416],[-8112,8968]],[[323302,325120],[12953,-3398],[1439,-15766],[21196,-24166],[39513,17747],[15308,-25677]],[[413711,273860],[-7457,-20297],[916,-43708],[12953,-8590]],[[303415,174455],[-14000,-284],[-10206,13500],[-15962,-2549],[5626,10479],[-6149,17558]],[[262724,213159],[19756,32191]],[[282480,245350],[13215,15482],[-6280,31153],[11644,14915]],[[750752,920701],[22373,-10950]],[[602642,620692],[-18971,27943],[-4580,17465],[12561,5192],[3009,14254],[-25121,23506],[-2093,9913]],[[567447,718965],[20411,7269],[-10468,27471],[22505,-14822],[14523,-1038],[3925,29548],[-17009,5286],[-15832,-4248],[-10859,33324],[1439,30775],[-17009,-2926],[19626,12272],[-14785,377],[-8766,23412]],[[555148,865665],[14000,-15859],[15046,-1322],[9682,-11895],[9028,9724],[8635,-19447],[12430,8591],[20934,10384],[28785,377],[3532,6797],[-12429,19825],[10859,17653],[3402,19635],[41738,13122],[29962,-2549]],[[202669,318795],[-2094,-40309],[6412,-8969],[-9944,-28509],[-11121,-13877],[7719,-24450]],[[193641,202681],[654,-18881],[-9158,-14915],[-15701,-10290],[-3271,-13783],[-13869,10196],[-13607,-5003],[-14916,5664],[-15831,6230],[-32972,-15859],[2879,10856],[-13215,6230],[-4841,22657],[6935,13877],[-10467,4342],[5626,19353],[-18056,9062],[-14523,-6891],[6018,16615],[-35326,2454],[13346,29454],[1177,2076],[21327,52016],[10467,-5287],[6280,14349]],[[229098,534315],[-16616,18030],[3532,27282],[30224,-9817],[8112,56546],[3140,16898],[15439,-7646]],[[272929,635608],[-654,-19919],[12953,944],[1439,-15199],[22112,-20202],[-4710,-9440],[11252,-11234],[-4579,-36156],[10336,-20296],[-16748,-22845]],[[304330,481261],[-20410,1982],[-916,-22373],[-18579,-378]],[[264425,460492],[-1832,24450],[-18187,2172],[2094,33607],[-17402,13594]],[[234986,434060],[-6019,-9063],[17009,-37289],[1178,-33135],[10467,-12083],[-14523,-5759],[5626,-27470],[20411,-3965],[17925,7646]],[[282480,245350],[-18840,16898],[-22897,-10478],[-25514,-3493],[4580,-36722]],[[219809,211555],[-26168,-8874]],[[189585,405834],[5626,13688],[-9028,11517],[18448,17464],[4711,-11517],[25644,-2926]],[[262724,213159],[-131,0],[-16617,-6230],[-9420,10856],[-16747,-6230]],[[567447,718965],[-31925,12649],[-41606,945],[-19234,-9818],[-21326,23223],[-7982,-15010],[-9551,2549]],[[511317,885584],[19887,-13972],[23944,-5947]],[[436347,309827],[-19103,6419],[654,20297],[8766,944]],[[426664,337487],[3926,-5098],[-1701,13405],[13345,-9157],[30617,10762],[16354,-6608]],[[426664,337487],[-4841,71745],[-15962,5475],[1570,22468],[17402,30586]],[[415805,494288],[785,-2643]],[[434384,279618],[-20673,-5758]],[[323825,346266],[14523,4909],[5757,37194],[-1177,20863],[22112,28793],[10336,-1511],[18579,48806]],[[393955,485320],[21850,8968]],[[234986,434060],[29439,26432]],[[304330,481261],[34018,-1888],[25776,-6042],[29831,11989]],[[164857,509204],[3009,-15199],[19887,33418],[25121,-3681],[16224,10573]],[[368441,672047],[12561,1982],[10729,-27471],[15962,-5286],[-15439,-53337],[7981,-19636],[17402,-5097],[11383,-9629],[-23159,-13500],[9944,-45785]],[[272929,635608],[3140,189],[16879,377]],[[115007,619748],[-6542,15860],[18972,9912],[5757,32852],[2093,19730],[33887,18880],[17794,2738],[-1046,14915]],[[216930,781553],[-7588,23978],[-21327,33230],[7458,8307],[15046,32757],[-3009,12367],[14785,53620],[-9159,661],[-2355,22090],[19364,-566],[11645,10950],[5887,5759],[9290,9062],[20934,-1227]],[[371451,74861],[14784,-8874],[-16878,-7363],[-654,-9629],[-14523,12933],[-22112,1982]]],"transform":{"scale":[0.0000024226470294763524,0.0000019265229854799042],"translate":[-102.09640150393018,19.912826394639627]},"objects":{"municipalities":{"type":"GeometryCollection","geometries":[{"arcs":[[0,1,2,3]],"type":"Polygon","properties":{"cvegeo":"11009","nombre":"Comonfort"}},{"arcs":[[4,5,6,7,8,9,-4]],"type":"Polygon","properties":{"cvegeo":"11007","nombre":"Celaya"}},{"arcs":[[10,11,12,13]],"type":"Polygon","properties":{"cvegeo":"11025","nombre":"Purísima del Rincón"}},{"arcs":[[14,15,16,17,18,19,20]],"type":"Polygon","properties":{"cvegeo":"11030","nombre":"San Felipe"}},{"arcs":[[21,22,23,24,25,26]],"type":"Polygon","properties":{"cvegeo":"11045","nombre":"Xichú"}},{"arcs":[[27,28,29,30]],"type":"Polygon","properties":{"cvegeo":"11013","nombre":"Doctor Mora"}},{"arcs":[[-22,-27,31,32,33]],"type":"Polygon","properties":{"cvegeo":"11034","nombre":"Santa Catarina"}},{"arcs":[[-33,34,35,-31,36]],"type":"Polygon","properties":{"cvegeo":"11040","nombre":"Tierra Blanca"}},{"arcs":[[37,38,39]],"type":"Polygon","properties":{"cvegeo":"11041","nombre":"Uriangato"}},{"arcs":[[-30,40,41,-23,-34,-37]],"type":"Polygon","properties":{"cvegeo":"11043","nombre":"Victoria"}},{"arcs":[[42,-25]],"type":"Polygon","properties":{"cvegeo":"11006","nombre":"Atarjea"}},{"arcs":[[43,44,45,46,47,48,49,50]],"type":"Polygon","properties":{"cvegeo":"11028","nombre":"Salvatierra"}},{"arcs":[[51,-28,-36,52,53]],"type":"Polygon","properties":{"cvegeo":"11032","nombre":"San José de Iturbide"}},{"arcs":[[54,55,56,57]],"type":"Polygon","properties":{"cvegeo":"11024","nombre":"Pueblo Nuevo"}},{"arcs":[[-48,58]],"type":"Polygon","properties":{"cvegeo":"11036","nombre":"Santiago Maravatío"}},{"arcs":[[59,60,-6,61,62]],"type":"Polygon","properties":{"cvegeo":"11004","nombre":"Apaseo el Alto"}},{"arcs":[[63,-62,-5,-3,64,65]],"type":"Polygon","properties":{"cvegeo":"11005","nombre":"Apaseo el Grande"}},{"arcs":[[66,-49,-59,-47,67,-40,68,69,70]],"type":"Polygon","properties":{"cvegeo":"11046","nombre":"Yuriria"}},{"arcs":[[71,72,73,74,75,76,-60,77]],"type":"Polygon","properties":{"cvegeo":"11019","nombre":"Jerécuaro"}},{"arcs":[[-44,78,-7,-61,-77,79]],"type":"Polygon","properties":{"cvegeo":"11039","nombre":"Tarimoro"}},{"arcs":[[80,-73,81]],"type":"Polygon","properties":{"cvegeo":"11010","nombre":"Coroneo"}},{"arcs":[[82,-75,83,84]],"type":"Polygon","properties":{"cvegeo":"11038","nombre":"Tarandacuao"}},{"arcs":[[85,-8,-79,-51,86,87]],"type":"Polygon","properties":{"cvegeo":"11011","nombre":"Cortazar"}},{"arcs":[[88,-45,-80,-76,-83,-85]],"type":"Polygon","properties":{"cvegeo":"11002","nombre":"Acámbaro"}},{"arcs":[[-54,89,-65,-2,90,91,92,93]],"type":"Polygon","properties":{"cvegeo":"11003","nombre":"San Miguel de Allende"}},{"arcs":[[94,95,96,-11]],"type":"Polygon","properties":{"cvegeo":"11031","nombre":"San Francisco del Rincón"}},{"arcs":[[-97,97,98,99,100,-12]],"type":"Polygon","properties":{"cvegeo":"11008","nombre":"Manuel Doblado"}},{"arcs":[[101,102,103,-99]],"type":"Polygon","properties":{"cvegeo":"11012","nombre":"Cuerámaro"}},{"arcs":[[104,105,-71,106,107,108,-57]],"type":"Polygon","properties":{"cvegeo":"11042","nombre":"Valle de Santiago"}},{"arcs":[[109,-41,-29,-52,-94,110,111,112]],"type":"Polygon","properties":{"cvegeo":"11033","nombre":"San Luis de la Paz"}},{"arcs":[[-104,113,114,-100]],"type":"Polygon","properties":{"cvegeo":"11023","nombre":"Pénjamo"}},{"arcs":[[115,116,117,118]],"type":"Polygon","properties":{"cvegeo":"11037","nombre":"Silao de la Victoria"}},{"arcs":[[119,-58,-109,120,121,-114,-103,122]],"type":"Polygon","properties":{"cvegeo":"11001","nombre":"Abasolo"}},{"arcs":[[-108,123,-121]],"type":"Polygon","properties":{"cvegeo":"11016","nombre":"Huanímaro"}},{"arcs":[[-112,124,-21,125]],"type":"Polygon","properties":{"cvegeo":"11029","nombre":"San Diego de la Unión"}},{"arcs":[[-9,-86,126,127]],"type":"Polygon","properties":{"cvegeo":"11044","nombre":"Villagrán"}},{"arcs":[[-1,-10,-128,128,-91]],"type":"Polygon","properties":{"cvegeo":"11035","nombre":"Santa Cruz de Juventino Rosas"}},{"arcs":[[129,-92,-129,-127,-88,130,-105,-56,131,132]],"type":"Polygon","properties":{"cvegeo":"11027","nombre":"Salamanca"}},{"arcs":[[-55,-120,133,-118,134,-132]],"type":"Polygon","properties":{"cvegeo":"11017","nombre":"Irapuato"}},{"arcs":[[-102,-98,-96,135,-119,-134,-123]],"type":"Polygon","properties":{"cvegeo":"11026","nombre":"Romita"}},{"arcs":[[-16,136,-133,-135,-117,137]],"type":"Polygon","properties":{"cvegeo":"11015","nombre":"Guanajuato"}},{"arcs":[[-17,-138,-116,-136,-95,-14,138]],"type":"Polygon","properties":{"cvegeo":"11020","nombre":"León"}},{"arcs":[[-50,-67,-106,-131,-87]],"type":"Polygon","properties":{"cvegeo":"11018","nombre":"Jaral del Progreso"}},{"arcs":[[139,-19]],"type":"Polygon","properties":{"cvegeo":"11022","nombre":"Ocampo"}},{"arcs":[[-39,140,-69]],"type":"Polygon","properties":{"cvegeo":"11021","nombre":"Moroleón"}},{"arcs":[[-125,-111,-93,-130,-137,-15]],"type":"Polygon","properties":{"cvegeo":"11014","nombre":"Dolores Hidalgo Cuna de la Independencia Nacional"}}]}}}