{"type":"Topology","arcs":[[[825976,403335],[14375,-33357]],[[840351,369978],[13191,-26543]],[[853542,343435],[-8794,-5492]],[[844748,337943],[-30949,-9763],[-16066,11696]],[[797733,339876],[-18265,8847],[-6934,32645],[8625,18103],[0,203]],[[781159,399674],[9302,-2034],[23169,9255]],[[813630,406895],[12346,-3560]],[[840858,137496],[8625,-2034],[17250,-37120],[21648,-6508],[-677,-13323],[-31794,-12814],[-5412,-915],[-1015,1830],[-34331,1119],[4228,-20645],[-23000,-32035]],[[796380,15051],[-37037,9255],[19956,17594],[-18941,10475],[-4736,13831],[21648,13627],[20463,30306],[23169,9662],[19956,17695]],[[824116,141564],[16742,-4068]],[[796380,15051],[-8118,-10475],[-14713,4068],[-43802,-5186],[-14713,-2746],[-8794,17797]],[[706240,18509],[3890,14950],[-17251,17492]],[[692879,50951],[13868,12102],[677,21458],[17419,5289],[25029,21255],[36530,21254],[0,7831]],[[786402,140140],[4566,4475],[33148,-3051]],[[741586,410454],[5750,-813]],[[747336,409641],[16742,-3967]],[[764078,405674],[10317,-2745]],[[774395,402929],[6764,-3255]],[[797733,339876],[-7949,-26035],[5074,-12204],[-18772,-2542],[-39912,-33052]],[[736174,266043],[-20125,12407]],[[716049,278450],[29765,53188],[-1861,22170],[-11669,15967],[-5750,26035],[15052,14644]],[[853542,343435],[36022,23899],[24184,-21051],[-507,203],[9640,-24713],[-3383,-16577],[20295,-1728],[-16067,-20442],[-15897,-12915]],[[907829,270111],[-39912,-6916],[-17081,12916]],[[850836,276111],[9133,8746],[-5243,22068],[-18941,24306],[8963,6712]],[[556908,440760],[6426,-10170],[-8963,-29492],[19449,-3865],[-7611,-10780]],[[566209,386453],[-8794,-24916]],[[557415,361537],[-36022,10068],[2537,15764],[-32302,-22882],[-4566,-39663]],[[487062,324824],[-11669,3255]],[[475393,328079],[-12008,610]],[[463385,328689],[6258,5085],[-5074,57052],[20294,7831],[-4397,21459]],[[480466,420116],[8625,-13730],[18773,5187],[-6427,14950]],[[501437,426523],[0,101]],[[501437,426624],[0,-101]],[[501437,426523],[0,101]],[[501437,426624],[338,204],[7780,39967]],[[509555,466795],[47353,-26035]],[[747336,409641],[38728,38543],[13529,-1627],[23170,16272]],[[822763,462829],[10147,-14238],[-9302,-27052],[-9978,-14644]],[[774395,402929],[-10317,2745]],[[302384,492830],[1691,-42510]],[[304075,450320],[-2367,-37730],[-24353,-17797]],[[277355,394793],[-4059,15966],[-18265,-4576],[-61559,3864],[-18265,-4881]],[[175207,405166],[-3044,11288],[9301,18204],[3890,41086],[1184,12408]],[[186538,488152],[22155,11695]],[[208693,499847],[54625,5695],[22154,-7017],[3890,-22577],[13022,16882]],[[823101,831688],[-1015,-23695],[-845,-22374],[-10148,-10983],[14206,-22577]],[[825299,752059],[-1183,-6001]],[[824116,746058],[-13023,-2237],[-21816,31120],[-33655,-4882]],[[755622,770059],[3552,24001],[10993,12611]],[[770167,806671],[18772,12000],[3890,19221],[23169,6915],[7103,-13119]],[[698460,464964],[677,-37933],[7610,-9966]],[[706747,417065],[-14713,-25425],[-14883,2746],[-21139,-16780],[-1184,-25628]],[[654828,351978],[-17081,8237]],[[637747,360215],[-36868,29798],[-34670,-3560]],[[556908,440760],[22831,26340],[26721,7221],[32301,-6509]],[[638761,467812],[20633,-13526],[18434,14950],[20632,-4272]],[[765770,740567],[-8625,-4272],[1183,-32238]],[[758328,704057],[-36191,14441]],[[722137,718498],[-41434,-19526],[-37037,-3356]],[[643666,695616],[-8625,24713],[20125,4169],[-9302,13221]],[[645864,737719],[8287,12509],[28581,8543],[12515,-4373],[0,-509],[8963,-9254]],[[704210,744635],[16405,-407],[14544,18916],[16743,0]],[[751902,763144],[10654,-2441],[3214,-20136]],[[487738,582324],[508,204],[6764,5491]],[[495010,588019],[-7610,-38137],[-9301,-6508],[7610,-26238]],[[485709,517136],[-25706,-38341],[-19280,-5898],[-16742,-17085],[-14545,10271]],[[409436,466083],[-21309,21052],[17420,28170],[-19787,7831],[-21478,96308]],[[364282,619444],[24015,2848],[5073,18407],[22324,12204]],[[415694,652903],[-1691,-9967],[25198,13933],[16912,-20645],[-10316,-10678],[11331,-37527],[20632,-12203],[9978,6508]],[[907829,270111],[-12176,-21662],[3720,-6611],[3721,-34679],[-26213,-1729],[-27736,-29289],[-1015,-11593],[-24014,-22984]],[[786402,140140],[1860,28171]],[[788262,168311],[11839,48103]],[[800101,216414],[12514,31628],[-10147,11187]],[[802468,259229],[16912,17492],[31456,-610]],[[540165,880809],[12008,-8543]],[[552173,872266],[-8625,-14950],[-17758,3865],[-9301,-24713],[-13699,915],[-23846,-30001]],[[478944,807382],[-13191,-3050],[-26890,18000],[-1184,44646]],[[437679,866978],[21309,16373],[21647,-2441],[29258,20238]],[[509893,901148],[11331,-18509],[18941,-1830]],[[676306,278857],[8287,-16374],[-23339,-28984],[17589,-14746]],[[678843,218753],[-37714,-21255],[-2706,15356],[-29934,4984]],[[608489,217838],[6934,16882],[22324,25831],[338,23696]],[[638085,284247],[24860,-10475],[6258,15051]],[[669203,288823],[1522,102]],[[670725,288925],[5581,-10068]],[[706747,417065],[34839,-6611]],[[716049,278450],[-29934,12509]],[[686115,290959],[6426,32441],[-13191,-7525],[-23000,13221],[-1522,22882]],[[841366,858537],[17757,-4068],[11669,11898],[21309,-22271],[19618,-14340],[-5919,-37018],[-18772,-1220],[-10147,-35798],[-11331,-11289],[0,-915]],[[865550,743516],[-40251,8543]],[[823101,831688],[18265,26849]],[[755622,770059],[-3720,-6915]],[[704210,744635],[-1691,14237],[169,2848],[339,1424],[845,813],[-2368,1119],[339,509],[-2706,3050],[5073,3560],[3721,22272],[13529,16272]],[[721460,810739],[13530,-7323],[35177,3255]],[[999999,512152],[-1860,-12203],[-12853,-15865],[-6765,-10170],[-24353,-10678],[-12346,-24001]],[[941822,439235],[-6934,10068],[-27735,-9356],[-8625,12610]],[[898528,452557],[35346,18103],[-6089,9559],[31626,40476],[-2199,1424],[-2706,19221],[-12684,2949],[-3551,22069]],[[938271,566358],[12514,20848],[5750,12610],[16236,-22780],[14882,-56138],[12346,-8746]],[[716387,918742],[25706,3153],[-7103,-11289],[15390,-14746],[5412,-14034],[9132,-6001],[846,0],[1014,-2339],[30442,-813],[13022,4475],[16743,8542],[5411,-3051],[1692,4577],[7272,-28679]],[[721460,810739],[-12176,-4475],[-24691,8339],[-21817,19933]],[[662776,834536],[6427,20950],[18095,7322],[1692,1526],[0,101],[0,305],[0,102],[0,102],[3382,3661]],[[692372,868605],[4228,-24509],[20294,8441],[12853,10068],[-18603,29696]],[[711144,892301],[-13868,5491],[0,1627],[19111,19323]],[[409436,466083],[0,-2644],[6765,-12712],[-13022,-21459]],[[403179,429268],[-5243,6407],[-8456,15052],[-18264,1830]],[[371216,452557],[-67141,-2237]],[[302384,492830],[6089,16373],[17588,3255],[-19787,18407],[6934,19017]],[[313208,549882],[8625,12103],[-14544,26746],[4904,25221]],[[312193,613952],[52089,5492]],[[427701,759483],[-5242,-37019],[15389,-12102],[11500,-24204],[-39912,-12916]],[[409436,673242],[-27397,24611],[6427,11797],[-14375,15052],[-21648,-1526]],[[352443,723176],[-3551,21052],[-11838,8949]],[[337054,753177],[-16236,22476],[18772,24611],[-22831,7830],[11839,32137]],[[328598,840231],[33485,12814]],[[362083,853045],[13868,-9661],[35684,-62443],[16066,-21458]],[[692372,868605],[18772,23696]],[[576187,669988],[170,0]],[[576357,669988],[-25706,-15865],[-26721,9051],[1015,21357],[-12008,8746]],[[512937,693277],[18772,34272]],[[531709,727549],[19111,-18102],[23000,-9458],[2367,-30001]],[[608151,885080],[-6934,-19933],[-1353,-55629],[14883,-75053],[31117,3254]],[[643666,695616],[-26383,-11593]],[[617283,684023],[-23169,3356],[21140,18712],[-29427,16984],[-2706,28679]],[[583121,751754],[10147,4271],[-4397,20543],[9302,6204],[-9809,33458],[-14375,6204],[23507,23696],[-2875,23288],[-11331,4984],[339,5288],[-1522,102]],[[582107,879792],[14544,8136],[11500,-2848]],[[722137,556391],[-10824,-28984],[-16912,-19628],[-20970,-7525],[25029,-35290]],[[638761,467812],[-16742,39967],[6595,30713]],[[628614,538492],[18096,-4983],[2368,17594],[49044,10475],[16574,10780],[7441,-15967]],[[637747,360215],[1691,-22170]],[[639438,338045],[0,-814]],[[639438,337231],[0,814]],[[639438,338045],[-22324,-16780]],[[617114,321265],[-18772,3254],[-5412,-20746],[-20632,-1119]],[[572298,302654],[3382,17390],[-30272,-11593]],[[545408,308451],[12007,53086]],[[639438,337231],[169,-101],[-3213,-22069],[32809,-26238]],[[638085,284247],[-16405,17492]],[[621680,301739],[-4566,19526]],[[429223,871452],[8456,-4474]],[[478944,807382],[1861,-7322]],[[480805,800060],[-17251,-22373],[-31963,3864],[14206,-14441],[-18096,-7627]],[[362083,853045],[2706,6610],[64434,11797]],[[617283,684023],[-10316,-17086],[15390,-16475],[-17250,-23289]],[[605107,627173],[-14883,10068]],[[590224,637241],[-13867,32747]],[[531709,727549],[10147,19425],[-8625,19627]],[[533231,766601],[50398,-2135],[-508,-12712]],[[409436,673242],[6258,-20339]],[[312193,613952],[11669,35595],[14545,4576],[-5243,20442],[12853,6101],[4228,29290],[2198,13220]],[[686115,290959],[-15390,-2034]],[[742769,993897],[508,-7424],[-1522,-3559],[-15221,-17289],[-24691,-35798],[14544,-11085]],[[662776,834536],[-21816,15255],[-6427,20746],[-11161,5288]],[[623372,875825],[4566,18611],[23000,-9763],[16066,9967],[5243,50950],[-15052,10475],[-29765,17391],[21140,13627],[22493,-4474],[33316,14136],[12177,-12509],[6427,15763],[19786,-6102]],[[337054,753177],[-14714,-27153],[-42279,-20136],[338,14746],[-19787,-4882],[-17758,26747]],[[242854,742499],[10655,45154],[10993,21763],[-18603,22272],[4735,7831],[23169,-813],[5243,16271],[14882,9560],[34670,-24306]],[[489091,951489],[5243,-2543],[15559,-47798]],[[429223,871452],[508,2238],[845,31323],[-11331,10780],[9978,24306],[58515,16271],[1353,-4881]],[[608489,217838],[-28243,-3051],[-1014,21661]],[[579232,236448],[13022,36714],[29426,28577]],[[822763,462829],[22661,29391],[5920,5593],[27566,20746],[20802,712],[26889,31323],[6089,16984],[5581,-1220]],[[898528,452557],[-17250,-15763],[-26214,-305],[-29088,-33154]],[[480466,420116],[-27566,-5797],[-25875,8237],[-16912,-5085],[-6934,11797]],[[485709,517136],[0,-14950],[18096,-1424],[12007,-29085],[-6257,-4882]],[[797902,259941],[4566,-712]],[[800101,216414],[-17420,712],[2030,16678],[-14883,509],[-22831,18102]],[[746997,252415],[14206,7221],[36699,305]],[[736174,266043],[10823,-13628]],[[788262,168311],[-21309,7830],[-10147,-21763],[-31794,-4780]],[[725012,149598],[-19618,10475]],[[705394,160073],[4059,16373],[-34500,22171],[7779,17492],[-3889,2644]],[[208693,499847],[-10148,41493],[17927,22068]],[[216472,563408],[31963,-2847],[16236,-14645],[27397,-2440],[15390,20237],[5750,-13831]],[[941822,439235],[-3044,-2441],[-6934,-15662],[-7272,-9661],[-29257,-305],[-4905,-23797],[-34162,4169],[-15897,-21560]],[[581768,879792],[339,0]],[[533231,766601],[-8963,13526],[-27228,-6203],[-16235,26136]],[[552173,872266],[29595,7526]],[[765262,698159],[-9978,-8645],[-10993,-33357],[6089,-14644],[-42280,-19526]],[[708100,621987],[-10993,11593],[-5411,-15966],[-44648,-16272],[338,11593],[-12345,4780]],[[635041,617715],[8794,23798],[37883,9559],[9301,13730],[-12346,12814],[41265,30916],[2199,9966]],[[758328,704057],[6934,-5898]],[[512937,693277],[-23507,-30713],[3720,-12814],[-27059,-15356],[16066,-24916],[5581,-27154]],[[620327,872673],[3045,3152]],[[608151,885080],[2537,-305],[9639,-12102]],[[865550,743516],[6426,-13526],[-21478,-22475],[6088,-25120],[15390,-1932],[-12176,-16068],[-30273,-3966],[2537,10068],[-23338,-1221],[15220,6509],[-20294,14644],[4397,16272]],[[808049,706701],[26214,28272],[-10147,11085]],[[635041,617715],[-23000,-7525]],[[612041,610190],[-6934,16983]],[[808049,706701],[-42787,-8542]],[[708100,621885],[-9471,-13424],[13361,-4272],[34669,18713],[18265,18916],[-1860,-18103],[-10824,-8949],[-7610,-18712],[-16574,-12713],[7610,-31221],[-13529,4271]],[[628614,538492],[-1184,28781],[-15389,42917]],[[708100,621987],[0,-102]],[[216472,563408],[1860,9865],[-27735,18306]],[[190597,591579],[-15052,25628],[-9640,18102],[31118,33255],[4059,23798],[14206,5695],[27566,44442]],[[695754,160988],[9640,-915]],[[725012,149598],[-7610,-13729],[-22324,5390],[-16743,-17187],[4905,-15357],[-9640,-16678]],[[673600,92037],[-22831,25221],[-11331,13323]],[[639438,130581],[25875,7729],[30441,22678]],[[667681,69257],[20632,-2238],[4566,-16068]],[[706240,18509],[-7780,-8746],[-15389,10780],[-18265,-20543],[-27736,2848],[338,30306],[24015,305],[-6934,34272],[13192,1526]],[[186538,488152],[-20971,1423],[5074,19628],[-25875,-1118],[-22155,-33154],[-17757,15153],[-35515,-9763],[-16912,-22374],[-13022,23493],[-26552,10576]],[[12853,492016],[3890,34374],[49552,12509],[53779,22780],[5412,-6813],[27059,23187],[38052,13526]],[[590224,637241],[-39912,-12814],[7103,-12102],[-14713,-10983],[-1015,20136],[-24184,1831],[-338,-29391],[-22155,-5899]],[[175207,405166],[-13868,-17289]],[[161339,387877],[-15897,14238],[-11669,-14340],[-21816,-8339],[-28074,13526],[-29596,-8034],[-39405,4271],[-14713,-16068]],[[169,373131],[12515,117156],[169,1729]],[[667681,69257],[5919,22780]],[[639438,130581],[-9302,-11492],[-10485,9966],[14037,12102],[-30611,6407],[-13698,6509]],[[589379,154073],[-508,29187],[-24014,24306]],[[564857,207566],[5750,7831],[-20295,21051],[-1353,3051]],[[548959,239499],[30273,-3051]],[[504481,154276],[-16912,-40882],[-13191,2644],[-26721,33052],[16574,7627],[19618,14034]],[[483849,170751],[20632,-16475]],[[503974,249262],[6426,-17187],[-1522,-34577],[15728,-12102]],[[524606,185396],[11331,-11085],[-8287,-9967]],[[527650,164344],[-23169,-10068]],[[483849,170751],[-23000,28171],[27059,10068],[-846,29289],[-7949,7627]],[[479113,245906],[24861,3356]],[[487062,324824],[58346,-16373]],[[572298,302654],[-24861,-2339],[-13867,-14950],[5073,-42916]],[[538643,242449],[-34669,6813]],[[479113,245906],[-15897,14645],[-7610,-7729],[-4397,-40273],[-10993,-5390],[1522,24205],[-19279,-16679],[-1692,18407]],[[420767,233092],[-169,30713],[34331,-2746],[2199,22069],[-5243,16373],[17250,9560],[6258,19018]],[[589379,154073],[-13699,3864],[-7948,-15254],[-10317,6407],[-29765,15254]],[[524606,185396],[17589,-3865],[22662,26035]],[[398782,385843],[-13360,-34272],[13022,-17187],[-14545,-2136]],[[383899,332248],[-19110,-24814]],[[364789,307434],[-7610,1729]],[[357179,309163],[-11500,3457]],[[345679,312620],[-6934,20747],[-41265,28882]],[[297480,362249],[46677,-5593],[6933,7424]],[[351090,364080],[2030,-12102],[18772,8847],[-4397,23696],[24184,15255]],[[391679,399776],[7103,-13933]],[[278877,364385],[18603,-2136]],[[345679,312620],[-16236,-18102]],[[329443,294518],[-26551,-19221]],[[302892,275297],[-26214,27866]],[[276678,303163],[-845,24102],[-10317,5797],[11670,32035]],[[277186,365097],[1691,-712]],[[357179,309163],[12684,-12814],[-12853,-12611]],[[357010,283738],[-27567,10780]],[[357010,283738],[6257,-6915]],[[363267,276823],[-43802,-17899]],[[319465,258924],[-16573,16373]],[[161339,387877],[4059,-10983],[-21985,-1831],[-846,-19831],[16405,1424],[-1861,-16170],[24015,-9763],[4059,-9763]],[[185185,320960],[-62574,-16374],[-16066,19526],[-20971,-4576],[-11669,-2644],[-36022,30814],[-28581,32951],[-9302,-9458],[169,1932]],[[277355,394793],[-10147,-407],[11669,-30001]],[[277186,365097],[-2875,407],[-24184,0],[-8964,11797],[-23507,-15052],[1691,-32238],[-11162,-15153]],[[208185,314858],[-19110,-2136]],[[189075,312722],[-3890,8238]],[[237104,230245],[24184,-6000],[3214,-14238],[10992,-17899],[11839,9560],[2029,-3051],[12853,-9051]],[[302215,189566],[12346,13932],[9978,-18102],[-12346,-7831],[20294,-25323]],[[332487,152242],[-18434,-8237],[-38728,-43832],[-23676,-1729],[7610,41595],[-22155,-611],[-7948,11391],[-1353,2440],[-1860,15662],[-25537,1118],[5242,27459],[15559,17187],[2030,15763]],[[223237,230448],[13867,-203]],[[208185,314858],[22324,-13628],[31287,-7831],[14882,9764]],[[319465,258924],[-15897,-2543],[15897,-18204]],[[319465,238177],[-8287,-28882],[-18095,-5695],[9132,-14034]],[[223237,230448],[-24523,51358],[-17080,24102],[7441,6814]],[[366142,272246],[-8625,-8441],[21478,-21255]],[[378995,242550],[-17757,3458],[-17758,-8543],[-24015,712]],[[363267,276823],[2875,-4577]],[[378995,242550],[3552,-4373]],[[382547,238177],[-25030,-19221],[-13868,-21356],[-1522,-36612],[-9640,-8746]],[[371216,452557],[0,-21458]],[[371216,431099],[-12853,-10475],[-23001,-610],[15728,-55934]],[[436834,328689],[-52935,3559]],[[398782,385843],[507,-203],[1522,102],[10147,4169],[14883,-26848],[25537,7831],[-14544,-42205]],[[548959,239499],[-10316,2950]],[[371216,431099],[9978,0],[10485,-31323]],[[463385,328689],[-26551,0]],[[364789,307434],[38390,-5390],[-11669,-9967],[-7949,-29594],[-17419,9763]],[[420767,233092],[-25367,6204],[-12853,-1119]]],"transform":{"scale":[0.0000018742786713716603,0.0000017883036454473601],"translate":[-99.85950460606357,19.601105721076692]},"objects":{"municipalities":{"type":"GeometryCollection","geometries":[{"arcs":[[0,1,2,3,4,5,6]],"type":"Polygon","properties":{"cvegeo":"13035","nombre":"Metepec"}},{"arcs":[[7,8]],"type":"Polygon","properties":{"cvegeo":"13007","nombre":"Almoloya"}},{"arcs":[[9,-9,10,11,12,13]],"type":"Polygon","properties":{"cvegeo":"13008","nombre":"Apan"}},{"arcs":[[14,15,16,17,-5,18,19,20]],"type":"Polygon","properties":{"cvegeo":"13001","nombre":"Acatlán"}},{"arcs":[[21,22,23,-3]],"type":"Polygon","properties":{"cvegeo":"13002","nombre":"Acaxochitlán"}},{"arcs":[[24,25,26,27,28,29,30,31,32,33,34,35]],"type":"Polygon","properties":{"cvegeo":"13003","nombre":"Actopan"}},{"arcs":[[36,37,-6,-18,38,-16]],"type":"Polygon","properties":{"cvegeo":"13004","nombre":"Agua Blanca de Iturbide"}},{"arcs":[[39,40,41,42,43,44]],"type":"Polygon","properties":{"cvegeo":"13006","nombre":"Alfajayucan"}},{"arcs":[[45,46,47,48,49]],"type":"Polygon","properties":{"cvegeo":"13011","nombre":"Atlapexco"}},{"arcs":[[50,51,52,53,-25,54,55]],"type":"Polygon","properties":{"cvegeo":"13012","nombre":"Atotonilco el Grande"}},{"arcs":[[56,57,58,59,60,61,62]],"type":"Polygon","properties":{"cvegeo":"13014","nombre":"Calnali"}},{"arcs":[[63,64,65,66,67,68]],"type":"Polygon","properties":{"cvegeo":"13015","nombre":"Cardonal"}},{"arcs":[[69,-14,70,71,72,73,-23]],"type":"Polygon","properties":{"cvegeo":"13016","nombre":"Cuautepec de Hinojosa"}},{"arcs":[[74,75,76,77,78]],"type":"Polygon","properties":{"cvegeo":"13018","nombre":"Chapulhuacán"}},{"arcs":[[79,80,81,82,83,84]],"type":"Polygon","properties":{"cvegeo":"13022","nombre":"Epazoyucan"}},{"arcs":[[85,-21,86,87,-52]],"type":"Polygon","properties":{"cvegeo":"13024","nombre":"Huasca de Ocampo"}},{"arcs":[[88,89,-46,90]],"type":"Polygon","properties":{"cvegeo":"13025","nombre":"Huautla"}},{"arcs":[[-49,91,-62,92,93]],"type":"Polygon","properties":{"cvegeo":"13026","nombre":"Huazalingo"}},{"arcs":[[94,95,96,97]],"type":"Polygon","properties":{"cvegeo":"13027","nombre":"Huehuetla"}},{"arcs":[[98,-91,-50,-94,99,100,101,102]],"type":"Polygon","properties":{"cvegeo":"13028","nombre":"Huejutla de Reyes"}},{"arcs":[[-67,103,104,105,-40,106,107,108]],"type":"Polygon","properties":{"cvegeo":"13030","nombre":"Ixmiquilpan"}},{"arcs":[[109,110,111,112,113,114]],"type":"Polygon","properties":{"cvegeo":"13031","nombre":"Jacala de Ledezma"}},{"arcs":[[-102,115]],"type":"Polygon","properties":{"cvegeo":"13032","nombre":"Jaltocán"}},{"arcs":[[116,117,118,119]],"type":"Polygon","properties":{"cvegeo":"13033","nombre":"Juárez Hidalgo"}},{"arcs":[[120,-60,121,122,123,124]],"type":"Polygon","properties":{"cvegeo":"13034","nombre":"Lolotla"}},{"arcs":[[125,-56,126,127]],"type":"Polygon","properties":{"cvegeo":"13036","nombre":"San Agustín Metzquititlán"}},{"arcs":[[128,129,130,131,132,133,134,-26,-54]],"type":"Polygon","properties":{"cvegeo":"13038","nombre":"Mineral del Chico"}},{"arcs":[[-131,135,-83,136,137,-132]],"type":"Polygon","properties":{"cvegeo":"13039","nombre":"Mineral del Monte"}},{"arcs":[[138,-77,139,140,-115,141]],"type":"Polygon","properties":{"cvegeo":"13040","nombre":"La Misión"}},{"arcs":[[-123,142,143,144,-117,-120,145,146]],"type":"Polygon","properties":{"cvegeo":"13042","nombre":"Molango de Escamilla"}},{"arcs":[[147,-68,-109,148,-111]],"type":"Polygon","properties":{"cvegeo":"13043","nombre":"Nicolás Flores"}},{"arcs":[[-88,149,-84,-136,-130,-129,-53]],"type":"Polygon","properties":{"cvegeo":"13045","nombre":"Omitlán de Juárez"}},{"arcs":[[150,-103,-116,-101,151,152]],"type":"Polygon","properties":{"cvegeo":"13046","nombre":"San Felipe Orizatlán"}},{"arcs":[[-113,153,154]],"type":"Polygon","properties":{"cvegeo":"13047","nombre":"Pacula"}},{"arcs":[[155,-78,-139,156]],"type":"Polygon","properties":{"cvegeo":"13049","nombre":"Pisaflores"}},{"arcs":[[-82,157,158,-137]],"type":"Polygon","properties":{"cvegeo":"13051","nombre":"Mineral de la Reforma"}},{"arcs":[[159,-97,160,-7,-38]],"type":"Polygon","properties":{"cvegeo":"13053","nombre":"San Bartolo Tutotepec"}},{"arcs":[[-35,-34,-33,-32,-31,161,-104,-66,162]],"type":"Polygon","properties":{"cvegeo":"13055","nombre":"Santiago de Anaya"}},{"arcs":[[163,-73,164,165]],"type":"Polygon","properties":{"cvegeo":"13056","nombre":"Santiago Tulantepec de Lugo Guerrero"}},{"arcs":[[-87,-20,166,-165,-72,167,168,169,-80,-85,-150]],"type":"Polygon","properties":{"cvegeo":"13057","nombre":"Singuilucan"}},{"arcs":[[-107,-45,170,171]],"type":"Polygon","properties":{"cvegeo":"13058","nombre":"Tasquillo"}},{"arcs":[[172,-1,-161,-96]],"type":"Polygon","properties":{"cvegeo":"13060","nombre":"Tenango de Doria"}},{"arcs":[[173,-124,-147,174,-140,-76,175]],"type":"Polygon","properties":{"cvegeo":"13062","nombre":"Tepehuacán de Guerrero"}},{"arcs":[[176,177,178,-58,179]],"type":"Polygon","properties":{"cvegeo":"13068","nombre":"Tianguistengo"}},{"arcs":[[-175,-146,-119,180,-69,-148,-110,-141]],"type":"Polygon","properties":{"cvegeo":"13071","nombre":"Tlahuiltepa"}},{"arcs":[[181,-152,-100,-93,-61,-121,182]],"type":"Polygon","properties":{"cvegeo":"13073","nombre":"Tlanchinol"}},{"arcs":[[-24,-74,-164,-166,-167,-19,-4]],"type":"Polygon","properties":{"cvegeo":"13077","nombre":"Tulancingo de Bravo"}},{"arcs":[[183,184,-47,-90]],"type":"Polygon","properties":{"cvegeo":"13078","nombre":"Xochiatipan"}},{"arcs":[[-179,185,186,-143,-122,-59]],"type":"Polygon","properties":{"cvegeo":"13079","nombre":"Xochicoatlán"}},{"arcs":[[187,-180,-57,-63,-92,-48,-185]],"type":"Polygon","properties":{"cvegeo":"13080","nombre":"Yahualica"}},{"arcs":[[188,-128,189,-186,-178,190]],"type":"Polygon","properties":{"cvegeo":"13081","nombre":"Zacualtipán de Ángeles"}},{"arcs":[[-149,-108,-172,191,192,-154,-112]],"type":"Polygon","properties":{"cvegeo":"13084","nombre":"Zimapán"}},{"arcs":[[193,-169,194,195,196]],"type":"Polygon","properties":{"cvegeo":"13072","nombre":"Tlanalapa"}},{"arcs":[[197,-12,198]],"type":"Polygon","properties":{"cvegeo":"13021","nombre":"Emiliano Zapata"}},{"arcs":[[-171,-44,199,200,-192]],"type":"Polygon","properties":{"cvegeo":"13059","nombre":"Tecozautla"}},{"arcs":[[-145,201,-64,-181,-118]],"type":"Polygon","properties":{"cvegeo":"13020","nombre":"Eloxochitlán"}},{"arcs":[[-187,-190,-127,-55,-36,-163,-65,-202,-144]],"type":"Polygon","properties":{"cvegeo":"13037","nombre":"Metztitlán"}},{"arcs":[[-43,202,203,204,-200]],"type":"Polygon","properties":{"cvegeo":"13029","nombre":"Huichapan"}},{"arcs":[[-71,-13,-198,205,-195,-168]],"type":"Polygon","properties":{"cvegeo":"13061","nombre":"Tepeapulco"}},{"arcs":[[-158,-81,-170,-194,-197,206,207,208,209]],"type":"Polygon","properties":{"cvegeo":"13083","nombre":"Zempoala"}},{"arcs":[[210,211]],"type":"Polygon","properties":{"cvegeo":"13069","nombre":"Tizayuca"}},{"arcs":[[212,213,214,-212,215,216]],"type":"Polygon","properties":{"cvegeo":"13075","nombre":"Tolcayuca"}},{"arcs":[[217,-134,218,219,-217,220,221,-28]],"type":"Polygon","properties":{"cvegeo":"13052","nombre":"San Agustín Tlaxiaca"}},{"arcs":[[-208,222,-214,223]],"type":"Polygon","properties":{"cvegeo":"13066","nombre":"Villa de Tezontepec"}},{"arcs":[[224,225,226,227,228,229,230,231]],"type":"Polygon","properties":{"cvegeo":"13041","nombre":"Mixquiahuala de Juárez"}},{"arcs":[[232,-229,233,234,235,236,237]],"type":"Polygon","properties":{"cvegeo":"13067","nombre":"Tezontepec de Aldama"}},{"arcs":[[238,239,-234,-228]],"type":"Polygon","properties":{"cvegeo":"13070","nombre":"Tlahuelilpan"}},{"arcs":[[240,241,242,-235,-240]],"type":"Polygon","properties":{"cvegeo":"13074","nombre":"Tlaxcoapan"}},{"arcs":[[243,244,-204]],"type":"Polygon","properties":{"cvegeo":"13044","nombre":"Nopala de Villagrán"}},{"arcs":[[245,-238,246,247,248,-244,-203,-42]],"type":"Polygon","properties":{"cvegeo":"13017","nombre":"Chapantongo"}},{"arcs":[[249,250,251,252]],"type":"Polygon","properties":{"cvegeo":"13063","nombre":"Tepeji del Río de Ocampo"}},{"arcs":[[253,-236,-243,254,255,-250,-253,256,-248]],"type":"Polygon","properties":{"cvegeo":"13076","nombre":"Tula de Allende"}},{"arcs":[[257,258,-255,-242,259]],"type":"Polygon","properties":{"cvegeo":"13010","nombre":"Atitalaquia"}},{"arcs":[[-259,260,261,-251,-256]],"type":"Polygon","properties":{"cvegeo":"13013","nombre":"Atotonilco de Tula"}},{"arcs":[[-247,-237,-254]],"type":"Polygon","properties":{"cvegeo":"13064","nombre":"Tepetitlán"}},{"arcs":[[-135,-218,-27]],"type":"Polygon","properties":{"cvegeo":"13009","nombre":"El Arenal"}},{"arcs":[[262,263,-230,-233,-246,-41,-106]],"type":"Polygon","properties":{"cvegeo":"13019","nombre":"Chilcuautla"}},{"arcs":[[264,-225,265]],"type":"Polygon","properties":{"cvegeo":"13023","nombre":"Francisco I. Madero"}},{"arcs":[[-138,-159,-210,266,-219,-133]],"type":"Polygon","properties":{"cvegeo":"13048","nombre":"Pachuca de Soto"}},{"arcs":[[-231,-264,267]],"type":"Polygon","properties":{"cvegeo":"13050","nombre":"Progreso de Obregón"}},{"arcs":[[-105,-162,-30,268,-266,-232,-268,-263]],"type":"Polygon","properties":{"cvegeo":"13054","nombre":"San Salvador"}},{"arcs":[[-267,-209,-224,-213,-220]],"type":"Polygon","properties":{"cvegeo":"13082","nombre":"Zapotlán de Juárez"}},{"arcs":[[269,-260,-241,-239,-227]],"type":"Polygon","properties":{"cvegeo":"13065","nombre":"Tetepango"}},{"arcs":[[-269,-29,-222,270,-261,-258,-270,-226,-265]],"type":"Polygon","properties":{"cvegeo":"13005","nombre":"Ajacuba"}}]}}}