{"type":"FeatureCollection", "features": [
{"type":"Feature","geometry":{"type":"Polygon","coordinates":[[[-99.101,19.2999],[-99.2056,19.3058],[-99.2059,19.3058],[-99.2202,19.3121],[-99.2433,19.2917],[-99.2481,19.2466],[-99.2772,19.2146],[-99.3159,19.2274],[-99.3137,19.219],[-99.307,19.2108],[-99.2791,19.1317],[-99.2271,19.0961],[-99.1365,19.0893],[-99.1637,19.1175],[-99.1498,19.1597],[-99.1301,19.1526],[-99.1292,19.203],[-99.1526,19.2203],[-99.1412,19.2821],[-99.101,19.2999]]]},"properties":{"cvegeo":"09012","nombre":"Tlalpan"}},
{"type":"Feature","geometry":{"type":"Polygon","coordinates":[[[-99.101,19.2999],[-99.1412,19.2821],[-99.1526,19.2203],[-99.1292,19.203],[-99.1301,19.1526],[-99.1048,19.1985],[-99.095,19.2114],[-99.0303,19.2235],[-99.0072,19.2516],[-99.069,19.2848],[-99.0994,19.3205],[-99.101,19.2999]]]},"properties":{"cvegeo":"09013","nombre":"Xochimilco"}},
{"type":"Feature","geometry":{"type":"Polygon","coordinates":[[[-99.2202,19.3121],[-99.2084,19.3359],[-99.2547,19.3268],[-99.2861,19.2707],[-99.3222,19.2325],[-99.3159,19.2274],[-99.2772,19.2146],[-99.2481,19.2466],[-99.2433,19.2917],[-99.2202,19.3121]]]},"properties":{"cvegeo":"09008","nombre":"La Magdalena Contreras"}},
{"type":"Feature","geometry":{"type":"Polygon","coordinates":[[[-99.1574,19.5029],[-99.2046,19.5149],[-99.2138,19.4971],[-99.2069,19.4711],[-99.1637,19.4563],[-99.1435,19.4651],[-99.1574,19.5029]]]},"properties":{"cvegeo":"09002","nombre":"Azcapotzalco"}},
{"type":"Feature","geometry":{"type":"Polygon","coordinates":[[[-99.1717,19.3594],[-99.14,19.3569],[-99.1355,19.3772],[-99.1365,19.4027],[-99.1704,19.3996],[-99.1894,19.3956],[-99.1717,19.3594]]]},"properties":{"cvegeo":"09014","nombre":"Benito Juárez"}},
{"type":"Feature","geometry":{"type":"Polygon","coordinates":[[[-99.1637,19.4563],[-99.1843,19.4078],[-99.1704,19.3996],[-99.1365,19.4027],[-99.1257,19.4043],[-99.1222,19.4596],[-99.1435,19.4651],[-99.1637,19.4563]]]},"properties":{"cvegeo":"09015","nombre":"Cuauhtémoc"}},
{"type":"Feature","geometry":{"type":"Polygon","coordinates":[[[-99.1894,19.3956],[-99.2477,19.386],[-99.2604,19.3479],[-99.2598,19.3479],[-99.3032,19.3108],[-99.3111,19.3067],[-99.3244,19.2325],[-99.3222,19.2325],[-99.2861,19.2707],[-99.2547,19.3268],[-99.2084,19.3359],[-99.2202,19.3121],[-99.2059,19.3058],[-99.2056,19.3058],[-99.1717,19.3594],[-99.1894,19.3956]]]},"properties":{"cvegeo":"09010","nombre":"Álvaro Obregón"}},
{"type":"Feature","geometry":{"type":"Polygon","coordinates":[[[-99.1181,19.5906],[-99.1238,19.5927],[-99.1438,19.5724],[-99.1764,19.532],[-99.1574,19.5029],[-99.1435,19.4651],[-99.1222,19.4596],[-99.0512,19.45],[-99.0642,19.4987],[-99.0905,19.5093],[-99.1308,19.536],[-99.1127,19.5731],[-99.1181,19.5906]]]},"properties":{"cvegeo":"09005","nombre":"Gustavo A. Madero"}},
{"type":"Feature","geometry":{"type":"Polygon","coordinates":[[[-99.256,19.4034],[-99.3292,19.3521],[-99.3565,19.3032],[-99.3653,19.2777],[-99.3393,19.2676],[-99.3244,19.2325],[-99.3111,19.3067],[-99.3032,19.3108],[-99.2598,19.3479],[-99.2604,19.3479],[-99.2477,19.386],[-99.256,19.4034]]]},"properties":{"cvegeo":"09004","nombre":"Cuajimalpa de Morelos"}},
{"type":"Feature","geometry":{"type":"Polygon","coordinates":[[[-99.1637,19.4563],[-99.2069,19.4711],[-99.2088,19.4698],[-99.2398,19.4121],[-99.256,19.4034],[-99.2477,19.386],[-99.1894,19.3956],[-99.1704,19.3996],[-99.1843,19.4078],[-99.1637,19.4563]]]},"properties":{"cvegeo":"09016","nombre":"Miguel Hidalgo"}},
{"type":"Feature","geometry":{"type":"Polygon","coordinates":[[[-99.0557,19.4221],[-99.1257,19.4043],[-99.1365,19.4027],[-99.1355,19.3772],[-99.061,19.3823],[-99.0582,19.4007],[-99.0557,19.4221]]]},"properties":{"cvegeo":"09006","nombre":"Iztacalco"}},
{"type":"Feature","geometry":{"type":"Polygon","coordinates":[[[-99.1717,19.3594],[-99.2056,19.3058],[-99.101,19.2999],[-99.0994,19.3205],[-99.14,19.3569],[-99.1717,19.3594]]]},"properties":{"cvegeo":"09003","nombre":"Coyoacán"}},
{"type":"Feature","geometry":{"type":"Polygon","coordinates":[[[-99.0512,19.45],[-99.1222,19.4596],[-99.1257,19.4043],[-99.0557,19.4221],[-99.0512,19.45]]]},"properties":{"cvegeo":"09017","nombre":"Venustiano Carranza"}},
{"type":"Feature","geometry":{"type":"Polygon","coordinates":[[[-98.9606,19.3254],[-99.0015,19.327],[-99.0544,19.3116],[-99.069,19.2848],[-99.0072,19.2516],[-99.0303,19.2235],[-98.9685,19.2106],[-98.946,19.2248],[-98.9767,19.253],[-98.9606,19.3254]]]},"properties":{"cvegeo":"09011","nombre":"Tláhuac"}},
{"type":"Feature","geometry":{"type":"Polygon","coordinates":[[[-99.0582,19.4007],[-99.061,19.3823],[-99.1355,19.3772],[-99.14,19.3569],[-99.0994,19.3205],[-99.069,19.2848],[-99.0544,19.3116],[-99.0015,19.327],[-98.9606,19.3254],[-98.9745,19.337],[-98.9919,19.3676],[-99.0582,19.4007]]]},"properties":{"cvegeo":"09007","nombre":"Iztapalapa"}},
{"type":"Feature","geometry":{"type":"Polygon","coordinates":[[[-98.9685,19.2106],[-99.0303,19.2235],[-99.095,19.2114],[-99.1048,19.1985],[-99.1301,19.1526],[-99.1498,19.1597],[-99.1637,19.1175],[-99.1365,19.0893],[-99.1355,19.0893],[-99.1254,19.0621],[-99.062,19.0488],[-99.0293,19.0851],[-98.9789,19.0742],[-98.9577,19.1224],[-98.9552,19.1739],[-98.9685,19.2106]]]},"properties":{"cvegeo":"09009","nombre":"Milpa Alta"}}
]}