{"type":"Topology","arcs":[[[545799,737054],[11080,-2264],[-3036,-58291],[-2959,-31975]],[[550884,644524],[-76,0],[-5540,-13441],[-16544,9126],[-9866,-4669],[-5464,8701],[4326,7923],[-2884,18817],[-6223,-8418],[6754,-7145],[-13660,-4669],[-3339,12521]],[[498368,663270],[-2884,34593]],[[495484,697863],[10093,6367],[-4857,30560]],[[500720,734790],[6679,637],[8727,11177],[15861,-2901],[-3187,7216],[14343,-6225],[-19124,-11602],[-5464,3113],[4629,-15280],[5540,6861],[5160,-7144],[9031,5164],[2884,11248]],[[611140,770302],[152,-2830],[-76,-12592],[-6754,708],[3339,-13583],[4326,8631],[10776,3961],[683,-11177],[-9942,-12379],[-6450,2405],[-7817,-13370],[4250,-9480],[-12370,-11318],[6375,-37210],[8879,-2193],[5767,-22850]],[[612278,637025],[-759,-1273]],[[611519,635752],[-11231,2759],[-21173,18110],[-8272,-2193],[379,-7782]],[[571222,646646],[-12598,10753],[8348,1485],[4629,23770],[-151,20797],[12597,24548],[-4174,0],[11308,21717],[-6299,25255]],[[584882,774971],[15330,6933],[10928,-11602]],[[571222,646646],[379,-29923],[-6071,-1486]],[[565530,615237],[1290,7428],[-9410,707],[-1138,22850],[-5388,-1698]],[[545799,737054],[7892,13865],[9335,-17473],[8348,15634],[-1594,19878],[15102,6013]],[[744858,510540],[-987,-13158],[11611,1203],[7286,-19030],[20945,-19312],[5388,-9055],[-227,-11602],[-15102,-16624]],[[773772,422962],[2352,21718],[-9106,21930],[-7589,-425],[-9335,-13441],[1746,-21364],[-2201,-8984],[14115,-3678],[8955,-9267]],[[772709,409451],[-9865,-26245]],[[762844,383206],[-2657,-1981]],[[760187,381225],[-9030,16341],[-7893,36078],[-9790,-2759],[-4401,11673],[-8879,-5518],[-12674,9762],[-379,10823],[-12902,-2193]],[[694239,455432],[835,14432]],[[695074,469864],[3187,18888],[-3263,30984]],[[694998,519736],[12294,-2829],[3643,283],[4478,7923],[15177,6791]],[[730590,531904],[12674,-9975],[1594,-11389]],[[650603,496321],[11307,-20020],[3567,-19171]],[[665477,457130],[-6602,-4952],[759,-16553],[-4630,-30348],[-6147,-8418],[3112,-33178]],[[651969,363681],[-1215,-18322],[-8651,-3466],[-8879,-2335],[-17303,13229],[-5540,-10116]],[[610381,342671],[-8272,3608],[0,9125],[-11611,-1132],[-2201,-19595],[-18896,-1132]],[[569401,333545],[-11460,27872],[4705,12451],[-8044,-3962],[-10321,4174],[-2125,-9621],[-8196,2335],[-6071,18463],[-13888,27236],[-2504,10257]],[[511497,422750],[-607,16341],[9334,14431],[11156,-1344],[2808,8277],[14647,1627],[-1518,16200]],[[547317,478282],[7285,1203],[5692,-31551],[12749,5376],[12067,17261],[1138,12451],[11004,-142],[1139,12521],[12445,3537]],[[610836,498938],[29446,4386],[10321,-7003]],[[508234,798033],[-10549,-9268],[-5920,15988],[-5919,-5235],[-3719,18605],[-5160,5235],[-4402,-10399],[-3870,9621]],[[468695,822580],[9866,9408],[6298,14219],[16620,11885],[3112,10399]],[[504591,868491],[2125,-11036],[14646,-14289],[1746,-9692],[-9866,-2759],[6147,-17049],[-7437,-3749],[-3718,-11884]],[[565530,615237],[3036,-2759],[-2429,-34946]],[[566137,577532],[152,141]],[[566289,577673],[-14571,-17897],[-5236,-13017],[5009,-6437],[-10625,-5447],[-6375,-10470],[9790,-6791],[-11459,-10328],[3718,-22779],[10777,-6225]],[[511497,422750],[-5844,-1273],[-10245,21293],[-4629,1485]],[[490779,444255],[-10776,6226],[-3112,8772]],[[476891,459253],[-5085,41312],[11460,5730],[5767,-8135],[1215,13087],[-4098,14715],[2580,43859],[-4933,8701],[8272,16766],[-7210,14643],[-1441,34098],[-4174,11318],[19124,7923]],[[745465,785299],[1138,-919],[2808,-31268]],[[749411,753112],[-2352,-6155],[-14647,2618],[-10852,-2971],[-10094,-32966],[4857,-10682],[-9410,-4456],[-1442,-11602],[12370,-17332]],[[717841,669566],[152,-9691],[-6527,-2193],[5388,-19454],[-9713,-19242]],[[707141,618986],[-15254,9409],[-8804,-5447],[-6905,4457]],[[676178,627405],[75,27235],[6147,18393],[-455,16553],[3795,17898],[-18138,8206],[6526,10965],[-3870,8064],[2732,16907],[-7892,9126],[-380,25396],[-5312,-2759]],[[659406,783389],[-76,13229]],[[659330,796618],[6299,11601],[24664,7216],[-987,10611],[8728,5235]],[[698034,831281],[15405,778],[15634,3466],[2883,-14926],[14495,-22354],[-986,-12946]],[[685512,330220],[1594,-1768]],[[687106,328452],[-532,-11672],[-2125,-13158],[4326,-14856],[-14267,17190],[-25651,9833],[4554,-24264]],[[653411,291525],[-10397,-13229],[-14268,-2688]],[[628746,275608],[-2883,8418],[6298,7994],[-2732,24477],[-9638,2051],[1442,8631],[-8727,3749],[-2125,11743]],[[651969,363681],[21476,-21081],[2581,-14856],[9486,2476]],[[566137,577532],[152,141]],[[566289,577673],[10018,-22071],[-1215,-11814],[29825,4599],[683,-21223],[9259,2052],[-4023,-30278]],[[707141,618986],[2124,-19878]],[[709265,599108],[-3642,-37493],[-7589,-2829],[227,-20728],[-4022,283],[759,-18605]],[[694998,519736],[-10549,4952],[-1897,8631],[-8575,-2971],[-8196,23132]],[[665781,553480],[3491,2122],[-3415,26882],[-6906,16341],[-12598,5942],[-13584,-7145],[-4857,2689],[834,20585],[7893,6509]],[[636639,627405],[6071,10116],[10625,-8914],[10700,11107],[12143,-12309]],[[694239,455432],[-5919,-20585],[3415,-3750],[-5995,-14855],[3111,-29499],[8424,-7640],[-3415,-18181],[-6830,-11106],[2808,-9692],[-4326,-9904]],[[665477,457130],[0,-212],[4629,-6579],[20111,12097],[4857,7428]],[[760187,381225],[-1745,-11672],[-9107,-19101],[-9182,-9337],[-17683,-496],[-4022,-16412]],[[718448,324207],[-2960,8206],[-15709,-10399]],[[699779,322014],[-8879,-1768],[-3794,8206]],[[715792,180815],[-4174,-52349],[-4705,-4739]],[[706913,123727],[-53427,18463],[-26864,2900],[-9942,-1910]],[[616680,143180],[-3263,18110],[4857,21223],[10700,10752],[3036,-2405],[6678,24264],[-4098,21718],[7437,2051],[6147,12805],[-3111,11955],[-6147,-6155],[-17455,-2688],[-5388,6650],[303,12450],[12370,1698]],[[653411,291525],[5767,-5093],[-3187,-13795],[9031,-4457],[-1973,-8135],[9258,-8984],[-8955,-6791],[-2277,-10611],[10246,-8631],[-683,10116],[12825,-7640],[4705,-13936],[5236,7003],[8348,-20585],[10094,-6792],[3946,-12379]],[[699779,322014],[2201,-26669],[-3719,-11743],[10397,-8914],[11156,4882],[4174,-12875],[-1138,-46407],[-2884,-22495],[1821,-12522]],[[721787,185271],[-5995,-4456]],[[532215,870047],[-2125,-14926],[6906,-25750],[7361,2617],[1442,12663],[16696,-19666]],[[562495,824985],[5312,637],[-152,-12946],[6147,-12380],[7210,496],[13356,14784]],[[594368,815576],[13888,-17968]],[[608256,797608],[-2352,-10965],[6906,-3254],[-1670,-13087]],[[500720,734790],[4857,18322],[2960,7428],[-8348,7286],[8045,30207]],[[504591,868491],[2125,16412],[11080,4952],[14419,-19808]],[[636639,627405],[3036,10823],[8575,778],[6375,11955],[-683,14078],[-5388,3749],[-3188,-16129],[-10776,-12662],[-8651,2475],[-3491,-12096],[-9107,-1627],[-1822,7003]],[[612278,637025],[6299,5306],[-6754,7923],[3946,32187],[7969,8843],[-1746,31055],[9866,8985],[13205,4244],[910,10894],[-5464,24547],[14495,1486],[4402,10894]],[[650603,496321],[9031,55037],[6147,2122]],[[738711,596349],[2504,-11177],[-3263,-24547],[-7362,-28721]],[[709265,599108],[22843,-10399],[6603,7640]],[[636715,814657],[1973,-6438],[14419,-2476],[6223,-9125]],[[608256,797608],[7513,-3112],[7513,11955],[4023,-3042],[5615,19171],[3795,-7923]],[[569401,333545],[-9411,-2476],[-1442,-16765],[-7816,-1062],[76,-23981],[8499,-6508],[-7740,-27306],[-10473,-11177],[8196,-12592],[-10321,-1203],[-8955,6438],[-7589,-4386]],[[522425,232527],[-28383,13582],[-25878,16129]],[[468164,262238],[-7741,12309],[-9107,14219],[0,141],[-227,2264]],[[451089,291171],[-2657,11955],[5768,22567],[15937,4244],[-6982,7216],[10169,39898],[-1593,6296],[25726,21505],[-12066,18322],[5388,21081]],[[889124,529711],[2353,-18464]],[[891477,511247],[-8045,-5659],[6147,-9691],[-2428,-7499]],[[887151,488398],[-3719,-3254],[-5084,14926],[-8728,6508],[1518,11673],[-3794,14360]],[[867344,532611],[17227,7004]],[[884571,539615],[4553,-9904]],[[789936,719934],[6147,-14926]],[[796083,705008],[-8575,-3467],[-3567,-19100],[-18669,-5022],[304,11177],[7664,9196],[-9334,3749],[-10549,-10399],[2808,12380],[-19883,-10469],[-303,-36644],[-2277,-1769],[-12142,19029],[-3719,-4103]],[[749411,753112],[5388,7781],[2049,-9267],[8120,283],[-2656,-22920],[10397,-637],[17227,-8418]],[[878803,395656],[-5692,-16624],[911,-14148],[-13812,-25538],[-6526,-2759]],[[853684,336587],[-3415,14856],[1290,25396],[6906,71],[-11839,12379],[4629,6650]],[[851255,395939],[1821,3183]],[[853076,399122],[3643,-5942],[12674,5942],[9410,-3466]],[[819078,520727],[-1063,-24265],[-9562,-6791],[2125,-16624]],[[810578,473047],[-9562,-14573],[11004,-5517]],[[812020,452957],[-911,-22779],[-17454,-15422],[-3643,-10611]],[[790012,404145],[-6982,-5730],[-5540,-19383],[-14646,4174]],[[772709,409451],[1063,13511]],[[744858,510540],[9031,12167],[10928,-1768],[30811,-18888],[8120,4174],[8576,16907],[6754,-2405]],[[718448,324207],[8576,-8206],[30659,-13370],[1063,-8913],[11155,-4740],[-4933,-4952],[9563,-7923],[6678,-10328]],[[781209,265775],[3415,-13016],[13660,-17756],[-8651,-13653],[-16696,-34522]],[[772937,186828],[-9183,-5730],[-22160,-1981]],[[741594,179117],[-10852,0],[-8955,6154]],[[870379,186616],[9790,-1486],[6223,-22425],[-5236,-19595],[1290,-14856]],[[882446,128254],[2656,-22284]],[[885102,105970],[-12522,-7498],[-4326,-19595],[-13432,-4457],[-2808,8984]],[[852014,83404],[16013,10399],[-12901,32682],[-13509,6509]],[[841617,132994],[1670,13440],[-4326,20940]],[[838961,167374],[11232,6437],[-304,12309],[20490,496]],[[796994,139219],[1518,-11177]],[[798512,128042],[5540,-9975],[3035,-25254]],[[807087,92813],[-10397,-10258],[-12142,2476],[-41360,22920]],[[743188,107951],[7665,1698],[-5312,15634]],[[745541,125283],[6830,5659],[15785,-1910],[11611,5164],[6071,10682],[-5843,8418],[10397,-212],[-4023,-19383],[10625,5518]],[[796083,705008],[-151,-14148],[-2353,-13654]],[[793579,677206],[-7589,-13087],[3946,-14926],[-4250,-8701],[6072,-14856],[-13129,-1486],[-76,10541],[-7513,-9338]],[[771040,625353],[-7210,3749],[-11459,-20585],[-9335,778],[-4325,-12946]],[[842831,452744],[76,-19595],[4326,6650],[9259,-8914],[5995,-22778],[-9411,-8985]],[[851255,395939],[-18517,2617]],[[832738,398556],[-14040,1062]],[[818698,399618],[5616,33814],[-5084,22779],[-7210,-3254]],[[810578,473047],[27852,-5023],[6754,-8347],[-2353,-6933]],[[862335,543222],[-10321,-9337],[-22843,-6721],[-1973,-20869],[-6299,-1697],[-1821,16129]],[[819078,520727],[6071,7498],[-4250,10116]],[[820899,538341],[6071,7923],[7210,21789],[-4402,4244],[11384,15634],[15178,10965]],[[856340,598896],[-759,-20869],[2580,-23698],[4174,-11107]],[[745541,125283],[-4174,14856],[10852,18675],[-10625,20303]],[[772937,186828],[4477,4032],[2732,-13229],[14344,-1556],[910,-9126],[8652,-4668],[-7058,-23062]],[[743188,107951],[-36275,15776]],[[888972,572792],[-5464,-6154],[1063,-27023]],[[867344,532611],[-5009,10611]],[[856340,598896],[-3112,7640]],[[853228,606536],[12674,7640],[3718,15209],[7893,-283],[-76,10399],[11308,4174],[-3036,-18817],[-6223,424],[1518,-10540],[-8424,-2335],[6375,-26174],[10017,-13441]],[[891780,219722],[-6830,-8347],[-683,-16058],[4857,4810],[12750,-12026]],[[901874,188101],[-1974,-14714],[-6678,-11672],[-3111,-19525],[-7665,-13936]],[[870379,186616],[-5843,21293],[5084,1627],[5692,23698]],[[875312,233234],[16468,-13512]],[[853684,336587],[7968,-19383],[2504,-16271]],[[864156,300933],[-10548,16271],[-5085,-11602],[-13812,5235],[-14495,-20868],[7134,3678],[7665,-26457],[-1670,-6721]],[[833345,260469],[-152,-26740],[-11838,10116],[-5692,24547],[-7741,11673],[7361,3891],[-5691,17543]],[[809592,301499],[1517,25255],[15861,29641],[10246,30065],[-4478,12096]],[[806708,658106],[30432,-17897],[10321,-11107]],[[847461,629102],[5767,-22566]],[[820899,538341],[-6450,17332],[-8728,-3466],[-4401,18392],[7285,10399],[-6906,283],[-4098,14361],[-11535,6013],[-4933,15351],[-13964,-4952],[3871,13299]],[[793579,677206],[13660,2972],[17910,-9621],[-18441,-12451]],[[932078,167728],[151,-71],[2353,1061],[5464,11672]],[[940046,180390],[455,-13441],[5920,-3466],[-1594,-11318]],[[944827,152165],[5768,-34381],[4857,991],[-2884,-13795],[-20870,-10965],[-5691,4740],[-18821,-8984]],[[907186,89771],[-22084,16199]],[[901874,188101],[14267,-8489],[5616,1627],[10321,-13511]],[[833345,260469],[14571,-5659],[19504,13582],[6071,-10611]],[[873491,257781],[-7134,-24052],[8955,-495]],[[838961,167374],[-987,2334],[-22235,-13158],[-4250,-17826],[-12977,-10682]],[[781209,265775],[1290,13512],[8272,15916]],[[790771,295203],[18821,6296]],[[790771,295203],[7589,5518],[1290,16483],[-3339,8913]],[[796311,326117],[-304,27660],[11536,12592],[-3112,12875],[14267,20374]],[[887151,488398],[8576,-6862]],[[895727,481536],[-2733,-9196]],[[892994,472340],[-19579,-15139],[379,-3891],[1215,-15917],[5691,5377],[2884,-27660],[-4401,-15705],[-5085,283],[-1366,13583],[6602,15916],[-19048,283],[-683,-141],[607,12167],[6299,4033],[-531,0],[-607,15138],[-11080,-8347],[-11460,424]],[[888289,408602],[-8423,-12946],[-1063,0]],[[892994,472340],[2733,-28297],[-4706,-1202],[-2732,-34239]],[[885254,651457],[12673,-2759],[2656,-16342],[-4249,-7427],[3794,-22142],[0,-10187],[-11156,-19808]],[[847461,629102],[14343,15705],[13205,707],[1442,7216],[8803,-1273]],[[995825,273415],[-1290,-1273],[-6527,3183],[-9486,-21364],[-3339,-3891],[7285,-28791],[2049,-4457],[-8499,-43506],[-6678,-1627],[-835,-13158],[-23678,-6366]],[[940046,180390],[2504,22567],[10018,3608],[14115,778],[1974,8276],[-10321,18818],[-11763,-213],[-3491,13583],[7589,8701],[-5161,7923],[17379,-142],[6906,10399],[11763,-7569],[4401,13724],[-3566,11106]],[[982393,291949],[2049,-919],[15557,-9480],[-4174,-8135]],[[796311,326117],[-14723,5306],[4098,14573],[-7057,4103],[-987,13865],[11080,-6508],[6527,18463],[8954,6579],[-7513,21364],[-6678,283]],[[841617,132994],[-8727,1910],[-14571,-8348],[-5236,-9479],[1745,-15634],[5768,-10611],[4401,5942],[14268,-13158],[3718,-8701]],[[842983,74915],[-14267,-5235]],[[828716,69680],[-12598,23416],[-9031,-283]],[[852014,83404],[-9031,-8489]],[[864156,300933],[-151,-13228],[4857,-2688],[8651,-18322],[-4022,-8914]],[[907186,89771],[9183,-27023],[1745,-12592],[-3946,-8277],[-7969,-16837],[-13053,2052],[-20262,-14997],[-3339,-12097],[-3871,10187],[-32101,48175],[-4857,11318]],[[949760,338639],[-1214,-25114],[9334,-1697],[20339,-13158],[4174,-6721]],[[891780,219722],[4554,4103],[-2125,13371],[10017,-10895],[-1062,26245]],[[903164,252546],[4933,-6225],[12749,6508],[12446,18322],[759,7923]],[[934051,279074],[3718,7428],[11384,-4386],[0,10046],[-12294,7286],[-2353,14148],[4781,4952],[4705,4598],[-6754,8914]],[[937238,332060],[9031,12733],[3491,-6154]],[[911587,501414],[11232,-27942],[-379,-5377]],[[922440,468095],[-7513,-6437],[-12522,13653],[-6678,6225]],[[891477,511247],[11611,-11460],[8499,1627]],[[922440,468095],[4705,-16341],[-4857,-2193],[-835,-6013],[7286,-24123],[4325,-25467],[-4250,-495],[-4249,-20586],[8196,-14006],[11080,4598],[9334,-13370],[-3415,-11460]],[[937238,332060],[-2808,20161],[-17303,7781],[304,11036],[-10549,3537],[1442,11390],[-11307,4315],[-8728,18322]],[[934051,279074],[-1670,26599],[-9562,13512],[-14722,6225],[-8197,15775],[6527,14290],[-20187,25821],[-13129,-25255],[2581,-20232],[-1746,-19100],[3036,-33107],[7285,-20869],[6527,283],[12370,-10470]],[[312666,534097],[-5844,-30843],[-227,-16625],[-9790,1415],[-7286,9267],[-5008,-20090],[5464,-20444],[-16393,-17403],[3340,-19171],[-5920,-5659],[-6223,-21152]],[[264779,393392],[-21021,23416],[-9411,15846],[-14039,11035],[-42878,26882],[683,11389]],[[178113,481960],[11611,4245],[7210,29782],[-4554,283],[2733,16836],[-8804,12380],[11156,-4881],[-3794,26740],[8347,14290],[5161,-212],[6982,-14007],[9562,20727],[6451,1556],[-5996,11885],[6679,5872],[-2429,21151],[7134,-5164]],[[235562,623443],[15254,-5306],[-4554,-19100],[10169,-54329],[15406,10753],[-987,14572],[13205,6792],[7893,-20162],[9790,-6225],[10928,-16341]],[[382940,764360],[8044,-9763],[7209,-22283],[6147,14360],[11232,-7640],[2656,10612],[11611,-7641],[15937,6296]],[[445776,748301],[1366,-16765]],[[447142,731536],[-7361,-12946],[-7817,4528],[-2049,10894],[-7133,-14361],[-11384,-3961],[9714,-31480],[1594,-12026],[-11839,-33319],[-7893,-2123],[-379,-29711],[-6906,-38412],[12522,-39757],[-759,-16129]],[[407452,512733],[-7210,-14573],[-11762,-5659],[-7969,5942],[-303,9055],[-9563,10116],[-17606,8560],[-9942,-6721],[-16468,17544]],[[326629,536997],[-10245,12734],[4478,35158],[9182,15422],[17986,20585],[3339,25750],[1215,42516],[-1518,8630],[9941,-2193],[1518,8701],[17075,16129],[-7437,19596],[2656,25537]],[[374819,765562],[8121,-1202]],[[495484,697863],[-7968,8913],[-15178,-22637],[-14419,10258],[-6603,18109],[4250,12097],[-8424,6933]],[[445776,748301],[3567,28438],[-3794,1415]],[[445549,778154],[8651,16978],[-1062,8348]],[[453138,803480],[5691,-920],[2429,19171],[7437,849]],[[451089,291171],[-13053,3254],[834,9409],[-6906,-425],[-151,13654],[-10701,9550],[-26637,6083]],[[394475,332696],[4326,17120],[-2125,20302],[7437,-3961],[2277,21647],[-4250,4457],[11155,37634],[-7513,1273],[-910,23274],[7057,5801],[-4477,13087],[2960,12168]],[[410412,485498],[17303,-5731],[33012,-18109],[16164,-2405]],[[468164,262238],[-49404,28721],[-43258,23062]],[[375502,314021],[17151,-4457],[4023,4244],[-8424,13158],[6223,5730]],[[163542,844439],[-9562,-26104],[17986,-25042],[5540,-15846],[-1745,-13653],[-9790,-4032],[-1214,-7358],[9789,-2263],[5996,-13653],[7740,-213],[14495,-19524]],[[202777,716751],[607,-8135],[-7588,-8914],[3490,-14290],[-4022,-6508]],[[195264,678904],[-8044,-12804],[-9183,-4103],[3415,-9621],[-16164,-4598]],[[165288,647778],[-14343,11602],[-9411,-3254],[-16012,8206],[-10018,20373],[-683,-5730],[-16316,11389],[-1138,-6154],[-25499,21930],[-4098,9762],[6526,12167],[11991,6013],[1138,9126],[-20414,8206]],[[67011,751414],[1821,11389],[8348,4386],[76,26387],[-6299,20869],[6602,14077],[-6299,12097],[1746,24123],[5616,7923],[2959,5730],[17152,11460],[13963,2476],[2505,-8489],[15405,5447],[8045,-10824],[4173,-18675],[20718,-15351]],[[394019,983304],[8804,-5164],[4781,-12451],[12142,-5942],[2201,-7852],[-6071,-23981],[-6223,-4174],[-3188,-19808],[2884,-8135]],[[409349,895797],[-4098,-35088],[-6223,-8842],[3871,-12592],[-5540,-18181],[-7817,-11743]],[[389542,809351],[-7968,6933]],[[381574,816284],[-11156,16766],[-25651,23486],[-4857,16695],[3187,28225],[-2580,18181],[-5236,2900],[2580,17403],[-5692,5517],[1594,30631],[3187,13371],[6906,3112],[10701,-16907],[-456,-11177],[19884,27730],[2200,7782],[6830,-11177],[11004,-5518]],[[410412,485498],[986,17897],[-3946,9338]],[[375502,314021],[-14115,5447],[-22767,14714],[-34909,18110],[-28231,17756],[-7362,495],[3415,8772],[-6754,14077]],[[312666,534097],[13963,2900]],[[420126,888086],[-4706,-17685],[4706,-16624],[8044,11460],[8196,-17049],[-5616,-27306],[6223,-1132],[12750,-21647],[3415,5377]],[[445549,778154],[-13661,-6366],[-9562,8064],[-8272,-2617],[152,15775],[-4477,-6013],[-6603,6367],[228,-12309],[-8652,11743]],[[394702,792798],[-5691,-708],[531,17261]],[[409349,895797],[10777,-7711]],[[382940,764360],[5160,11106],[-759,17049],[7361,283]],[[325567,839487],[7513,1132],[4174,-15280],[9334,-4315],[4630,-10612],[7133,3679],[911,-8631]],[[359262,805460],[-5464,-13370],[5919,-14360],[3871,10823],[11687,-17402],[-456,-5589]],[[235562,623443],[-5085,14007],[3339,17685],[-7968,6508],[-76,8560],[-12674,-1768],[-3718,7781],[-14116,2688]],[[202777,716751],[15710,-5306],[11155,7216],[7665,-9409],[29977,-10682],[6602,20515],[228,10965],[12977,9904],[3794,24830],[-1745,11177],[7513,7923],[2732,16412],[-2277,17332],[5388,10682]],[[302496,828310],[11308,18110],[11763,-6933]],[[163542,844439],[4781,1273],[10397,425],[6451,7498],[9942,-4244],[1290,7215],[19883,10258],[16392,-3113],[5919,-7428],[23754,-4527],[18972,7640],[1214,-13299],[6906,-3184],[2125,-11460],[10928,-3183]],[[165288,647778],[-1518,-24689],[-6147,-4598],[-10017,7357],[1821,-16058],[7741,-24830],[-15558,9055],[759,-6296],[-16164,212],[4325,-4740],[-9941,-13441],[-8272,-2688]],[[112317,567062],[-7741,7499],[-8727,27730],[-10094,12946],[-33922,27448],[-17076,7923],[-14874,-2688],[-8575,-16200],[-152,11531],[-8500,7710],[-2656,28014],[5388,39898],[7286,9621],[17530,2334],[4857,5164],[14343,-424],[2125,10116],[9638,-707],[5844,6437]],[[562495,824985],[-2808,15634],[7968,19100],[12294,10328]],[[579949,870047],[9638,-7145],[7589,-27730],[-2808,-19596]],[[574258,903720],[4249,-11389]],[[578507,892331],[1442,-22284]],[[532215,870047],[4477,14361],[13129,11318],[7058,-2405],[17379,10399]],[[623358,939020],[2353,-9055],[9031,-4952],[9334,10187],[3263,-13936]],[[647339,921264],[-2580,-9338],[-76,-6013],[-10928,2759]],[[633755,908672],[-6982,9621],[-11459,-8135],[-6299,13865],[-8500,-5376],[-986,8630],[-8803,2193],[-5161,12380]],[[585565,941850],[15937,-9338],[-8879,21576],[2884,6720],[8575,-5800],[7210,-19808],[1897,7145],[10169,-3325]],[[633755,908672],[-4781,-15139],[-9714,-1839],[-5388,-11036],[-2580,9338],[-8652,-9125],[-6906,15633],[-17227,-4173]],[[574258,903720],[3339,18322],[7968,19808]],[[651210,905418],[227,-495],[2353,-12663],[8120,-7640],[-759,-10965]],[[661151,873655],[-10017,1556],[-7893,-11318],[1063,-29146],[-7589,-20090]],[[647339,921264],[3871,-15846]],[[661151,873655],[10473,-16200],[5237,-20515],[6981,8206],[0,-11389],[14192,-2476]],[[359262,805460],[9866,-15775],[12446,26599]],[[178113,481960],[-3643,9551],[-14722,17190],[-6223,-2193],[-12522,6296],[-1669,8913],[-9638,3891],[-1366,14148],[-7665,17332],[-8348,9974]],[[616680,143180],[-13736,5660],[-21097,16412],[-13585,17261],[-13129,8771],[3340,14149],[-7589,5942],[-7741,-4952],[-10473,18110],[-10245,7994]]],"transform":{"scale":[0.00000417679182355224,0.000002570879724605297],"translate":[-102.18452072422306,16.316035402192636]},"objects":{"municipalities":{"type":"GeometryCollection","geometries":[{"arcs":[[0,1,2,3,4]],"type":"Polygon","properties":{"cvegeo":"12006","nombre":"Apaxtla de Castrejón"}},{"arcs":[[5,6,7,8,9]],"type":"Polygon","properties":{"cvegeo":"12017","nombre":"Cocula"}},{"arcs":[[10,11,-1,12,-9]],"type":"Polygon","properties":{"cvegeo":"12026","nombre":"Cuetzala del Progreso"}},{"arcs":[[13,14,15,16,17,18,19,20,21]],"type":"Polygon","properties":{"cvegeo":"12028","nombre":"Chilapa de Álvarez"}},{"arcs":[[22,23,24,25,26,27,28,29]],"type":"Polygon","properties":{"cvegeo":"12029","nombre":"Chilpancingo de los Bravo"}},{"arcs":[[30,31,32]],"type":"Polygon","properties":{"cvegeo":"12031","nombre":"General Canuto A. Neri"}},{"arcs":[[-2,-12,33,34,35,-28,36,37,38]],"type":"Polygon","properties":{"cvegeo":"12032","nombre":"General Heliodoro Castillo"}},{"arcs":[[39,40,41,42,43,44,45,46]],"type":"Polygon","properties":{"cvegeo":"12034","nombre":"Huitzuco de los Figueroa"}},{"arcs":[[47,48,49,50,-25,51]],"type":"Polygon","properties":{"cvegeo":"12039","nombre":"Juan R. Escudero"}},{"arcs":[[-29,-36,-35,52,53]],"type":"Polygon","properties":{"cvegeo":"12040","nombre":"Leonardo Bravo"}},{"arcs":[[-43,54,55,56,57,58]],"type":"Polygon","properties":{"cvegeo":"12042","nombre":"Mártir de Cuilapan"}},{"arcs":[[59,-52,-24,60,-19]],"type":"Polygon","properties":{"cvegeo":"12044","nombre":"Mochitlán"}},{"arcs":[[61,62,63,-48,-60,-18]],"type":"Polygon","properties":{"cvegeo":"12051","nombre":"Quechultenango"}},{"arcs":[[64,65,66,-50,67]],"type":"Polygon","properties":{"cvegeo":"12053","nombre":"San Marcos"}},{"arcs":[[68,69,-68,-49,-64]],"type":"Polygon","properties":{"cvegeo":"12056","nombre":"Tecoanapa"}},{"arcs":[[70,71,72,73,-10,-13,-5,74,-33,75]],"type":"Polygon","properties":{"cvegeo":"12058","nombre":"Teloloapan"}},{"arcs":[[-59,76,-7,77,-44]],"type":"Polygon","properties":{"cvegeo":"12059","nombre":"Tepecoacuilco de Trujano"}},{"arcs":[[-20,-61,-23,78,-57]],"type":"Polygon","properties":{"cvegeo":"12061","nombre":"Tixtla de Guerrero"}},{"arcs":[[79,-21,-56,80]],"type":"Polygon","properties":{"cvegeo":"12074","nombre":"Zitlala"}},{"arcs":[[-58,-79,-30,-54,-53,-34,-11,-8,-77]],"type":"Polygon","properties":{"cvegeo":"12075","nombre":"Eduardo Neri"}},{"arcs":[[81,-45,-78,-6,-74,82]],"type":"Polygon","properties":{"cvegeo":"12035","nombre":"Iguala de la Independencia"}},{"arcs":[[-27,83,84,85,86,-37]],"type":"Polygon","properties":{"cvegeo":"12021","nombre":"Coyuca de Benítez"}},{"arcs":[[87,88,89,90,91]],"type":"Polygon","properties":{"cvegeo":"12005","nombre":"Alpoyeca"}},{"arcs":[[92,93,-41,94]],"type":"Polygon","properties":{"cvegeo":"12008","nombre":"Atenango del Río"}},{"arcs":[[95,96,97,98]],"type":"Polygon","properties":{"cvegeo":"12009","nombre":"Atlamajalcingo del Monte"}},{"arcs":[[99,100,101,102,-16,103,-14,104]],"type":"Polygon","properties":{"cvegeo":"12010","nombre":"Atlixtac"}},{"arcs":[[105,106,107,108,-69,-63]],"type":"Polygon","properties":{"cvegeo":"12012","nombre":"Ayutla de los Libres"}},{"arcs":[[109,110,111,112,113,114]],"type":"Polygon","properties":{"cvegeo":"12013","nombre":"Azoyú"}},{"arcs":[[115,116,117,118,119]],"type":"Polygon","properties":{"cvegeo":"12018","nombre":"Copala"}},{"arcs":[[120,121,122,-81,-55,-42,-94]],"type":"Polygon","properties":{"cvegeo":"12019","nombre":"Copalillo"}},{"arcs":[[123,-98,124,125,126,-101,127]],"type":"Polygon","properties":{"cvegeo":"12020","nombre":"Copanatoyac"}},{"arcs":[[128,129,130,131]],"type":"Polygon","properties":{"cvegeo":"12024","nombre":"Cualác"}},{"arcs":[[-120,132,-108,133]],"type":"Polygon","properties":{"cvegeo":"12025","nombre":"Cuautepec"}},{"arcs":[[134,-65,-70,-109,-133,-119]],"type":"Polygon","properties":{"cvegeo":"12030","nombre":"Florencio Villarreal"}},{"arcs":[[135,-91,136,-132,137,138]],"type":"Polygon","properties":{"cvegeo":"12033","nombre":"Huamuxtitlán"}},{"arcs":[[139,140,-110,141,142]],"type":"Polygon","properties":{"cvegeo":"12036","nombre":"Igualapa"}},{"arcs":[[-97,143,144,145,146,-125]],"type":"Polygon","properties":{"cvegeo":"12041","nombre":"Malinaltepec"}},{"arcs":[[147,148,-138,-131,149,-122,150]],"type":"Polygon","properties":{"cvegeo":"12045","nombre":"Olinalá"}},{"arcs":[[151,152,153,154,-111,-141,155]],"type":"Polygon","properties":{"cvegeo":"12046","nombre":"Ometepec"}},{"arcs":[[156,157,-142,-115,158,-116,-134,-107,159,160,-146]],"type":"Polygon","properties":{"cvegeo":"12052","nombre":"San Luis Acatlán"}},{"arcs":[[-147,-161,161,162,-126]],"type":"Polygon","properties":{"cvegeo":"12063","nombre":"Tlacoapa"}},{"arcs":[[-90,163,164,165,-128,-100,-129,-137]],"type":"Polygon","properties":{"cvegeo":"12066","nombre":"Tlapa de Comonfort"}},{"arcs":[[166,-99,-124,-166,167]],"type":"Polygon","properties":{"cvegeo":"12069","nombre":"Xalpatláhuac"}},{"arcs":[[168,-139,-149,169]],"type":"Polygon","properties":{"cvegeo":"12070","nombre":"Xochihuehuetlán"}},{"arcs":[[170,-153,171,172]],"type":"Polygon","properties":{"cvegeo":"12071","nombre":"Xochistlahuaca"}},{"arcs":[[-163,173,-102,-127]],"type":"Polygon","properties":{"cvegeo":"12072","nombre":"Zapotitlán Tablas"}},{"arcs":[[-162,-160,-106,-62,-17,-103,-174]],"type":"Polygon","properties":{"cvegeo":"12076","nombre":"Acatepec"}},{"arcs":[[174,175,176,-117,-159,-114]],"type":"Polygon","properties":{"cvegeo":"12077","nombre":"Marquelia"}},{"arcs":[[-104,-15]],"type":"Polygon","properties":{"cvegeo":"12079","nombre":"José Joaquín de Herrera"}},{"arcs":[[177,-175,-113]],"type":"Polygon","properties":{"cvegeo":"12080","nombre":"Juchitán"}},{"arcs":[[178,-157,-145]],"type":"Polygon","properties":{"cvegeo":"12081","nombre":"Iliatenco"}},{"arcs":[[179,-176,-178,-112,-155]],"type":"Polygon","properties":{"cvegeo":"12023","nombre":"Cuajinicuilapa"}},{"arcs":[[180,-172,-152,-156,-140,181,182,183,184]],"type":"Polygon","properties":{"cvegeo":"12062","nombre":"Tlacoachistlahuaca"}},{"arcs":[[185,186,-164,-89,187]],"type":"Polygon","properties":{"cvegeo":"12065","nombre":"Tlalixtaquilla de Maldonado"}},{"arcs":[[-187,188,-185,189,-168,-165]],"type":"Polygon","properties":{"cvegeo":"12004","nombre":"Alcozauca de Guerrero"}},{"arcs":[[-190,-184,190,-182,-143,-158,-179,-144,-96,-167]],"type":"Polygon","properties":{"cvegeo":"12043","nombre":"Metlatónoc"}},{"arcs":[[-183,-191]],"type":"Polygon","properties":{"cvegeo":"12078","nombre":"Cochoapa el Grande"}},{"arcs":[[-150,-130,-105,-22,-80,-123]],"type":"Polygon","properties":{"cvegeo":"12002","nombre":"Ahuacuotzingo"}},{"arcs":[[191,192,193,194]],"type":"Polygon","properties":{"cvegeo":"12048","nombre":"Petatlán"}},{"arcs":[[195,196,197,198,199,200]],"type":"Polygon","properties":{"cvegeo":"12003","nombre":"Ajuchitlán del Progreso"}},{"arcs":[[-75,-4,201,-197,202,203,204,-31]],"type":"Polygon","properties":{"cvegeo":"12007","nombre":"Arcelia"}},{"arcs":[[-38,-87,205,206,207]],"type":"Polygon","properties":{"cvegeo":"12011","nombre":"Atoyac de Álvarez"}},{"arcs":[[-206,-86,208,209]],"type":"Polygon","properties":{"cvegeo":"12014","nombre":"Benito Juárez"}},{"arcs":[[210,211,212,213,214]],"type":"Polygon","properties":{"cvegeo":"12016","nombre":"Coahuayutla de José María Izazaga"}},{"arcs":[[215,216,217,218]],"type":"Polygon","properties":{"cvegeo":"12027","nombre":"Cutzamala de Pinzón"}},{"arcs":[[-202,-3,-39,-208,219,-198]],"type":"Polygon","properties":{"cvegeo":"12054","nombre":"San Miguel Totolapan"}},{"arcs":[[-220,-207,-210,220,-192,221,-199]],"type":"Polygon","properties":{"cvegeo":"12057","nombre":"Técpan de Galeana"}},{"arcs":[[222,-204,223,224,-217,225]],"type":"Polygon","properties":{"cvegeo":"12064","nombre":"Tlalchapa"}},{"arcs":[[-203,-196,226,-224]],"type":"Polygon","properties":{"cvegeo":"12067","nombre":"Tlapehuala"}},{"arcs":[[227,228,-200,-222,-195,229,-212,230,231]],"type":"Polygon","properties":{"cvegeo":"12022","nombre":"Coyuca de Catalán"}},{"arcs":[[-231,-211,232]],"type":"Polygon","properties":{"cvegeo":"12073","nombre":"Zirándaro"}},{"arcs":[[233,234,-214]],"type":"Polygon","properties":{"cvegeo":"12068","nombre":"La Unión de Isidoro Montes de Oca"}},{"arcs":[[-72,235,236]],"type":"Polygon","properties":{"cvegeo":"12037","nombre":"Ixcateopan de Cuauhtémoc"}},{"arcs":[[237,238,-236,-71,239]],"type":"Polygon","properties":{"cvegeo":"12047","nombre":"Pedro Ascencio Alquisiras"}},{"arcs":[[240,241,242,243]],"type":"Polygon","properties":{"cvegeo":"12049","nombre":"Pilcaya"}},{"arcs":[[244,-238,245,-243]],"type":"Polygon","properties":{"cvegeo":"12060","nombre":"Tetipac"}},{"arcs":[[246,247,-83,-73,-237,-239,-245,-242,248]],"type":"Polygon","properties":{"cvegeo":"12055","nombre":"Taxco de Alarcón"}},{"arcs":[[249,-46,-82,-248]],"type":"Polygon","properties":{"cvegeo":"12015","nombre":"Buenavista de Cuéllar"}},{"arcs":[[-225,-227,-201,-229,250,-218]],"type":"Polygon","properties":{"cvegeo":"12050","nombre":"Pungarabato"}},{"arcs":[[-194,251,-234,-213,-230]],"type":"Polygon","properties":{"cvegeo":"12038","nombre":"Zihuatanejo de Azueta"}},{"arcs":[[-51,-67,252,-84,-26]],"type":"Polygon","properties":{"cvegeo":"12001","nombre":"Acapulco de Juárez"}}]}}}