{"type":"Topology","arcs":[[[764712,553731],[2413,-23124],[-7679,9257],[713,8405],[4553,5462]],[[719464,554263],[3620,-8796],[-5704,-957],[-2139,8654],[4223,1099]],[[715131,623847],[-3565,-7448],[2304,-13086],[-6691,6454],[-12779,-18194],[-494,-7625],[-3675,-3405],[384,-7944],[-4662,2802],[3401,20925],[7075,11491],[-1262,10320],[8282,4859],[3784,-2660],[7898,3511]],[[628366,718364],[19195,-7625],[-3784,-11739],[549,-8406],[12724,-14399],[2139,-11491],[-2139,-5781],[8775,-27025],[4497,-6916],[-4607,-9895],[1755,-4539],[-3674,-6774],[3455,-11669],[768,-14328],[2797,390],[2139,-12910],[13492,-8689],[5485,-21669],[13601,-17521],[17112,-1986],[-1810,-12448],[4004,-6739],[4168,-14647],[7953,-9824],[-1920,-7590],[4223,-9576]],[[739263,454568],[-20457,3015],[-2084,23336],[5704,1738],[-4662,16066],[-6143,2554],[-3126,6171],[-10201,1099],[-16454,-12448],[-9543,4717],[-7240,9363],[-10256,638],[-3400,8938],[-8721,7625],[-18812,4965],[-6472,9257],[-4936,11455],[713,8973],[-3729,30324],[-1536,23336],[2633,10782],[-8008,7164],[-2523,10994],[2085,887],[-8666,17981],[7020,7945],[-11463,18336],[2852,28231]],[[591838,718010],[5649,-3086],[8118,5497],[6471,-851],[7185,-7448],[9105,6242]],[[933087,249610],[-274,-2802],[-12395,3157],[-8501,21137],[768,5639],[-3675,6491],[1536,10037],[22541,-43659]],[[837272,323592],[11244,-11314],[-3236,-9434],[-7075,-4610],[329,5852],[-5485,3227],[-3291,12200],[7514,4079]],[[830855,335083],[5046,-6880],[-8501,3440],[3455,3440]],[[776229,435416],[6636,-10320],[11463,-2589],[4772,-4469],[658,-11456],[7678,-14789],[-9762,-2802],[1590,4185],[-13821,11279],[-4771,14470],[-5375,1915],[932,14576]],[[950857,155873],[55,-3582],[-21060,-10179],[-6472,2625],[-1207,-5817],[-5594,-1241],[-6143,6242],[-439,-23549],[15193,-6349],[-1262,-6916],[-14314,11279],[-8995,-4327],[-1152,-10995],[-5375,-1915],[9763,-1312],[1097,-8051],[6471,-13442],[-4168,-2411],[-1536,-7732],[-3290,2837],[6526,-14080],[-1042,-5639],[-9927,6739],[-7788,-6065],[-12450,-4752]],[[877748,47241],[-5813,22521],[-933,11101],[-17989,36955],[-7678,12094],[-11353,10675],[-30879,15109],[-8281,5568],[-14425,13513],[-24296,29046],[-33840,33870],[-17825,12945],[-21719,13903],[-26874,15605],[-22157,9753],[-9215,1915],[-19086,-3440]],[[605385,288374],[-9488,17556],[-12450,5745],[18428,19365],[5649,2731],[2413,13051],[15412,6739],[55,7093],[7459,2341],[9269,6632],[11079,-638],[12724,1525],[4497,20144],[7185,-4575],[8227,2234],[6691,-2766],[219,5285],[5211,-1738],[4387,8192],[1646,9860],[6142,-213],[11024,-7164],[6198,4043],[-604,14967],[19800,10037],[1481,6206]],[[748039,435026],[9981,-13796],[8885,-3369],[1920,-9541],[11134,-15959],[4881,-14967],[-6362,-20570],[-5814,-5639],[-2194,-10286],[1810,-20463],[7459,-10392],[-1097,-10994],[2743,-10676],[6252,-6880],[5759,-12342],[9543,-8619],[26655,-6667],[16563,1454],[-713,10391],[-5100,4505],[-604,11100],[7295,7342],[10969,-1561],[-439,-4894],[7514,-5036],[3236,-7909],[16673,-8476],[12176,-9718],[3455,-21599],[10037,-3937],[17550,6455],[4168,-7980],[-5978,-9504],[3072,-12414],[8226,-6277],[12834,-15180],[-2303,-12696],[2632,-12059]],[[591838,718010],[-13272,1808],[-11463,-5568],[-8336,-7093],[-19855,7838],[-6691,-1596],[-18812,319],[-11956,8441],[-14808,2944],[-5156,-1667],[-25503,-780],[-7185,922],[-2194,-15463],[-6417,4717],[-2084,-3441],[-9872,-1489],[-9872,9221],[-658,-9611],[2961,-12697],[-4332,-5675]],[[416333,689140],[-14260,12626],[-18812,12307],[-15192,14115],[-10257,5994],[-2248,4433],[-10640,5923],[-11079,1986],[-3346,10356],[-15411,8867],[-15357,2057],[-8611,-3724],[-6362,-13548],[-5101,-3121],[-10640,4859],[-7239,9186],[-9269,4433],[-7843,21173],[-8775,9398],[-7733,4788],[-12560,3653],[-9653,-5249],[-8666,9576],[-1590,5994],[-11792,12200],[-9927,4966],[-15082,1773],[-3346,-4292],[-16125,10498],[-8226,-744],[493,5674],[-9707,4256],[219,21031],[-3510,14187],[-11518,8086],[-3784,4894],[-12176,5852],[-12505,3760],[-6746,14399],[-5923,5426],[-8556,71],[-1810,4469],[-10256,5107],[-1810,5923],[-7788,4327],[-2413,-2270],[-5869,8618],[-3948,12023],[-4388,4894],[4552,2660],[7075,-5887],[15686,532],[12285,-1454],[2523,-3228],[17496,-283],[7678,-4256],[15248,-2589],[12395,2411],[5484,-2730],[10147,4717],[19525,14647],[6142,-1383],[5046,4752],[55,10534],[10475,11207],[59947,0],[113914,0],[75303,0],[1371,-6951],[-2578,-19932],[8995,-7164],[2797,-13690],[7459,-9009],[3126,107],[8172,-11491],[11189,-2447],[18428,-8973],[11079,-7625],[6252,-11562],[3510,-20783],[10805,-12059],[7130,-14186],[-2798,-8228],[9982,-9399],[12012,-6100],[13821,-2837],[9598,-3866],[-9105,-12449],[-713,-13902],[5978,-4895],[4443,-8760],[8282,-7412],[13821,8370],[12833,-9824],[4333,-7094],[9653,-7128],[3181,-5143],[15028,-9611],[-1316,-24472],[1426,-3121]],[[538583,853951],[6417,-8370],[-2742,-5533],[-4497,1312],[-4059,10321],[4881,2270]],[[562057,889736],[2797,-4646],[-6087,780],[3290,3866]],[[0,977656],[5978,-4114],[-2632,-2908],[-3346,7022]],[[739263,454568],[2249,-11207],[6527,-8335]],[[605385,288374],[-3236,-7873],[-6581,8086],[-32798,25855],[-27916,14505],[-384,4717],[-12231,13690],[6692,6136],[-659,8263],[-7130,8441],[-9378,3795],[-6527,-3511],[-5100,3901],[4058,7661],[13876,39651],[7788,29791],[2907,21528],[3729,12626],[3127,24614],[-549,50893],[-4991,12839],[-10804,33551],[-6911,9186],[-13272,7341],[-384,5320],[-5869,15463],[-10859,12803],[-11298,2873],[-4333,-5391],[-26984,18301],[-4498,-1809],[-5539,8051],[-12998,9469]],[[779575,474571],[-3181,-7342],[-4388,2802],[7569,4540]],[[950857,155873],[1755,-3724],[29288,-13548],[8611,-5532],[-2030,-5037],[3346,-8015],[6198,-7235],[-1207,-5675],[3181,-6277],[-3181,-2341],[1207,-13832],[-5266,-20393],[-13382,-17413],[-7569,-5498],[-15960,-4646],[-7788,-5816],[-3071,-7696],[-10092,-4540],[-3290,-6632],[-7788,-6703],[-8392,-1951],[1371,-2624],[-11956,-745],[-9488,6561],[-5759,7200],[-8172,14966],[-3675,18514]]],"transform":{"scale":[0.000005779422123307894,0.000005127932387269827],"translate":[-115.19319986386394,22.871990385037815]},"objects":{"municipalities":{"type":"GeometryCollection","geometries":[{"arcs":[[[0]],[[1]],[[2]],[[3,4,5]]],"type":"MultiPolygon","properties":{"cvegeo":"03009","nombre":"Loreto"}},{"arcs":[[[6]],[[7]],[[8]],[[9]],[[10,11,12,13]]],"type":"MultiPolygon","properties":{"cvegeo":"03003","nombre":"La Paz"}},{"arcs":[[[-6,14,15]],[[16]],[[17]],[[18]]],"type":"MultiPolygon","properties":{"cvegeo":"03002","nombre":"Mulegé"}},{"arcs":[[[-5,19,-13,20,-15]],[[21]]],"type":"MultiPolygon","properties":{"cvegeo":"03001","nombre":"Comondú"}},{"arcs":[[-11,22]],"type":"Polygon","properties":{"cvegeo":"03008","nombre":"Los Cabos"}}]}}}