{"type":"Topology","arcs":[[[395724,763154],[5546,15981],[18556,-31701],[5950,-30401],[23598,33779],[13715,-5067],[-7260,-28582],[1109,-17540],[-11900,-24945],[25514,-25984],[10387,-20397],[-1714,-35079],[4437,-9094]],[[483662,584124],[-9681,4937],[-9480,-20138],[23901,-18189],[807,-36897],[-6959,11952],[-32876,-51578]],[[449374,474211],[-12404,-22217],[-20674,9614],[-8572,-37547],[-8269,-10004],[-2219,-27283],[-9378,6366],[-7866,-13122],[2924,-19228]],[[382916,360790],[-27531,-17929],[4639,12472],[-10992,15461]],[[349032,370794],[6454,20527],[-8673,30142],[-17447,260],[-6555,-13642],[-5143,21437],[12909,24685],[-17044,32350],[-23396,17150]],[[290137,503703],[-7765,10783],[16337,-5976],[11396,34039],[13009,-26374],[19060,12213],[706,19618],[9479,11043]],[[352359,559049],[10388,7146],[1109,-21957],[13715,4287],[14220,25465],[7160,84838],[14522,43913],[-7463,40795],[-10286,19618]],[[352359,559049],[-1109,24425]],[[351250,583474],[6354,28323],[-10388,32870],[4538,16240],[-11799,37937],[10085,12602],[-504,48980],[4639,2988]],[[354175,763414],[-807,-8055],[22388,-4157],[2723,32870],[17245,-20918]],[[190903,515655],[30355,130],[4740,390],[10488,6496],[7967,-37417],[6656,14551],[13614,-2338]],[[264723,497467],[-13614,-12863],[-2824,-33519],[4538,-26244],[-2319,-41705],[-3126,-16889],[-12102,6755],[9883,-36377],[-202,-40925],[-17850,-47811],[-9883,-11303],[-1512,-25855],[-9984,3378],[-8673,-73405],[-13816,-42744],[-17043,-52358],[-10589,2209],[1815,14551],[-18959,35079],[13413,22866],[9177,52747],[806,37028],[-8672,7275],[-26321,50020],[-4841,30921],[-8068,17020],[-10488,-2339],[-24102,26244],[3630,10134],[-16741,4547],[-8572,16110],[-2924,36898],[-6454,22216],[-15228,-7925],[-3429,21567],[-14724,-780],[-2117,70417],[9177,13382],[-7160,13902],[3025,37547],[-8572,49630],[-101,31440],[-5950,-5456],[-3126,24165]],[[101,677017],[14522,8445],[13715,-17020],[14320,4418],[1916,-23256],[-10387,-13122],[1311,-15461],[19867,22087],[14623,2598],[7463,-43523],[13110,8704],[32573,-20397],[18153,8575],[907,-32351],[24002,0],[0,-33649],[6051,-30532],[15026,-1429],[3630,14551]],[[760891,489282],[21278,-29622]],[[782169,459660],[-2117,-36118],[-10085,-41315],[403,-51449],[7564,-4157],[8572,21826],[12807,-8704],[-11698,21307],[26825,3897],[-1109,-42873],[2421,-51449],[3933,-8185]],[[819685,262440],[-9682,-35728],[5143,-48980],[-16538,-48851]],[[798608,128881],[-16439,8965],[-3227,18059],[10186,18579],[4740,27283],[-1009,32740],[-7866,23775],[5345,3768],[-10185,38197],[-19161,22346],[-26422,20917],[12303,32481],[-1614,21307],[2723,30401],[-11093,36118]],[[736889,463817],[13715,31441]],[[750604,495258],[10287,-5976]],[[621823,862414],[1412,-85228],[-2421,-50149],[9581,-41835],[-3732,-39236],[16741,-44043],[21178,3118],[9076,-33260],[10791,-6106],[3933,-19358],[18152,-1429],[13514,-21827],[19967,-7795],[10589,-20008]],[[736889,463817],[-11194,-12472],[-20270,12082],[-9883,-26374],[1714,28193],[-15127,14811],[-9278,-18189],[-18051,-16240],[4538,-20138],[-10287,7146],[-9580,-43523],[-6152,10004]],[[633319,399117],[-3025,25464],[-9177,14941],[2420,25724],[-15530,-13901],[-30456,31960],[-1109,38197],[3630,46382],[-10791,17149],[10589,16760],[5244,25984]],[[585114,627777],[-10689,30402],[3832,26373],[-5950,6107],[5143,28322],[10891,12213],[20674,-5976],[-2118,17409],[-23396,11823],[7563,14551],[-13110,33260],[-12404,14421],[12505,23775],[-5748,23386]],[[572307,863843],[49516,-1429]],[[328862,851371],[8068,-12213],[17446,-2338],[5648,-14032]],[[360024,822788],[-28338,-20527],[605,-37288],[-7765,-33779]],[[324526,731194],[-1009,130],[-12908,6756],[-6152,25724],[-14925,7406],[-16539,-8185],[-3227,35078],[-12505,31571],[-18859,8185],[101,260],[-302,0],[-1715,-260],[-4840,-1039],[-404,-780],[-7765,4547],[-2219,-5067],[-3529,-1948],[-202,-260],[-303,-2729],[1412,2469],[2320,1559],[706,-910],[-706,-2208],[-908,-3638],[101,0],[403,0],[404,-8705],[-7765,-10913],[-10489,19618],[-6050,-17799]],[[196652,810056],[-4538,16240]],[[192114,826296],[42053,18579],[94695,6496]],[[196652,810056],[-5144,-29752],[5648,-4937],[13211,-73795],[-3026,-15850],[12405,-19099],[5950,4807],[4034,-25854]],[[229730,645576],[1815,-20267],[9177,-6626],[19766,-56126],[-5244,-1949],[14824,-38846]],[[270068,521762],[-5345,-24295]],[[101,677017],[-101,10004],[87031,61452],[68273,53398],[36810,24425]],[[290439,655190],[6051,-11043],[19161,-3118],[5748,-14161],[-8874,-26114],[19766,-2989],[18959,-14291]],[[290137,503703],[-7261,-4028],[-12808,22087]],[[229730,645576],[23699,50799],[5748,-39496],[6857,11044],[18052,-23776],[6353,11043]],[[360024,822788],[-5849,-59374]],[[290439,655190],[14321,40536],[21278,7145],[-1512,28323]],[[848930,273353],[7362,-11433],[16136,4547],[10689,-16759],[807,-29232],[7362,1429],[9984,21437],[11799,-6496],[2420,-31311],[14522,16759],[10892,-649],[-1110,-29752],[9883,-10004],[2219,-20008],[25615,3898],[8370,-11303],[-100,-32091],[14017,520]],[[999797,122905],[202,-122905],[-143909,0],[4538,36508],[13211,5456],[-10488,25465],[-907,20527],[-28742,12733],[-15228,21696],[-403,-15720],[-19463,22216]],[[819685,262440],[12706,27543],[14926,5717],[1613,-22347]],[[391892,312979],[-2219,-46901],[14018,-21957],[-1110,-22216],[9581,-30142],[403,-26894]],[[412565,164869],[-8269,13252],[-19363,1689],[-7664,-14031],[-18960,51578],[-100,16890],[-12707,29362],[807,48071],[-5144,23516],[7867,35598]],[[382916,360790],[8976,-47811]],[[459661,284656],[-19262,-3248],[-4841,-13511],[-10387,15070],[-24607,-6106],[-907,24685],[-7765,11433]],[[449374,474211],[11396,-41835],[-3731,-11952],[7866,-39886],[-5547,-12732],[908,-31181],[-6051,-25595],[5446,-26374]],[[585114,627777],[-9076,7535],[-6958,-11822],[-14018,26114],[-8975,-2729],[7361,-22346],[-15933,-20398],[-18052,35079],[-1412,15591],[-10891,-5587],[3328,-13252],[-8774,-32220],[-807,-24295],[-17245,4677]],[[328862,851371],[20976,-8315],[40742,7405],[28036,23906],[20472,36118],[20068,66909],[13312,-5587],[22792,8185],[33279,20008],[1009,-24555],[12706,-42484],[3732,-49760],[16639,-18448],[9682,-910]],[[891488,579966],[35195,-62881],[23296,129],[7765,-8314],[42053,-780],[101,-104976],[-101,-280239]],[[782169,459660],[10589,-14681],[8270,27803],[-2925,21307],[3429,109003],[12303,33390],[12102,2988],[5950,17020],[-202,-28193],[25111,-33390],[16640,-14031],[18052,-910]],[[459661,284656],[15026,130],[7362,-25204],[21682,-32221],[-5043,-16889]],[[498688,210472],[-10891,-18189],[1008,-20008],[-20774,-33909],[-5849,-46382],[-18153,-23256],[-201,0],[-5849,-2728],[-10186,50669],[-22489,3118],[11799,10004],[-4538,35078]],[[633319,399117],[2925,-31311],[-6757,-1040],[-6353,15851],[-18859,-30402],[-13816,-37027],[-17144,15200],[-6958,-7795],[403,-33000],[-504,-27543],[-27128,-34169],[-13816,3508],[-13009,-1299],[-3126,-16500],[-10489,-3118]]],"transform":{"scale":[0.0000031431333173214046,0.0000013998331531002925],"translate":[-94.13048738457553,17.25101555551063]},"objects":{"municipalities":{"type":"GeometryCollection","geometries":[{"arcs":[[0,1,2,3,4,5,6]],"type":"Polygon","properties":{"cvegeo":"27004","nombre":"Centro"}},{"arcs":[[7,8,9,-7]],"type":"Polygon","properties":{"cvegeo":"27013","nombre":"Nacajuca"}},{"arcs":[[10,11,12]],"type":"Polygon","properties":{"cvegeo":"27008","nombre":"Huimanguillo"}},{"arcs":[[13,14,15,16,17,18]],"type":"Polygon","properties":{"cvegeo":"27007","nombre":"Emiliano Zapata"}},{"arcs":[[19,-18,20,21,22,23]],"type":"Polygon","properties":{"cvegeo":"27011","nombre":"Jonuta"}},{"arcs":[[24,25,26,27,28]],"type":"Polygon","properties":{"cvegeo":"27014","nombre":"Paraíso"}},{"arcs":[[29,30,31,-11,-13,32,-28]],"type":"Polygon","properties":{"cvegeo":"27002","nombre":"Cárdenas"}},{"arcs":[[33,-8,-6,34,-31,35]],"type":"Polygon","properties":{"cvegeo":"27006","nombre":"Cunduacán"}},{"arcs":[[36,-9,-34,37,-26]],"type":"Polygon","properties":{"cvegeo":"27010","nombre":"Jalpa de Méndez"}},{"arcs":[[-27,-38,-36,-30]],"type":"Polygon","properties":{"cvegeo":"27005","nombre":"Comalcalco"}},{"arcs":[[38,39,-16,40]],"type":"Polygon","properties":{"cvegeo":"27017","nombre":"Tenosique"}},{"arcs":[[41,42,-4,43]],"type":"Polygon","properties":{"cvegeo":"27016","nombre":"Teapa"}},{"arcs":[[44,-44,-3,45]],"type":"Polygon","properties":{"cvegeo":"27009","nombre":"Jalapa"}},{"arcs":[[-23,46,-1,-10,-37,-25,47]],"type":"Polygon","properties":{"cvegeo":"27003","nombre":"Centla"}},{"arcs":[[48,-39,-41,-15,49]],"type":"Polygon","properties":{"cvegeo":"27001","nombre":"Balancán"}},{"arcs":[[50,51,-42,-45]],"type":"Polygon","properties":{"cvegeo":"27015","nombre":"Tacotalpa"}},{"arcs":[[-22,52,-51,-46,-2,-47]],"type":"Polygon","properties":{"cvegeo":"27012","nombre":"Macuspana"}}]}}}