{"type":"Topology","arcs":[[[628403,744651],[12141,-46427]],[[640544,698224],[-90140,-44834],[1472,-51661]],[[551876,601729],[-34216,21620],[1471,-32772],[-42310,-41647]],[[476821,548930],[-8830,43923],[-30537,28903],[-33481,-2048]],[[403973,619708],[-2575,10014]],[[401398,629722],[33112,55758],[-13613,20027]],[[420897,705507],[31273,10924],[88300,25261],[14349,42786]],[[554819,784478],[33113,-76923],[12141,48248],[28330,-11152]],[[128035,509103],[-8094,16158]],[[119941,525261],[30169,4552],[43047,-50296],[-6255,-34365]],[[186902,445152],[-22443,-8876],[4047,-49158]],[[168506,387118],[-7726,-32316],[-63650,48247]],[[97130,403049],[63650,54165],[-32745,51889]],[[420897,705507],[-61074,50296]],[[359823,755803],[-10302,80336]],[[349521,836139],[32377,28448],[34584,82385]],[[416482,946972],[11774,-34137],[73583,-16614]],[[501839,896221],[50773,-65771],[4415,-26172]],[[557027,804278],[-2208,-19800]],[[316777,662494],[18396,-22076],[-8830,-46654]],[[326343,593764],[-39000,24806],[-26122,-21165],[19500,-34820],[-34584,-10241]],[[246137,552344],[-4783,8648],[-76895,76695],[29065,31862]],[[193524,669549],[19132,-16159],[46726,-7055],[-22811,91033],[39367,-39144],[22811,9331],[18028,-45061]],[[359823,755803],[-38263,-72599],[12877,-3414]],[[334437,679790],[-17660,-17296]],[[193524,669549],[-16556,68730]],[[176968,738279],[33481,31861],[1471,95813]],[[211920,865953],[49301,-27310],[55188,6145],[-8094,-32545],[41206,23896]],[[326343,593764],[22075,-9786],[3311,-48476]],[[351729,535502],[-5887,-66454]],[[345842,469048],[-97130,20938]],[[248712,489986],[-20971,19117],[18396,43241]],[[128035,509103],[-42678,-5462],[-21339,-43013],[-33481,-5917],[37160,-26173],[-19868,-39827]],[[47829,388711],[-13245,683]],[[34584,389394],[-18764,50979],[-15820,44834],[32377,41647],[1103,7055],[44886,81703]],[[78366,615612],[41575,-90351]],[[248712,489986],[1104,-31179],[-62914,-13655]],[[78366,615612],[-2943,66454],[74687,26627],[26858,29586]],[[211920,865953],[-2575,92171],[21707,30496],[18764,11379],[60338,-44606],[105225,-8421],[1103,0]],[[891463,766044],[-36055,-29131],[32744,-57123],[-54084,-54620]],[[834068,625170],[-30537,-8648]],[[803531,616522],[-26490,67137],[21339,24806],[16557,45745]],[[814937,754210],[76526,11834]],[[777777,778788],[28698,-18206],[8462,-6372]],[[803531,616522],[-1839,-42786]],[[801692,573736],[-38264,-33454]],[[763428,540282],[-59970,39144]],[[703458,579426],[-44886,35958],[-2208,71916]],[[656364,687300],[90140,45744],[17660,39600]],[[764164,772644],[13613,6144]],[[932670,654301],[-5151,-13200],[-37895,-48475],[-22811,-60082]],[[866813,532544],[-39735,29130],[-4783,2276],[-20603,9786]],[[834068,625170],[61810,-14565],[39000,47109]],[[934878,657714],[0,-227]],[[934878,657487],[-2208,-3186]],[[954377,684797],[-19499,-27310]],[[934878,657487],[0,227]],[[891463,766044],[12878,-2731],[56291,73509],[39367,17752],[-18396,-18207],[-33848,-96268],[6622,-55302]],[[685430,883249],[37895,-16614],[2944,-31861]],[[726269,834774],[-34585,-49386],[-27226,-6372]],[[664458,779016],[-68432,46655]],[[596026,825671],[29065,43013],[26858,-29814],[6623,41193],[26858,3186]],[[664458,779016],[-36055,-34365]],[[557027,804278],[32008,15248],[6991,6145]],[[501839,896221],[37896,45517],[58498,-13655],[73584,-12745],[13613,-32089]],[[703458,579426],[-37528,-50296],[-40103,57351],[-73951,15248]],[[640544,698224],[15820,-10924]],[[758645,779699],[5519,-7055]],[[726269,834774],[32376,-55075]],[[763428,540282],[-1104,-15021]],[[762324,525261],[-20235,-38461]],[[742089,486800],[-18028,7055],[-6622,-69185]],[[717439,424670],[-61075,6144],[-16188,-21392],[20971,-49614],[-34216,7738],[4415,49841],[-34584,-47565],[9566,-40282],[-52245,-23669]],[[554083,305871],[-32744,2276]],[[521339,308147],[54084,108557],[-39000,13428],[-68432,-19117],[-2208,55985],[30169,6827],[-19131,75103]],[[367917,421939],[-7726,-29359],[-47461,-27082],[-7359,8648]],[[305371,374146],[4047,51206],[32745,14110]],[[342163,439462],[25754,-17523]],[[334437,679790],[66961,-50068]],[[403973,619708],[-16556,-42558],[14717,-43468],[-50405,1820]],[[389256,411925],[-21707,-40055],[30170,-39144],[-13246,-83978],[-52980,-10469]],[[331493,238279],[-24650,36186],[-38263,-11834],[-32745,41420],[-12509,24579],[37527,59171],[44518,-13655]],[[367917,421939],[21339,-10014]],[[168506,387118],[18028,-24351],[-12877,-125853],[-40103,-1821]],[[133554,235093],[-50773,52117],[3680,35275],[-39368,24579],[-11405,40737],[-1104,1593]],[[47829,388711],[49301,14338]],[[345842,469048],[-3679,-29586]],[[331493,238279],[-23546,-53027],[61442,9559],[-33113,-41420]],[[336276,153391],[-74687,-2504],[-68800,7966],[0,36641],[-33849,-26400],[-25386,65999]],[[866813,532544],[-6990,-19345]],[[859823,513199],[-8830,-17524],[-88669,29586]],[[866077,319299],[-14349,-1821]],[[851728,317478],[-86092,57579],[19131,19116],[-27961,42103],[-39367,-11606]],[[742089,486800],[55556,-10469],[26857,-25489],[41575,-131543]],[[859823,513199],[43782,-4551],[-29066,-44151],[15085,-43014],[9934,-80564]],[[899558,340919],[-33481,-21620]],[[521339,308147],[-33481,6372],[-19499,72827],[-79103,24579]],[[554083,305871],[24651,-47337],[32744,-19344],[-1103,-34138],[61810,-49158]],[[672185,155894],[-28330,-44151],[-53348,-2503],[-93451,-109240],[-5519,2959],[4783,41647],[-70272,71916],[-13981,48020],[-75791,-11151]],[[851728,317478],[-68064,-19117],[9566,-64861]],[[793230,233500],[-35688,-15020],[-9934,-36414],[-75423,-26172]],[[899558,340919],[7726,-24806],[5519,-108102],[1471,-67365],[-23546,-6827],[-32377,21848],[-65121,77833]]],"transform":{"scale":[8.615405764904754e-7,7.991260264513069e-7],"translate":[-99.49434870038944,18.332580809698943]},"objects":{"municipalities":{"type":"GeometryCollection","geometries":[{"arcs":[[0,1,2,3,4,5,6,7]],"type":"Polygon","properties":{"cvegeo":"17029","nombre":"Yautepec"}},{"arcs":[[8,9,10,11,12]],"type":"Polygon","properties":{"cvegeo":"17014","nombre":"Mazatepec"}},{"arcs":[[-7,13,14,15,16,17,18]],"type":"Polygon","properties":{"cvegeo":"17020","nombre":"Tepoztlán"}},{"arcs":[[19,20,21,22]],"type":"Polygon","properties":{"cvegeo":"17018","nombre":"Temixco"}},{"arcs":[[-15,23,24,-23,25,26,27]],"type":"Polygon","properties":{"cvegeo":"17007","nombre":"Cuernavaca"}},{"arcs":[[28,29,30,31,-21]],"type":"Polygon","properties":{"cvegeo":"17028","nombre":"Xochitepec"}},{"arcs":[[-9,32,33,34,35]],"type":"Polygon","properties":{"cvegeo":"17005","nombre":"Coatlán del Río"}},{"arcs":[[-22,-32,36,-10,-36,37,-26]],"type":"Polygon","properties":{"cvegeo":"17015","nombre":"Miacatlán"}},{"arcs":[[-28,38,-16]],"type":"Polygon","properties":{"cvegeo":"17009","nombre":"Huitzilac"}},{"arcs":[[39,40,41,42]],"type":"Polygon","properties":{"cvegeo":"17016","nombre":"Ocuituco"}},{"arcs":[[43,-42,44,45,46,47,48,49]],"type":"Polygon","properties":{"cvegeo":"17030","nombre":"Yecapixtla"}},{"arcs":[[50,51,-45,-41,52,53,54]],"type":"Polygon","properties":{"cvegeo":"17032","nombre":"Zacualpan de Amilpas"}},{"arcs":[[55,56,-53,-40,57]],"type":"Polygon","properties":{"cvegeo":"17022","nombre":"Tetela del Volcán"}},{"arcs":[[58,59,60,61]],"type":"Polygon","properties":{"cvegeo":"17027","nombre":"Totolapan"}},{"arcs":[[-61,62,-8,-19,63]],"type":"Polygon","properties":{"cvegeo":"17026","nombre":"Tlayacapan"}},{"arcs":[[-62,-64,-18,64]],"type":"Polygon","properties":{"cvegeo":"17023","nombre":"Tlalnepantla"}},{"arcs":[[-48,65,-2,66]],"type":"Polygon","properties":{"cvegeo":"17006","nombre":"Cuautla"}},{"arcs":[[67,-49,-67,-1,-63,-60,68]],"type":"Polygon","properties":{"cvegeo":"17002","nombre":"Atlatlahucan"}},{"arcs":[[-47,69,70,71,72,73,74,-3,-66]],"type":"Polygon","properties":{"cvegeo":"17004","nombre":"Ayala"}},{"arcs":[[75,76,77]],"type":"Polygon","properties":{"cvegeo":"17031","nombre":"Zacatepec"}},{"arcs":[[78,-5,79,-29,-20,-25]],"type":"Polygon","properties":{"cvegeo":"17008","nombre":"Emiliano Zapata"}},{"arcs":[[-24,-14,-6,-79]],"type":"Polygon","properties":{"cvegeo":"17011","nombre":"Jiutepec"}},{"arcs":[[80,81,-76,82]],"type":"Polygon","properties":{"cvegeo":"17012","nombre":"Jojutla"}},{"arcs":[[-12,83,84,-34,85]],"type":"Polygon","properties":{"cvegeo":"17001","nombre":"Amacuzac"}},{"arcs":[[-13,-86,-33]],"type":"Polygon","properties":{"cvegeo":"17021","nombre":"Tetecala"}},{"arcs":[[86,-77,-82,87,88,-84,-11,-37,-31]],"type":"Polygon","properties":{"cvegeo":"17017","nombre":"Puente de Ixtla"}},{"arcs":[[-52,89,90,-70,-46]],"type":"Polygon","properties":{"cvegeo":"17033","nombre":"Temoac"}},{"arcs":[[91,92,-72,93]],"type":"Polygon","properties":{"cvegeo":"17013","nombre":"Jonacatepec de Leandro Valle"}},{"arcs":[[-71,-91,94,95,-94]],"type":"Polygon","properties":{"cvegeo":"17010","nombre":"Jantetelco"}},{"arcs":[[-75,96,-83,-78,-87,-30,-80,-4]],"type":"Polygon","properties":{"cvegeo":"17024","nombre":"Tlaltizapán de Zapata"}},{"arcs":[[-97,-74,97,98,-88,-81]],"type":"Polygon","properties":{"cvegeo":"17025","nombre":"Tlaquiltenango"}},{"arcs":[[99,100,-98,-73,-93]],"type":"Polygon","properties":{"cvegeo":"17019","nombre":"Tepalcingo"}},{"arcs":[[101,-100,-92,-96]],"type":"Polygon","properties":{"cvegeo":"17003","nombre":"Axochiapan"}}]}}}