{"type":"Topology","arcs":[[[609753,273672],[830,-580],[411,-2680],[-140,-1530],[-80,-1180],[2091,-1820],[551,-1680],[440,-640],[461,-5530],[-711,-780],[421,-2020],[-751,-5480]],[[613276,249752],[-2623,-1400],[-2322,2230],[-30,0],[-4504,2330]],[[603797,252912],[-881,4350],[-210,450],[-70,460],[-200,280],[-70,0],[-1011,3890],[3173,5510],[510,480],[981,3170],[60,70],[-220,1430],[1782,320],[430,3820],[631,1121],[180,-120],[170,-961],[701,-3510]],[[564020,237092],[3393,-3330],[290,-1110],[-1621,-3980],[-40,-3950],[1421,-1090],[0,-4850],[2142,-790],[-741,-3860],[2953,-2460],[2052,2700],[4734,6490],[281,2320],[1461,700],[1902,-2800],[590,2030],[4955,2730],[1491,5390],[931,1730],[381,950],[2082,-3620],[1591,540],[2733,-540]],[[597001,230292],[430,-1970],[510,-2240],[30,-70],[1282,-4420],[1381,-2290],[691,-2900],[2792,-800],[2032,110],[2062,490],[2162,-7100],[150,-130]],[[610523,208972],[371,-4420],[2052,-170],[-351,-3240],[3644,-1280],[810,-2110],[-20,-2000],[-310,-1930],[4164,-940],[-2432,-1760],[5375,-4100],[1892,2220],[3092,940],[1672,-390],[290,-6490]],[[630772,183302],[-1471,-4240],[-581,-4690],[601,-1400],[310,-2610],[2653,-1390],[1481,-3951],[-50,-760],[-20,-2620],[1421,-7860],[-1121,-2980],[2543,-1330],[780,-3510],[1071,-3790],[2683,-1860],[550,-950],[271,-130],[1501,-2490],[-170,-180],[-2112,-2570],[520,-4620],[-1731,-7010],[-3233,-2760],[1021,-6670],[-2753,-1550],[-750,670],[-2483,-1270],[1211,-3820],[-290,-2950],[-1051,-2380],[-1722,290],[-3112,-3830]],[[626739,98091],[-5386,9850],[-2852,3270],[-2973,-1100],[-5455,3240],[-4785,2230],[-7046,2610],[-4855,140],[-4594,3120],[-7837,9510],[-7157,4200],[-12222,7320],[-13192,7920],[-1411,3300],[-4014,5550],[-7507,5360],[90,1610],[-2422,3781],[-2473,580],[-3783,7670],[-3504,6810],[-4474,3880],[-4214,740],[-1131,-2290]],[[513542,187392],[-1491,6680],[1671,7000],[4845,1000],[2322,2240],[1341,2230],[-780,10380],[971,4530],[2652,2430],[4204,-80],[1612,-4170],[2732,-2170],[631,180],[6326,2990],[6075,-2130],[2503,1080],[2792,-4400],[3043,1580],[4444,-4810],[1302,-2230],[1641,3760],[-4854,5690],[-221,6350],[-1441,6220],[210,4330],[1331,2330],[1352,-3970],[2912,5020]],[[561667,239452],[2353,-2360]],[[585480,315413],[-10,-190],[550,930],[4515,-6010],[2192,-1470],[3703,1610],[230,-810],[571,-3040],[1451,-5050],[-120,-1550],[-1231,-4390],[1621,-1650],[80,-240],[1782,-1060],[-450,-4090],[1401,170],[3383,5120],[571,860],[90,3600],[2302,3990],[761,110],[1501,-610],[1802,-2020],[1651,3280],[281,-7390],[-1161,-1380],[600,-4000],[781,-260],[1001,4020],[1371,990],[1762,-1500],[1892,490],[810,-640],[1602,-2800],[550,1130],[671,-1310],[1351,-2480],[-350,-2240],[-1792,-3550],[-20,-2980]],[[623175,279003],[-160,-420],[-340,-20],[-861,-2401],[1752,-4880]],[[623566,271282],[-141,-3780],[801,-7330],[140,-330],[-400,-4980],[40,-200],[90,-560],[-90,-4170],[360,-3040],[-160,-370]],[[624206,246522],[-1071,-780],[-1882,-3110],[-2082,-520],[-230,280],[-781,800],[-370,-270],[-150,310],[-881,2420],[-80,1400],[-1031,730],[-2372,1970]],[[603797,252912],[-511,-500],[-520,-5390],[-951,-5610],[-2762,-2470],[80,-2920],[-1222,-3590],[-30,-310],[-880,-1830]],[[561667,239452],[2202,2760],[501,4030],[1531,1190],[2212,2360],[1502,4380],[-350,2110],[1091,1870],[640,5000],[350,490],[421,3750],[1772,460],[1321,2350],[550,2560],[-1561,3570],[-611,2191],[-580,3550],[210,2100],[3433,1500],[160,2020],[331,4460],[1341,800],[-1221,3090],[-230,7050]],[[576682,303093],[1921,-820],[2423,2640],[2332,-730],[-190,6030],[-1432,3580],[1842,-1200],[-100,770],[2002,2050]],[[624206,246522],[-1241,-7460],[-531,-1200],[-60,-140],[-140,-580],[-1651,-4770],[-190,-850],[810,-4030],[271,-3540],[210,-1090],[150,-4750],[40,-2960],[-641,-300],[-880,960],[-1772,3420],[-971,-660],[-2322,-2750],[-771,-1940],[-1451,-110],[-2543,-4800]],[[313554,687456],[1542,-740],[5405,1090],[2162,-2080],[-1521,-5350],[4294,-1940],[1801,-3320],[961,-5750],[-2362,-3510],[3794,-6310],[-1212,-4320],[3143,-8890],[1452,-4960],[3133,-3410],[630,1850],[5666,-470],[1121,-3050],[3273,2040],[3523,-3570],[901,-4090],[-621,-4240],[1552,-2520],[5955,-6690],[2022,-5230]],[[360168,611996],[661,-1791],[-4995,-4360],[-1221,510],[460,-6210],[-1721,-1630],[1952,-8690],[580,-11320],[1952,-1250],[1571,-5320],[4184,-5900],[5676,-8860],[2402,-8730],[2002,-1750],[-1101,-3300],[2943,-6800],[4584,720],[2983,3890],[3673,-1980],[2452,-3820],[2683,-9200],[-320,-3080],[2682,-2550],[1502,-6840],[-2733,1830],[70,-4880],[781,-3200],[1351,-9411],[2823,-570],[2973,-8770],[-551,-2860],[2372,-5120],[-60,-7290],[2843,-2410],[1661,1590],[3474,-2410]],[[410756,470234],[-531,-3320],[-2923,-3590],[961,-4140],[-760,-3980],[-221,-40],[-650,-4710],[1852,-3580],[800,-3920],[-881,-4540],[-6806,3660],[160,-5710],[-2572,3830]],[[399185,440194],[-1742,5840],[-5825,9290],[-1141,930],[-7057,13120],[-3954,5860],[-3483,7290],[-1111,4590],[-2843,4530],[-2182,4780],[-3863,5021],[-1642,6750],[-981,3700],[-7036,10750],[-22341,26680],[-6156,8740],[-1632,5700],[-5135,13280],[-2992,4120],[-1782,4670],[-2102,3850],[-3754,3210],[-10800,5820],[-3643,1290],[-6086,9850],[-5495,770],[-1712,17141],[1242,6020],[3103,7920],[1631,6460]],[[288671,648166],[2192,750],[1932,-1930],[10,0],[3814,5710],[1791,-560],[2172,770],[1362,3650],[-1112,4310],[3033,1250],[3113,730],[481,3900],[1041,1030],[3513,11160],[1642,5010],[-1112,910]],[[312543,684856],[1011,2600]],[[100614,761167],[1462,-5820],[350,-7060],[-901,-5980],[-2202,350],[-1581,3160],[-1552,-1020],[3544,7960],[-661,3850],[1541,4560]],[[154295,825837],[4044,-5010],[1301,-4250],[-551,-4180],[5956,-1010],[-40,-8840],[2352,-3970],[-480,-3720],[-4224,4680],[-1632,3970],[-6156,7600],[-3022,9370],[590,4610],[1862,750]],[[2322,805077],[2072,-5800],[421,-8020],[-2142,-2730],[-1222,9320],[-1431,1450],[-20,4680],[2322,1100]],[[115368,949589],[3053,-6591],[-4494,2681],[-240,4490],[1681,-580]],[[53961,991879],[25634,3580],[36624,4540],[-2602,-7250],[-361,-5120]],[[113256,987629],[-3983,-1070],[-721,-6730],[-2863,-5870],[2443,-3700],[310,-14270],[5025,-5600]],[[113467,950389],[520,-10981],[-1341,-2100],[-1492,-10220],[-340,-13190],[2482,-5980],[-720,-2170],[3573,-3720],[561,-3920],[150,-12630],[2062,-7410],[-1101,-16650],[4244,-12660],[3813,-4230],[811,-6180],[1601,-1920],[2072,1560],[8729,-10681],[5154,-7830],[1782,-1330],[4755,-8730],[-1001,-1990],[3763,-9900],[-610,-5020],[1391,-3080],[1031,3200],[3543,-2420],[661,-5700],[2762,2230],[4154,-11620],[751,-6750],[2773,-2660],[3543,930],[1822,-1850],[-851,-8740],[2752,-4720],[-590,-9300],[1271,-1490]],[[177947,740537],[-13743,0],[-31730,0]],[[132474,740537],[4545,11780],[-1982,2400],[2492,11050],[-781,3100],[-2922,3030],[-60,3860],[-3364,1080],[-4364,11470],[-6075,6460],[-1111,6150],[-2523,680],[-921,4000],[-2102,1640],[-4384,8170],[-4114,3120],[-3483,670],[-1421,3870],[-4504,3160],[-2122,3320],[-1892,-90],[-6116,7591],[481,3920],[-1882,6700],[-2142,290],[941,7680],[-651,10270],[-3373,6480],[-3073,-1740],[-1281,5730],[660,9740],[-1401,9180],[-3353,2680],[-2853,5600],[-2272,720],[961,9480],[-6046,14290],[-4604,5750],[-530,11201],[1691,5340],[-560,2460],[-3774,2300],[-561,3510],[-2752,1200],[-1031,5570],[-1231,7610],[-3203,2250],[-2242,7950],[-881,6650],[13653,2020]],[[113256,987629],[39057,-20820],[4414,-2410],[34463,-18500],[7116,-3861],[14634,-8030],[13973,-7770],[4384,-2450],[11821,20],[11411,10],[18718,40],[31289,-80]],[[304536,923778],[-2833,-10840],[2383,-1820],[2722,-5290],[-3763,-70],[20,-5540],[-4314,200],[250,-2270],[-531,-7120],[2553,-2610],[-211,-3630],[6186,-3640],[411,-4890],[1501,-12770],[210,-10660],[-560,-4880],[410,-3840],[-450,-4250],[2802,-560],[10,-3300],[-3743,-1090],[490,-12511],[-2332,-1260],[1512,-8710],[-1912,-2100],[-481,-5880],[1812,-15720],[1421,-6120],[1872,-2680],[1021,-7620],[2262,-11450],[-2242,-2840],[-1672,1630],[-1181,-3070],[-10109,-1630],[-3594,580],[301,-4950],[1071,-9040],[1681,-2160],[1862,-5930],[1582,-1740],[-1452,-3500],[4725,-3850],[820,-5811],[2663,-3100],[-200,-4350],[2232,-8060],[-2322,-4320],[1681,-4690],[291,-6440],[3152,-2730]],[[288671,648166],[-190,9420],[-4775,9380],[-11300,2680],[-2583,4970],[-941,5750],[-1731,5690],[-60,490],[-4655,4630],[-4043,1740],[-3634,2110],[-4414,6170],[-4094,1760],[441,11000],[-1161,5110],[260,9331],[3023,3480],[-2232,2330],[-6967,2170],[-490,1650],[-1792,-6310],[-3033,6400],[-2673,-900],[-3503,3020],[-3213,4760],[-3423,9670],[-3353,7160],[-6957,3950],[-1661,7390],[-5065,6910],[761,3740],[-4104,3980],[-2583,5580],[-1911,540],[270,7930],[-2052,3600],[-350,7500],[-5085,1100],[751,7910],[-6366,12661],[-2703,9940],[-2582,1300],[-431,7960],[220,6470],[-2932,6970],[-701,6460],[-3744,6260],[-2792,7060],[-1612,8040],[961,7740],[1191,6660],[-1351,6440],[-7947,4150],[-8548,3440],[-521,8410],[-6686,6320],[-4024,1970],[751,-3800],[-1582,-2110],[-620,-1750],[-3854,120],[-4814,3690],[-6056,6290],[-1962,3291],[-5325,2280],[-1081,2160],[-1571,10]],[[192871,807967],[551,-4870],[2282,-6750],[-2352,-13500],[-1031,-1230],[-8669,7110],[2993,4000],[-520,3560],[891,8470],[5855,3210]],[[215943,661126],[3503,-2150],[-590,-5680],[2322,-4060],[0,-4870],[2422,-9570],[-1191,-5980],[1671,-10860],[2463,-2450],[1001,-6111],[2482,-4940],[3123,-560],[-330,-3510],[2942,-8800],[421,-4840],[1601,-5510],[3444,-4840],[3273,-11410],[-2623,-10290],[330,-5770],[1362,-2930],[300,-6110],[3934,-7850],[4864,-1880],[3023,410],[-1171,7330],[3333,1630],[1882,-5030],[5265,-5130],[630,-6090],[1832,-1110],[3203,1820],[230,-8430],[3844,-6050],[60,-6980],[7237,-6431],[1371,-5720],[0,-7930],[-961,-5750],[-2442,-4910],[-4294,-2860],[-1982,-3810],[-5145,-6330],[-3913,1640],[-2543,6250],[-670,5220],[-1232,9480],[-3283,10420],[-3473,6420],[-5635,4261],[-4144,5380],[-4434,8190],[-6176,9550],[-12122,11970],[-5725,3290],[-3483,-970],[-1792,60],[-5985,7290],[-5095,4090],[-2302,5190],[1221,1730],[-1422,4710],[-3833,1180],[3273,13340],[1421,8400],[1782,16570],[-100,14351],[-2883,13080],[-3683,4660],[-1141,5860],[-1982,3610],[-2853,-710],[-9129,9590],[-6035,7030],[-5055,6920],[-3964,2230],[-610,2920],[-2813,2500],[-4374,-470],[-2092,-4700],[-4955,5210],[-1431,5970],[-3013,4000],[-4054,-450],[-4023,7830],[-4565,1900],[-610,-1210],[-6126,5550],[-601,9930],[-2792,3660],[-4504,2710],[-1232,4060],[-2642,1550],[-2532,4371],[-1862,580],[-2593,7200],[7227,-1170],[7838,-2920],[3263,-90],[7457,6410],[1921,6130]],[[177947,740537],[-220,-7580],[2152,-5880],[3423,-5751],[7427,-5370],[1782,-9120],[3273,-7400],[-511,-2320],[4014,-4370],[4274,-1890],[-1792,-7430],[3414,-5940],[2522,2360],[5475,-8230],[2743,-2710],[20,-7780]],[[271555,528955],[-2312,100],[-2082,9380],[280,2830],[4114,-12310]],[[254069,549815],[2051,-3190],[-1881,-3960],[-1542,6000],[1372,1150]],[[242928,581345],[1211,-2910],[2963,-1990],[1521,-7400],[-4013,3570],[-1852,4620],[170,4110]],[[240826,614706],[441,-6521],[-1402,2610],[961,3911]],[[231778,634476],[-231,-5790],[-1221,1820],[-3873,-9690],[1681,12050],[3644,1610]],[[530498,562065],[80,-10],[4705,-430],[3363,3690],[4444,-2630],[2332,-7820],[1482,-1760],[3843,-2680],[1792,2280],[3233,-1520]],[[555772,551185],[1822,-5270]],[[557594,545915],[-3424,-6440],[-2992,-3410],[-1932,2990],[600,5330],[-2452,-12410],[-4784,-2600],[230,-4000],[520,-9250],[-4664,-6680],[-3974,-5690],[-9739,-13531],[-7497,-4120],[-4945,-640],[-780,4760],[-1402,-50],[-1842,-6950],[1312,-2170],[1281,-8220],[-1441,-4700],[820,-1150],[1161,-7820],[2283,-5500],[5575,-7190],[70,-80],[2933,300],[-621,-5120],[1662,-640],[660,-4430],[40,-30],[4484,2410],[5205,12540],[2533,310],[1421,-3070],[2292,-5900],[-650,-7200],[-1912,150],[-240,-5440],[-1612,320],[2002,-6040],[901,-5570],[430,-8520],[-3243,-3560],[-2082,-6730]],[[533781,400174],[-450,-610]],[[533331,399564],[-1882,6500],[-2552,-510],[-3153,5880],[-1612,720],[-1892,60]],[[522240,412214],[-5184,5550],[830,4930],[-1191,4360],[-2742,-650],[-1192,3380],[-850,770],[-2032,670],[-1422,4670],[-2532,-5420],[-2923,-1360],[281,-730],[-4735,-1730],[-1802,10],[881,-3480],[-1661,-6800],[-3534,-5960],[-1981,-7460],[470,-3400],[3413,-4330]],[[494334,395234],[-80,-230],[-1802,-2470],[60,-200],[2713,-5271],[2703,-2040],[-351,-9190],[-1241,-1540],[-1491,2650],[-1302,-3940],[-2942,-3460],[-1482,-2630],[-4394,3200],[-1541,-7270],[1271,-1790],[20,40],[-541,-1370],[-1621,-1070],[-4174,1560],[-2803,-2140],[-3853,5450],[-2663,-1460],[-1932,2280],[-310,1910],[-340,230],[-180,4800],[-2383,-900],[1672,3850],[4835,920],[-141,2280],[-760,2660],[-2693,-1440],[-1972,7580],[4154,1110],[190,4021],[1282,4950],[-2022,3510],[1461,80],[3383,5010],[941,140],[1602,2400],[1881,2560],[3364,420],[2091,2780],[-650,3130],[1571,1300],[-911,3510],[1532,2540],[-681,1120],[-3533,2230],[701,3080],[-3694,3240],[-630,-1270],[-1862,-1150],[320,-4950],[1742,-1680],[-3463,-1840],[-1292,-5560],[-2792,390],[-2092,-1300],[-2723,1680],[2883,8210],[-1221,970],[2072,7820],[-1201,6710],[-5005,-210],[-2412,-11710],[540,-3020],[-1101,-6660],[-1982,9070],[1882,4580],[-611,3220],[951,5540],[2583,2030],[600,5960],[-4874,1680],[-3694,-380],[-1481,-2760],[1511,-2250],[2903,-8960],[-2853,-6860],[-2242,-520],[1351,6130],[-870,3670],[-3644,-1610],[-440,-4480],[-2643,-4290]],[[445488,429564],[-1791,3590]],[[443697,433154],[1671,3470],[-791,3450],[1922,3320],[-911,2930],[2142,7160],[4455,-520],[-851,6170],[-1902,4040],[140,1050],[-290,8450],[1361,2960],[471,7420],[1551,8040],[5515,6400],[351,1750],[2142,110],[830,3451],[-1761,1370],[-681,2820],[1471,3020],[-1000,2940],[920,5700],[-1711,2330],[1972,1810],[2042,2700],[2682,3310],[771,-2150],[2432,4850],[-120,3230],[4094,5570],[440,3950],[6847,-500],[470,120],[2813,-1190],[1741,3560],[4495,-2080],[310,1760],[1872,-4170],[6956,860],[4144,1500],[-1001,15500],[-1712,10580],[-3363,2240],[1392,3610],[-1292,3190]],[[496726,579235],[7047,-3680],[-230,2680],[-310,3720],[7136,140],[12272,-5540],[2392,-7810],[5435,-2200],[30,-4480]],[[393720,672666],[4344,-3670],[1511,830],[2252,-5300],[2333,-150],[3323,-4830],[3363,-160],[3933,-3420],[5145,3270],[1422,-5610],[6246,4690],[3513,-670],[5475,-8360],[2322,4080],[2092,10440],[3283,2860],[1401,3790],[-910,4030],[1331,2390],[1421,-3580],[5756,-1870],[3563,600],[7377,-1580]],[[464216,670446],[8948,-5960],[1322,-800],[1811,-13220],[1752,-4250],[-2823,-7820],[120,-14590],[241,-8330],[-511,-1880],[-4354,-8411],[561,-1120],[4234,-5930],[140,-2130],[-2212,1500],[-2743,-4790],[-370,-1920],[4654,-9230],[3033,-2760],[100,-5180],[5115,-7580],[3413,-1670],[3323,-2480],[971,1140],[5785,16200]],[[443697,433154],[-4575,-1840],[-400,-1710],[-4694,6430],[-471,5670],[-2893,270],[-550,4010],[-2633,-1980],[-3953,-5950],[-621,4780],[-2062,3890],[481,1730],[5205,2720],[-421,3440],[-2572,2480],[-501,7250],[-10109,-1960],[-1101,7290],[-1071,560]],[[360168,611996],[3003,-1011],[801,-3970],[4074,740],[2902,-1450],[1532,4170],[4434,5891],[-2903,-2760],[270,14350],[2883,1110],[-490,4820],[1771,4340],[-270,4140],[5035,10520],[-170,6660],[1581,7110],[2783,3160],[-1462,3220],[3143,1430],[991,2550],[3644,-4350]],[[364162,948599],[10710,0],[4644,-2840],[3193,-9371],[3073,-5710],[5135,-3530],[2062,-1580],[4624,-8040],[1091,-2810],[5365,-4650],[1522,-5190],[7487,-9700],[3203,-360],[7787,-10800],[2282,-2170],[951,-5350],[301,-4520],[5445,-11620],[-631,-7060],[761,-6720],[4194,-10310],[160,-3261],[6526,-8840],[2352,-370],[3193,-6740],[6066,-5210],[5905,-1730],[2022,-4590],[5215,-1290],[3794,-6270],[4014,-2220]],[[476608,795747],[-6557,-18640],[-2592,-1400],[-1291,-4680],[-160,-530],[-10,-1780],[-7087,-22010],[-2923,-15220],[2472,-5290],[-490,-4541],[1161,-4690],[-520,-14290],[1411,-720],[1031,-9540],[1722,-5610],[-3384,-4840],[10,-2120],[3083,-3670],[1732,-5730]],[[304536,923778],[17286,40],[10,24771],[9960,-40],[32370,50]],[[234050,237612],[2162,-3430],[-991,-4310],[-3143,4840],[1972,2900]],[[466778,273842],[170,-1290],[1382,-4550],[2612,-3760],[-730,-5290],[-161,-1340],[-260,-8320],[1071,-5560]],[[470862,243732],[-2642,-5090],[-281,210],[-1361,-2740],[-3583,-7820]],[[462995,228292],[-7367,9920],[-4695,4390],[-6806,4290],[821,3390],[-2432,1870],[-1752,-1740],[-1502,2110],[-6335,2850]],[[432927,255372],[3162,-1450],[-330,1550],[751,140],[691,3060],[3643,2290],[6826,1290],[3173,1040],[1602,8890],[20,80],[5425,-2700],[2052,290],[420,-1590],[6416,5580]],[[445488,429564],[-2292,-12750],[40,-7620],[2202,1590],[3794,-1760],[-821,-4210],[100,-2400],[2092,-3310],[6566,-1080],[1011,-3930],[-1261,-3170],[1231,-4031],[2833,-4340],[2542,-3490],[-770,-3460],[-2303,-6270],[-4954,120],[-3043,-3450],[-4665,-660],[-260,-6910],[711,-5010],[-1722,-3620],[-1031,-2490],[-2212,-430],[3624,-6280],[0,-2010],[-301,-4750],[-951,4610],[-6826,8490],[-1241,3860],[-2402,650],[-321,20],[-3243,4840],[-2142,190],[-1141,200],[-4204,-6060],[-3773,770],[-1602,-2270],[-1081,-6270],[-1952,-1120],[-1461,-4150]],[[414259,337603],[-2622,4940],[-1102,-1440],[-3803,1940],[2162,5800],[3023,4610],[1321,4100],[1441,-460],[1622,9750],[-711,8700],[1602,4630],[-8118,10161],[-2702,9720],[-3344,9150],[-810,17490],[-3033,13500]],[[377835,382823],[2362,-1860],[-831,-2240],[-3413,2540],[1882,1560]],[[370938,393774],[2473,-640],[2142,-4371],[-851,-2950],[-3053,2930],[-711,5031]],[[519568,319523],[1001,-8190],[3733,1020],[3243,-1150],[1452,2550],[650,3580],[2002,940],[3273,170],[10,0],[40,-2970],[3073,-1130],[-1862,-2600],[561,-8620],[2342,-710],[1151,220],[2803,-1580],[210,2740],[2022,200],[1642,1220],[2172,-70],[1311,-4200],[-1041,-2870],[1391,-1220],[360,1740],[5295,-2580],[5055,2280],[571,1590],[2842,-1530],[2002,1350],[2703,400],[-571,7690],[1812,6720],[-861,2000]],[[569955,316513],[1371,-170],[3974,-4410],[-1721,-3400],[1091,-3710],[2012,-1730]],[[513542,187392],[-1731,-1350],[-3734,2980],[-15114,6340],[-6216,4750],[-9799,4300],[-6186,4390],[-2773,9470],[-4113,5240],[760,1500],[-1641,3280]],[[470862,243732],[2933,130],[4654,2600],[3904,-4630],[2522,5600],[1672,1140],[-851,4370],[1852,2290],[4284,1750],[1631,2170],[3233,-1770],[2192,8330],[1792,3780],[-1001,3550],[130,730],[-330,950],[-4194,-1650],[-30,5611],[-2422,3410],[-841,6340],[2372,2000],[421,4660],[-1672,2880],[-3103,1350],[-841,-280],[-3363,-610],[-1091,2030],[601,3820],[-40,3880],[2782,-310],[-310,2200],[4344,-3570],[1011,1730],[3313,1860],[-100,1950],[-70,290],[2332,3120],[2803,380],[2842,3590],[2012,-710],[681,360],[0,20],[1551,1030],[2473,-140],[1251,230],[2642,1580]],[[514833,321773],[4735,-2250]],[[494334,395234],[3533,2600],[1592,-1290],[5165,-4100],[1111,-960],[1852,-1640],[5805,4580],[1171,2550],[1281,2450],[361,940],[3513,4180],[3273,980],[-1882,2810],[1131,3880]],[[533331,399564],[-2372,-1100],[880,-2410],[-2052,-10461],[1642,-6940],[-3423,-1390],[1051,-3580],[80,-1580],[-3954,-2290],[-160,-2090],[-1391,-6210],[-2182,-2510],[-1592,-5800],[-3713,-6010],[-1031,-3710],[430,-130],[200,-270],[3143,-5940],[-30,-5560],[-1281,-960],[-1632,-5510],[-90,-220],[-1021,-3120]],[[432927,255372],[-2693,3440],[-1632,3780],[-1711,-1160],[-4765,5640],[-1801,9400],[-4144,4701],[-8989,20120],[-1371,4580],[160,4750],[-500,2800],[-3063,4700],[-1211,5060],[2532,3380],[9119,2260],[2942,5830],[-1541,2950]],[[839518,185202],[831,-5120],[-1061,-4140],[4524,-3330],[1362,-7581],[-1482,-3530],[1952,-2080],[6336,-3150],[1131,-3540],[-1762,-3230]],[[851349,149501],[381,-1890],[4724,-2070],[561,-4180],[2672,-4800],[1712,-770],[1731,-5410],[4174,-2380],[531,-2180],[3573,-1180],[3003,-4240],[1702,-7120],[310,-4000],[1902,-2750],[5115,-2440],[810,-4700],[-1771,-4880],[931,-4870],[-521,-4850],[-11080,0],[-5355,-20],[-6466,30],[-4134,0],[-2673,0],[-11050,-30],[-6006,-17730],[-2152,-6360],[-4394,-12961],[-2552,-7630],[810,-1860],[671,-1450],[1742,-3810],[1531,-3380],[-2262,-3140],[-561,-1330],[-10,-6630],[-1021,-1150],[111,-2340],[710,-4080],[300,-3700],[-2552,-7220],[-2933,4730],[-4634,7660],[-6636,11850],[-1772,3180],[-6266,11020],[-6086,9770],[-12331,17901],[-5926,7280],[-6876,6430],[-2543,1050]],[[770493,80871],[-3172,7480],[-71,200],[2213,7330],[-2203,7230],[-1161,3000],[181,770],[2782,12040],[5615,24300]],[[774677,143221],[3003,5990],[3463,570],[1732,3230]],[[782875,153011],[1692,4030],[2232,8940],[2122,2601],[1771,3680],[-960,5950],[1511,780],[60,7810],[1351,990],[531,1870],[1992,-1390],[4013,-3810],[-770,-3550],[2382,1030],[220,-3900],[-270,-4550],[1181,-5960],[10,-1301],[2643,-2890],[2742,-1150],[2522,-7610],[581,210],[20,0],[2382,5360],[3043,5550],[2643,1611],[4063,2360],[50,2120],[651,3140],[1702,-1170],[3243,5190],[630,-1220],[381,2490],[4844,6230],[4324,-2210],[1111,960]],[[823183,215992],[4915,-110],[-101,-10420],[581,-6240],[1662,-3390],[2102,240],[2362,-4520],[1801,-110],[4375,-3820],[1021,-460],[2112,-2280],[1051,-1130],[870,12170],[2423,2800],[3062,-3430],[3444,-1150],[3493,-4840],[7257,-690],[10,-8080]],[[865623,180532],[-10,-21571],[20,-9460],[-14284,0]],[[782875,153011],[-2752,3990],[1331,1760],[991,6910],[-5796,7921],[-4544,4390],[-931,4550],[-3313,990],[-210,5420],[500,4990],[-1761,7680],[-10,770]],[[766380,202382],[19068,10720],[4173,1430],[9399,500],[6126,-70],[4815,4620],[1991,5150],[6887,1740]],[[818839,226472],[1732,-8990],[2612,-1490]],[[687506,225422],[1391,-1630],[0,-20],[4014,-1730],[1711,-7180],[2613,-4490],[10,0],[570,-2200],[220,-320],[2433,-8270],[1461,1350],[-260,-2520],[3023,1160],[1992,-1310],[140,-70],[810,810],[261,-320],[100,60],[650,350],[1272,-80],[500,-870],[1602,-280],[870,-2730],[771,-7210],[-1531,-5600],[-341,-190],[-1011,-4270],[-130,-3430],[3854,-4430],[2232,-5781],[4104,1640],[1351,1221],[5645,5910],[3544,3360],[1631,-4650],[-2082,-2940],[1532,-3441],[2602,-5870],[1442,-3250],[5865,-3400],[-1011,-6460],[3133,-270],[2532,-220],[20720,-1940],[6936,-690]],[[770493,80871],[-6386,5160],[-5735,3370],[-4935,1860],[-6285,880],[-541,130],[-5285,-140],[-6796,-1050],[-4454,-4010],[-4905,-7670],[-2472,-680],[-6266,-3090],[-2022,-1960],[-7177,-3510],[-1321,-1070],[-6066,-5840],[-3033,300],[-3173,390],[-2862,-1790],[-5696,3050],[-4654,1070],[-5165,3770],[-1461,2980],[-4685,3440],[-10129,2570],[-4695,-360],[-3493,1260],[-3703,4280],[-2583,2840],[-7457,6670],[-3233,1180],[-3263,870],[-3823,2320]],[[630772,183302],[2833,990],[110,-210],[1051,1710],[1131,920],[0,-40],[1752,-2210],[1301,1790],[400,2660],[741,560],[711,260],[1761,-40],[1792,-400],[861,-230],[1031,-530],[-60,-1960],[1061,-880],[750,480],[1902,-180],[190,1680],[1422,1730],[2192,2480],[-2302,2550],[-861,-1780],[-871,-3480],[-510,2550],[180,760],[-751,3840],[-100,2490],[771,1290],[-341,950],[2102,5360],[3794,320],[660,-5760],[-300,-560],[1161,-1300],[1442,-2740],[50,-620],[2792,-3580],[311,0],[3183,4040],[510,1250],[4374,2220],[1472,2040],[2492,-2840],[2012,2240],[510,870],[2142,770],[130,-200],[20,30],[811,1220],[190,-60],[1212,240],[350,-40],[1041,4360],[2953,4130]],[[684333,212442],[1021,-1710],[440,7430],[-60,7950],[1772,-690]],[[542600,400504],[1761,-3210],[5675,-250],[4054,-4330],[-140,-3040],[3353,-2111],[4314,-4110],[951,910],[3804,1140],[410,6771],[5485,1120],[1712,-1160],[1351,-840],[3303,-5081],[421,-1900],[3323,160],[420,-3560],[4014,10],[1241,1840]],[[588052,382863],[-40,-5510],[671,-5650],[2652,260],[-630,-3350],[-4284,-4290],[-2363,1500],[-3383,240],[-120,-7620],[110,-560],[-1561,-680],[-991,-5310],[-3023,40],[-1822,1690],[-2782,-4000],[-4374,2070],[-931,-4140],[-1822,-1260],[330,-5150],[-1491,-1050],[3393,-6750],[-510,-2170],[1111,-9250],[2102,-1440],[530,-2950],[1131,-1020]],[[533781,400174],[2312,830],[6507,-500]],[[606660,392474],[1821,-4031],[50,-6040],[211,-1840],[930,-4940],[-1421,-1850],[2623,-2610]],[[610874,371163],[30,-6530],[-30,-220],[-3974,-1810],[-1982,-1260],[-2933,1450],[-1681,-1520],[170,-5100],[-631,-4440],[-4554,-10540],[571,-1780],[890,-2520],[-7357,-5180],[-2932,-1230],[-231,-3380],[-10,-170],[-740,-11520]],[[588052,382863],[981,4570],[1301,-420],[1402,-110],[3503,-6670],[2472,-620],[1772,-390],[1261,6550],[2222,-830],[2252,5271],[1442,2260]],[[561968,542665],[-931,-9640],[620,-2870],[3043,-1870],[-1441,-12100],[1081,-5620],[2622,-7710],[-1001,-2390],[-1271,-11701],[1912,-3010],[-841,-8370],[120,-1090],[4665,-1750],[-1332,5660],[1332,-350],[1691,2810],[1582,-3290],[3924,-1030]],[[577743,478344],[-361,-5800],[1452,-1610],[1491,-2020],[-2432,-2870],[-341,-5010],[2082,60],[471,-5150],[-2292,-3370],[2512,-2030],[2062,1410],[3613,-1160],[1171,-4000],[3884,1290],[5335,-3640],[-811,6280],[1952,630],[1111,-4240],[1792,360],[2532,-4490],[2312,-9680],[3704,-310],[5765,-770],[421,-1170],[270,0],[2813,-850],[4754,2730]],[[623005,432934],[-350,-1880],[3133,90],[4294,-3710],[3483,-6490],[-3023,-3260],[-60,-3960],[-1912,-5260],[-2132,380],[-530,-420],[961,-5500],[1901,-1230],[1061,-3950],[-3283,-4290],[-1921,-910],[-771,-2160],[1311,-4861],[2202,-2340],[330,-4030],[361,-1580],[200,-520]],[[628260,377053],[-5655,-2610],[1761,-1710],[891,-1030],[-1261,-5990],[-1632,-870],[-180,-310],[-570,1190],[-150,30],[-681,280],[-861,-800],[-20,0],[-1752,-740],[-710,840],[-1792,2000],[-1231,4950],[-80,480],[-3463,-1600]],[[557594,545915],[981,1700],[3393,-4950]],[[642924,284133],[1461,-3840],[160,-30],[1101,-1370],[2653,-3401],[240,-4740],[2142,2320],[1752,-3610],[100,-10],[1001,-2170],[1251,-1540],[570,-3220],[-2322,-90],[-3183,-20],[-560,-950],[-731,-100],[-280,-810],[170,-920],[-1582,-4440],[-2021,1070],[-401,180],[-1261,1930],[-2172,-3720],[-2072,-3210],[-731,1760],[-1111,50],[0,10],[-560,1060],[-641,190],[-801,720],[-580,820],[-180,90],[-371,-1200],[-520,950],[-911,2210],[-280,1570],[-951,3370],[-1071,630],[-421,990],[-1001,2420],[-20,30],[0,130],[-650,1900],[-1061,1860],[-2913,390],[-600,-110]],[[623175,279003],[4094,1540],[1391,-1480],[2593,510],[871,-400],[480,1030],[1111,5180],[2032,-110],[60,-180],[320,90]],[[636127,285183],[531,-2360],[4364,-250],[1902,1560]],[[652072,345453],[941,-2080],[-991,-4140],[1492,-3960],[110,-3040],[510,-70],[3003,-930],[1521,-3720],[-2912,-1960],[-401,-2440],[-2752,2390],[-471,-1660],[-530,-2240],[2792,-4070],[-2542,-1520],[671,-1950],[-170,-2800],[2612,-1330],[741,760],[420,-450],[30,-120],[521,-790],[290,-3350],[300,-960],[2613,3810],[510,920],[1321,4440],[2082,190],[251,-1680],[1761,-1020],[911,-510],[4324,-1700],[300,-2240],[-2212,-4320],[-1431,-5970],[-1461,-3070],[-761,-10870],[-1712,-2470],[-1251,-550],[481,-7051],[1791,-610],[-1311,-3040],[911,-2940],[2492,630],[471,-280],[1621,-3260],[2112,-150],[30,0],[4184,-1500],[741,-400],[180,-310],[-1371,-3410],[-271,-4610],[-480,-110],[-2873,1730],[0,20],[-1591,430],[-2082,-4030],[-200,-3760],[-20,-30],[-40,-80],[430,-4640],[250,-1380],[-1611,-3200],[-871,-2620],[-10,-70],[-150,-2630],[-571,-2630],[150,-1660],[2222,-2900],[0,-10],[1202,580],[290,-260],[2662,-2490],[-70,-1230],[1011,-2730],[991,-3180],[2593,3760],[90,-190],[1361,1400],[2743,-1540],[750,-1790],[1432,1020],[490,-4530],[1672,-1860]],[[636127,285183],[1882,1260],[-2773,5800],[-990,400],[3122,6280],[1552,170],[-220,3410],[-220,650],[720,2130],[941,1270],[-50,3810],[-570,2430],[30,-20],[-1432,2070],[-2132,-2350],[-781,2610],[2963,1710],[2453,3320],[410,1540],[180,240],[2172,3410],[401,1000],[760,1560],[110,1200]],[[644655,329083],[2393,3820],[-131,4700],[581,6910],[500,2020],[4074,-1080]],[[629431,376453],[30,-730],[-90,-350],[-901,-1700],[-600,-4610],[2011,-2250],[321,-1380],[540,-590],[50,0],[60,-230],[1802,-80],[771,440],[991,840],[320,-300],[100,450],[431,-2820],[1741,770],[1261,-2190],[1161,-1410],[-1461,-3760],[-1271,-4630],[0,-90],[380,-1330],[-1271,-2210],[551,-4240],[-1642,600],[-1381,-120],[-40,3680],[-2533,-840],[-881,-5570],[-2502,-1920],[0,-10],[230,-1740],[3133,3700],[-110,-1780],[-640,-880],[-1782,-5740],[-2883,-5520],[1482,-3470],[490,-4710],[2062,-650],[340,-80],[2292,3790],[2172,1440],[1342,2890],[350,550],[2863,2110],[1952,4750],[330,-120],[741,2050],[1301,-1000],[1611,-6380]],[[628260,377053],[1171,-600]],[[645126,428934],[2372,-6090],[1862,430],[1631,1780]],[[650991,425054],[-30,-5290],[2483,-10750],[4504,-11000],[7387,-11671],[-2523,-12070],[-320,-5940],[1752,-7320],[4634,-16590],[1171,-6890],[1562,-3900],[4584,-7430],[6366,-12170],[2502,-4750],[5666,-12760],[2492,-4410],[1271,-7680],[1011,-7851],[1411,-3560],[271,-4580],[840,-5050],[2323,-3130],[3253,-5150],[620,-3820],[4044,-2760],[941,-8070],[2472,-4000],[6266,-4980],[4384,-1500],[2793,-210],[4724,240],[3333,-460],[4174,-5900],[771,-1700],[3984,-1100],[3463,-2250],[491,-3220],[2892,-5460],[1862,-3450],[821,-5150],[4154,-2340],[7126,2030],[3464,1370]],[[623005,432934],[3944,-310],[1741,1510],[4314,-2100],[1962,4310],[3133,-140],[2723,-5410],[4304,-1860]],[[585980,727887],[3634,-4990]],[[589614,722897],[-6256,-7151],[220,-3160],[5025,-3000],[350,-8140],[3123,-12270],[-3673,-9680],[2762,320],[1642,-1380],[1461,-2280],[-2482,-8730],[3823,-310],[4464,-3740],[-110,-2570],[-490,-6140],[190,-6670],[2412,-590],[2323,-2940],[1971,320],[971,-10070],[4515,1580],[3883,-7470],[1732,3080],[3453,690],[4785,-1040],[120,-17150],[-10,-11911],[4674,0],[320,-2310],[-13903,-17610],[-2652,-2920],[-2222,710],[-561,1820],[-1461,-2550],[-2673,-1490],[251,-7150],[-1462,-2880],[-240,-5090],[-2593,1780],[-3473,-3800],[-3003,-3080],[-2292,-3230],[-5075,-3640],[421,-3870],[2632,1270],[601,-2340],[871,-3730],[-1882,-10410],[-230,-4900],[2712,-4310],[2653,-4340],[610,-5000],[-3443,-5170],[-2622,-270],[-6356,210],[-701,-2800],[-2462,-9161],[420,-3280],[831,-6500],[-5005,910],[-2062,-3080],[2132,-1850],[-830,-4090]],[[555772,551185],[90,10700],[-921,4630],[3123,4590],[-2983,4290],[541,8610],[3013,4570],[3703,1030],[8208,-3780],[3233,1740],[-441,2850],[-2582,3880],[-4564,-140],[580,4000],[-2502,2900],[-2452,2760],[2492,40],[-3273,3140],[-1812,-230],[-1241,3670],[-1622,260],[-2542,9891],[851,6960],[-2232,650],[-351,6520],[-5004,6790],[-4154,9400],[7026,9660],[7287,10420],[1802,-6140],[2793,4800],[2202,5380],[-60,13130],[-4975,3370],[-3223,-3450],[-991,1540],[-110,6670],[4944,7680],[8058,3170],[30,10],[2242,16051],[2042,2550],[3083,3750],[5976,-10121],[4924,8511]],[[553260,811007],[2672,-2080],[581,-3900],[3533,-5390],[530,-7370],[3163,-6290],[1612,-9220],[1551,-2680],[1211,-2950],[3734,-15460],[2532,-4560],[3794,-2420],[1091,-3170],[2072,-5330],[1792,-640],[1761,-9930],[1091,-1730]],[[476608,795747],[6005,-1100],[481,4060],[3253,6430],[4023,3610],[-200,6280],[1211,220],[941,8940],[3664,8550],[70,2521],[5535,3410],[4064,-1240],[1491,5920],[1221,440],[4965,-4080],[3013,-980],[6306,1150],[4414,-2470],[5345,-20],[2532,1560],[4935,-7531],[200,-4430],[1391,2980],[-90,-5800],[6116,-3110],[1822,-5460],[3944,-4590]],[[596931,700476],[1721,-1130],[501,-4010],[-591,-8720],[5585,-9710],[1872,-6500],[1301,-9060],[2403,-4600],[-161,-3520],[4695,-2280],[4554,-190],[3904,-6530],[2983,510],[1961,-2040],[1922,290],[6716,-8450],[2973,-880],[7808,80],[190,180],[8378,-2230],[1711,-4520],[4114,-4650],[2532,-740],[771,5010],[6366,1300],[-160,-7150],[-1601,-10721],[-7708,-23400],[-2252,-8920],[-1481,-7130],[-3674,-23850],[-720,-7480],[-1071,-21390],[-150,-15670],[-851,-21801],[260,-14850],[-861,-11500],[-1671,-6650],[-591,-6770],[1271,-12270],[1111,-3480]],[[589614,722897],[4053,-2071],[2793,-4140],[-540,-3740],[1561,-1050],[-550,-11420]],[[964326,387073],[3903,-2280],[6416,-2200]],[[974645,382593],[60,-26970],[-1421,-4070],[-5245,-14950],[-6126,-10090],[-770,-1300],[-961,-1250],[-2263,-4090],[-2272,-3760],[-3022,490],[-2413,-2010],[-3173,-80],[-2942,-3410],[-5936,-5520],[-310,-4360],[-2623,-130],[-1571,-7130],[-3904,-3390],[-2162,-2190],[-1541,-4540],[-1572,500],[-671,-3620],[-4784,-4751]],[[919023,275972],[-3663,5401],[-3574,6940],[-1932,7970],[-370,4260],[-4734,9960],[-1432,-2360],[-1571,4020],[180,4280],[-2032,4270],[-3213,6710],[-2002,-3400],[-5275,2490],[0,4130],[-4814,560],[160,10530],[0,140],[-711,5330]],[[884040,347203],[2543,9530],[3923,4000],[3313,3460],[3424,1360],[3843,3430],[6256,3330],[5645,800],[1081,250],[4124,890],[3053,530],[2142,380],[2843,690],[3063,780],[3663,800],[5075,3010],[2933,4110],[3203,910],[3943,1390],[4174,-270],[1712,2300],[1801,1131],[5346,-830],[3183,-2111]],[[905340,444144],[1852,-820],[2752,-4910],[-1641,-7270],[-3964,5900],[1391,3110],[-390,3990]],[[919023,275972],[4734,-7000],[-10,-7820],[341,-8210],[-401,-14020],[-40,-23450],[781,-10],[-560,-16760],[-1812,-70],[-70,-3370],[1841,-40],[-1971,-3390],[20,-3680],[1701,-750]],[[923577,187402],[10,-6870],[-34532,10],[-23432,-10]],[[818839,226472],[2632,870],[13543,1690],[3203,-4730],[420,2810],[3203,970],[7648,6070],[2932,5020],[6977,6190],[8998,10390],[5596,9670],[931,18131],[1000,3830],[4805,5910],[1952,5160],[-1381,5550],[80,4480],[210,3750],[-641,15790],[2873,14340],[220,4840]],[[997797,367293],[1932,-4100],[-2533,-7330],[-800,-5460],[-2172,-5190],[-6547,-12910],[-210,-350],[-3713,-4640],[-1792,-4090],[-1541,-4810],[-131,-630],[-2132,-4700],[-1761,-10140],[761,-9210],[-1412,-3690],[-2462,-910],[-1952,-5370],[-3183,-1470],[140,-4430],[1882,-1191],[220,-3460],[1712,2840],[6476,2521],[-941,-7121],[-2612,-3950],[-981,1640],[-2583,-2940],[-1491,-9260],[1681,-1190],[2643,6570],[3163,560],[-2953,-6220],[-771,-7300],[-2152,-7920],[-1311,-9390],[-1251,-2510],[-1602,-15880],[-2172,-6730],[-360,-5750],[-1842,-2660],[-4033,980],[0,13990],[-6927,40],[-10,3160],[-2432,940],[-6056,-1540],[-2713,-12130],[-2942,-3260],[-601,-6700],[-5255,-9020],[-4594,5550],[-3904,-3130]],[[974645,382593],[9849,-3240],[3524,2190],[821,6510],[3473,-2350],[2812,-7880],[1202,-8340],[1691,6260],[-220,-8450]],[[999999,331743],[-5265,-12170],[-2803,-3970],[-930,7690],[2832,7670],[6166,780]],[[988038,388303],[-2663,-3330],[-3873,-320],[-501,2110],[3944,-1060],[2903,2770],[190,-170]]],"transform":{"scale":[0.00003166779721665107,0.00001818657339988718],"translate":[-118.40004213617748,14.532098361948284]},"objects":{"states":{"type":"GeometryCollection","geometries":[{"arcs":[[0,1,2]],"type":"Polygon","properties":{"cvegeo":"09","nombre":"Ciudad de México"}},{"arcs":[[3,4,5,6,7,8,9]],"type":"Polygon","properties":{"cvegeo":"12","nombre":"Guerrero"}},{"arcs":[[10,11,12,13,-1,-3,14,-4,-10,15,16]],"type":"Polygon","properties":{"cvegeo":"15","nombre":"México"}},{"arcs":[[-2,-14,17,-5,-15]],"type":"Polygon","properties":{"cvegeo":"17","nombre":"Morelos"}},{"arcs":[[18,19,20,21,22,23]],"type":"Polygon","properties":{"cvegeo":"25","nombre":"Sinaloa"}},{"arcs":[[[24]],[[25]],[[26]],[[27]],[[28,29,30,31,32]]],"type":"MultiPolygon","properties":{"cvegeo":"02","nombre":"Baja California"}},{"arcs":[[[33,34,-23,35,-30]],[[36]]],"type":"MultiPolygon","properties":{"cvegeo":"26","nombre":"Sonora"}},{"arcs":[[[37,-32,38]],[[39]],[[40]],[[41]],[[42]],[[43]]],"type":"MultiPolygon","properties":{"cvegeo":"03","nombre":"Baja California Sur"}},{"arcs":[[44,45,46,47,48,49,50,51,52,53]],"type":"Polygon","properties":{"cvegeo":"32","nombre":"Zacatecas"}},{"arcs":[[54,55,-53,56,-20,57]],"type":"Polygon","properties":{"cvegeo":"10","nombre":"Durango"}},{"arcs":[[58,59,-55,-58,-19,-24,-35,60]],"type":"Polygon","properties":{"cvegeo":"08","nombre":"Chihuahua"}},{"arcs":[[[61]],[[62,63,64,65]]],"type":"MultiPolygon","properties":{"cvegeo":"06","nombre":"Colima"}},{"arcs":[[[-57,-52,66,67,-21]],[[68]],[[69]]],"type":"MultiPolygon","properties":{"cvegeo":"18","nombre":"Nayarit"}},{"arcs":[[70,71,-16,-9,72,-64,73,74]],"type":"Polygon","properties":{"cvegeo":"16","nombre":"Michoacán de Ocampo"}},{"arcs":[[-51,75,-49,76,-74,-63,-66,77,-67]],"type":"Polygon","properties":{"cvegeo":"14","nombre":"Jalisco"}},{"arcs":[[78,79,80,81,82]],"type":"Polygon","properties":{"cvegeo":"07","nombre":"Chiapas"}},{"arcs":[[83,84,-79,-83,85,86,87]],"type":"Polygon","properties":{"cvegeo":"27","nombre":"Tabasco"}},{"arcs":[[88,-81,89,-7,90,91]],"type":"Polygon","properties":{"cvegeo":"20","nombre":"Oaxaca"}},{"arcs":[[92,93,-71,-75,-77,-48,94]],"type":"Polygon","properties":{"cvegeo":"11","nombre":"Guanajuato"}},{"arcs":[[-50,-76]],"type":"Polygon","properties":{"cvegeo":"01","nombre":"Aguascalientes"}},{"arcs":[[95,96,-17,-72,-94,97]],"type":"Polygon","properties":{"cvegeo":"22","nombre":"Querétaro"}},{"arcs":[[98,99,100,101,-96,-98,-93,-95,-47,102]],"type":"Polygon","properties":{"cvegeo":"24","nombre":"San Luis Potosí"}},{"arcs":[[103,-12,104,105]],"type":"Polygon","properties":{"cvegeo":"29","nombre":"Tlaxcala"}},{"arcs":[[106,-91,-6,-18,-13,-104,-106,107,108]],"type":"Polygon","properties":{"cvegeo":"21","nombre":"Puebla"}},{"arcs":[[109,-108,-105,-11,-97,-102,110]],"type":"Polygon","properties":{"cvegeo":"13","nombre":"Hidalgo"}},{"arcs":[[111,112,-86,-82,-89,-92,-107,-109,-110,-111,-101,113]],"type":"Polygon","properties":{"cvegeo":"30","nombre":"Veracruz de Ignacio de la Llave"}},{"arcs":[[114,115,-99,-103,-46,116]],"type":"Polygon","properties":{"cvegeo":"19","nombre":"Nuevo León"}},{"arcs":[[117,-117,-45,-54,-56,-60,118]],"type":"Polygon","properties":{"cvegeo":"05","nombre":"Coahuila de Zaragoza"}},{"arcs":[[119,-112,-114,-100,-116,120]],"type":"Polygon","properties":{"cvegeo":"28","nombre":"Tamaulipas"}},{"arcs":[[[121,122,123,124]],[[125]]],"type":"MultiPolygon","properties":{"cvegeo":"31","nombre":"Yucatán"}},{"arcs":[[-124,126,127,-84,-88,128]],"type":"Polygon","properties":{"cvegeo":"04","nombre":"Campeche"}},{"arcs":[[[129,-127,-123,130]],[[131]],[[132]]],"type":"MultiPolygon","properties":{"cvegeo":"23","nombre":"Quintana Roo"}}]}}}